{
"type": "FeatureCollection",
"name": "lineas_proyectos",
"crs": { "type": "name", "properties": { "name": "urn:ogc:def:crs:OGC:1.3:CRS84" } },
"features": [
{ "type": "Feature", "properties": { "OBJECTID": 1, "ID": 3, "SHAPE_Leng": 284.82984738900001, "OBJECTID_1": 3, "ID_2": 3.0, "PROY": "MEJORAMIENTO PAVIMENTO CALLE PABLO NERUDA, OLMUÉ", "FUENTE": "F.N.D.R. TRADICIONAL", "ESTADO": "EN EJECUCIÓN", "MONTO": 927829000.0 }, "geometry": { "type": "MultiLineString", "coordinates": [ [ [ -71.168344822622032, -33.003019350654164 ], [ -71.168361327760977, -33.002952857466944 ], [ -71.168370218560497, -33.002885339767644 ], [ -71.168371413708158, -33.002817415185056 ], [ -71.168364902288872, -33.002749705068524 ], [ -71.168350743884076, -33.002682828804204 ], [ -71.16829696669862, -33.002683763307978 ], [ -71.168215636173514, -33.00271038440124 ], [ -71.168132468132526, -33.002732612138217 ], [ -71.168047796454687, -33.002750357284526 ], [ -71.167961961056193, -33.002763548601237 ], [ -71.167602589288379, -33.002779820112508 ], [ -71.167243686687598, -33.002802272256694 ], [ -71.166979061229611, -33.002749604680965 ], [ -71.166754504025505, -33.002734404224846 ], [ -71.166529562599294, -33.00272399137387 ], [ -71.166304380678582, -33.002718372782915 ], [ -71.166226877642146, -33.002712148974048 ], [ -71.166150049204973, -33.002701535038085 ], [ -71.166074245210183, -33.002686579305781 ], [ -71.166060339236552, -33.002687375911307 ], [ -71.166046799987257, -33.002690165303072 ], [ -71.166034026639267, -33.002694865241622 ], [ -71.166022395788787, -33.002701337158918 ], [ -71.166012250347961, -33.002709390243758 ], [ -71.166003889434933, -33.002718787067288 ], [ -71.16599755955491, -33.002729250583272 ], [ -71.165993447332397, -33.00274047229599 ], [ -71.166057433933432, -33.002925465929451 ] ] ] } },
{ "type": "Feature", "properties": { "OBJECTID": 2, "ID": 4, "SHAPE_Leng": 673.38621205200002, "OBJECTID_1": 4, "ID_2": 4.0, "PROY": "MEJORAMIENTO PAVIMENTO CALLE PROGRESO, OLMUÉ", "FUENTE": "F.N.D.R. TRADICIONAL", "ESTADO": "REEVALUACIÓN", "MONTO": 1178521000.0 }, "geometry": { "type": "MultiLineString", "coordinates": [ [ [ -71.170367128190236, -33.002570885790725 ], [ -71.169998080147266, -33.002520046821495 ], [ -71.169629756771513, -33.002465604979079 ], [ -71.169590015092169, -33.002418465829876 ], [ -71.169554579134555, -33.002368948908924 ], [ -71.16952364832153, -33.00231733289241 ], [ -71.169497396720601, -33.002263908269597 ], [ -71.169479516874759, -33.002194139286814 ], [ -71.169470045740994, -33.002123209707584 ], [ -71.169469079130934, -33.002051837218481 ], [ -71.169476626804482, -33.001980743985875 ], [ -71.169492612371982, -33.001910649348787 ], [ -71.169516874067881, -33.001842262540549 ], [ -71.169549166388393, -33.001776275512604 ], [ -71.169579155614556, -33.001714687361257 ], [ -71.169602333932986, -33.001651046075651 ], [ -71.169618507046792, -33.001585885182898 ], [ -71.169627539387164, -33.001519750948304 ], [ -71.169629355249327, -33.00145319779574 ], [ -71.169623939426614, -33.001386783659754 ], [ -71.169611337337486, -33.001321065308304 ], [ -71.169591654644179, -33.00125659367513 ], [ -71.169561183905159, -33.001228471874853 ], [ -71.169526004719785, -33.001204568785397 ], [ -71.169486930744, -33.001185437257078 ], [ -71.169444865713842, -33.001171519779405 ], [ -71.169400782543306, -33.001163138247065 ], [ -71.169355700822564, -33.001160486515012 ], [ -71.169015937498514, -33.001132836081169 ], [ -71.168676750161467, -33.001100553143019 ], [ -71.168338227778889, -33.001063646166017 ], [ -71.16825221485405, -33.001041372152926 ], [ -71.168164385623854, -33.001024881679093 ], [ -71.168075286872096, -33.001014277407158 ], [ -71.167985473285356, -33.001009625355003 ], [ -71.167895504000185, -33.001010954484855 ], [ -71.167805939122431, -33.001018256522954 ], [ -71.167717336240713, -33.001031486010973 ], [ -71.16757810617716, -33.001042698440578 ], [ -71.16743832666134, -33.001046806064544 ], [ -71.167298507848855, -33.001043793889842 ], [ -71.167159160038949, -33.001033672908648 ], [ -71.167020791811709, -33.001016480058283 ], [ -71.166883908171542, -33.000992278086358 ], [ -71.166766480175383, -33.000950865627189 ], [ -71.166652195462632, -33.000903620193306 ], [ -71.166541461659818, -33.000850710298977 ], [ -71.166434673726172, -33.000792324662228 ], [ -71.166332212544717, -33.000728671531668 ], [ -71.16623444356361, -33.00065997794357 ], [ -71.166179715365232, -33.000652667918423 ], [ -71.166126616722522, -33.000639318856457 ], [ -71.166076081809535, -33.000620165609853 ], [ -71.166028999694831, -33.00059554514489 ], [ -71.165960315586574, -33.000535389404995 ], [ -71.165887711523453, -33.000478596307815 ], [ -71.165811419003376, -33.000425346933028 ], [ -71.165731681283233, -33.000375811061282 ], [ -71.165648752603332, -33.000330146632848 ], [ -71.165142075706655, -33.000076087349278 ], [ -71.16511646758515, -33.000062352260002 ], [ -71.165093227244199, -33.000045896900907 ], [ -71.165072758925675, -33.000027007496939 ], [ -71.165055418654134, -33.000006012610683 ] ] ] } },
{ "type": "Feature", "properties": { "OBJECTID": 3, "ID": 5, "SHAPE_Leng": 461.54875687999998, "OBJECTID_1": 5, "ID_2": 5.0, "PROY": "MEJORAMIENTO PAVIMENTACIÓN MARIANA DE OSORIO ETAPA II ENTRE LO GUALA Y FONDO ORIENTE, OLMUÉ", "FUENTE": "F.N.D.R. TRADICIONAL", "ESTADO": "EN LICITACIÓN", "MONTO": 647586000.0 }, "geometry": { "type": "MultiLineString", "coordinates": [ [ [ -71.163187304080481, -32.987645143224171 ], [ -71.162824025490522, -32.98741935277301 ], [ -71.162458087549297, -32.987196634247425 ], [ -71.162089526835217, -32.986977009900521 ], [ -71.161969491716647, -32.986923496072492 ], [ -71.161846337857654, -32.986875277574462 ], [ -71.161720393876806, -32.986832483069996 ], [ -71.161591995836133, -32.986795226749535 ], [ -71.161461486344635, -32.986763608025804 ], [ -71.161145160873815, -32.986671025756294 ], [ -71.160830464862883, -32.986574580614892 ], [ -71.160517464731129, -32.986474292956757 ], [ -71.160206226539287, -32.986370183948047 ], [ -71.160052025441075, -32.986317965360477 ], [ -71.159900526021303, -32.986260403373421 ], [ -71.15975198883946, -32.986197596986713 ], [ -71.159606669358837, -32.986129654219887 ], [ -71.159464817507001, -32.986056691926343 ], [ -71.159326677245872, -32.985978835592313 ], [ -71.159192486152079, -32.985896219120981 ], [ -71.159140502378946, -32.985844662932031 ], [ -71.159094711292596, -32.985789092192164 ], [ -71.15905554659318, -32.985730033241161 ], [ -71.159023379216592, -32.985668045456521 ], [ -71.158998513821359, -32.985603715955165 ] ] ] } },
{ "type": "Feature", "properties": { "OBJECTID": 4, "ID": 8, "SHAPE_Leng": 319.992811184, "OBJECTID_1": 8, "ID_2": 8.0, "PROY": "MEJORAMIENTO PAVIMENTO CALLE SERAFÍN PINTO, OLMUÉ", "FUENTE": "F.N.D.R. TRADICIONAL", "ESTADO": "REEVALUACIÓN APROBADA TECNICAMENTE", "MONTO": 1690163000.0000002 }, "geometry": { "type": "MultiLineString", "coordinates": [ [ [ -71.168271976651283, -33.002272204610016 ], [ -71.168169502269336, -33.00231556742974 ], [ -71.168070761695205, -33.002364697616478 ], [ -71.167976211408686, -33.002419368044535 ], [ -71.167886288520535, -33.002479325975401 ], [ -71.167839854167212, -33.002507797556618 ], [ -71.167789848826033, -33.002531590719627 ], [ -71.167736933282058, -33.002550391053049 ], [ -71.167681806778404, -33.00256395012223 ], [ -71.16762519777582, -33.002572088752295 ], [ -71.167567854326279, -33.002574699395957 ], [ -71.167510534187599, -33.002571747554747 ], [ -71.167331404524063, -33.002550766190161 ], [ -71.167153620852972, -33.002522814441313 ], [ -71.166977564991754, -33.002487952337162 ], [ -71.166717983430701, -33.002483338590977 ], [ -71.166458605517136, -33.002473523910794 ], [ -71.166199578010691, -33.002458513847984 ], [ -71.166032411024517, -33.002446666766566 ], [ -71.165865709492806, -33.002430833678616 ], [ -71.165699607258333, -33.002411027295402 ], [ -71.165641157755687, -33.002412570934105 ], [ -71.165583446804732, -33.002420526787695 ], [ -71.165527460888924, -33.002434758863181 ], [ -71.165474157006045, -33.0024550238847 ], [ -71.165424394516876, -33.002475035471583 ], [ -71.165372608211882, -33.002490989954168 ], [ -71.165319262732467, -33.002502744183722 ], [ -71.165264836710207, -33.002510192697351 ], [ -71.165210558644148, -33.002509809251869 ], [ -71.165156603756444, -33.002514807494016 ], [ -71.165103720960829, -33.002525118046762 ], [ -71.165052644290697, -33.002540597796198 ], [ -71.165021607374882, -33.002550082227586 ], [ -71.164989617694076, -33.002556961090406 ] ] ] } },
{ "type": "Feature", "properties": { "OBJECTID": 5, "ID": 9, "SHAPE_Leng": 126.918196635, "OBJECTID_1": 9, "ID_2": 9.0, "PROY": "MEJORAMIENTO PAVIMENTO CALLE LAUTARO, COMUNA DE OLMUÉ.", "FUENTE": "F.N.D.R. TRADICIONAL", "ESTADO": "RECOMENDADO SATISFACTORIAMENTE (RS)", "MONTO": 305190000.0 }, "geometry": { "type": "MultiLineString", "coordinates": [ [ [ -71.165117697963865, -33.003317780752312 ], [ -71.164822011784011, -33.003229218645799 ], [ -71.164529193456389, -33.003134132174651 ], [ -71.16444148013133, -33.003086562778442 ], [ -71.164358444702032, -33.003033365475787 ], [ -71.164280594597244, -33.002974865359505 ], [ -71.164208405555016, -33.002911419927763 ], [ -71.164142318715506, -33.002843416899324 ], [ -71.164082737925071, -33.002771271843876 ], [ -71.164030027268623, -33.002695425642379 ] ] ] } },
{ "type": "Feature", "properties": { "OBJECTID": 6, "ID": 18, "SHAPE_Leng": 1623.9789046000001, "OBJECTID_1": 18, "ID_2": 18.0, "PROY": "MEJORAMIENTO PAVIMENTACION MARIANA DE OSORIO ETAPA I ENTRE AV GRANIZO Y LO GUALA", "FUENTE": "F.N.D.R. TRADICIONAL", "ESTADO": "DISEÑO EN EJECUCIÓN", "MONTO": 1793296000.0 }, "geometry": { "type": "MultiLineString", "coordinates": [ [ [ -71.177178750191274, -32.994451254272704 ], [ -71.177186220748865, -32.994133523613115 ], [ -71.177199655236294, -32.993815932301153 ], [ -71.177219050226654, -32.993498559830527 ], [ -71.177221359205362, -32.993455315856011 ], [ -71.177215442980312, -32.993412316196789 ], [ -71.177201453443985, -32.993370664736176 ], [ -71.177179749744866, -32.993331430745194 ], [ -71.177150889066354, -32.993295621432608 ], [ -71.177115612322069, -32.993264156088365 ], [ -71.176792865169745, -32.992919052736987 ], [ -71.176522780135912, -32.992767404445864 ], [ -71.176254500797768, -32.992613497270163 ], [ -71.176152521133872, -32.992547414850556 ], [ -71.176053573219718, -32.992478136518322 ], [ -71.175957797999445, -32.992405760959663 ], [ -71.175865331896674, -32.992330391272532 ], [ -71.175794770817078, -32.992241327968685 ], [ -71.175718820811795, -32.992155470219927 ], [ -71.175637686534117, -32.992073049360513 ], [ -71.175551586603973, -32.991994287463861 ], [ -71.175460753018768, -32.991919396744279 ], [ -71.175365430528302, -32.991848578985184 ], [ -71.175265875975228, -32.991782024995608 ], [ -71.17516235760317, -32.99171991409613 ], [ -71.172771149957725, -32.991017152603341 ], [ -71.172573856255042, -32.990962898748819 ], [ -71.172374169764751, -32.990915266369917 ], [ -71.172172403248666, -32.990874330072771 ], [ -71.171968872725174, -32.990840153975803 ], [ -71.171763896974511, -32.990812791609223 ], [ -71.168493285489788, -32.990268404167516 ], [ -71.168380900120582, -32.9902615575052 ], [ -71.16826939566154, -32.990247884601821 ], [ -71.168159355151388, -32.990227456949704 ], [ -71.168051353973325, -32.990200381360658 ], [ -71.167945956845927, -32.990166799407426 ], [ -71.167843714870131, -32.990126886683335 ], [ -71.167745162647208, -32.990080851884017 ], [ -71.167650815483242, -32.990028935716104 ], [ -71.167067425821557, -32.989616754166931 ], [ -71.16701753117411, -32.989529374018304 ], [ -71.166973845400165, -32.98943966366307 ], [ -71.166936520902908, -32.989347936104927 ], [ -71.166905687889383, -32.989254511384779 ], [ -71.166894529281549, -32.989200885458381 ], [ -71.16687510586118, -32.989148960258603 ], [ -71.166847754492395, -32.989099636296892 ], [ -71.16681294952717, -32.989053768971452 ], [ -71.166771294578453, -32.989012153732766 ], [ -71.166723512051377, -32.988975512289002 ], [ -71.166670430614872, -32.988944480090048 ], [ -71.166612970830556, -32.988919595307713 ], [ -71.166414839221375, -32.988810517556672 ], [ -71.166212693106871, -32.988706803490217 ], [ -71.166006736857781, -32.988608557959118 ], [ -71.165797178694689, -32.988515880285512 ], [ -71.165584230477563, -32.988428864162501 ], [ -71.165368107491645, -32.988347597559589 ], [ -71.165149028229905, -32.988272162633656 ], [ -71.163248760427834, -32.98766806437844 ] ] ] } },
{ "type": "Feature", "properties": { "OBJECTID": 7, "ID": 19, "SHAPE_Leng": 1066.65354202, "OBJECTID_1": 19, "ID_2": 19.0, "PROY": "REPOSICION  PAVIMENTOS CIRCUITO CALLES LAUTARO, LINCOLN Y BALMACEDA, OLMUÉ", "FUENTE": "F.N.D.R. TRADICIONAL", "ESTADO": "DISEÑO EN EJECUCIÓN", "MONTO": 1111567000.0 }, "geometry": { "type": "MultiLineString", "coordinates": [ [ [ -71.173074009111929, -33.005561125810281 ], [ -71.172815322649782, -33.005489299893213 ], [ -71.172554773986477, -33.00542242372137 ], [ -71.172292496492304, -33.005360531528595 ], [ -71.172028624421671, -33.005303654997505 ], [ -71.171763292844517, -33.005251823243348 ], [ -71.170984789846926, -33.004982751575049 ], [ -71.170208177134839, -33.004709833367833 ], [ -71.170001157421424, -33.004667860392686 ], [ -71.169792717119435, -33.00463121775266 ], [ -71.169583049480138, -33.004599939421674 ], [ -71.169372348892054, -33.00457405440023 ], [ -71.168897885707779, -33.004462033119744 ], [ -71.168425183312465, -33.00434484733919 ], [ -71.167954320902155, -33.00422251668958 ], [ -71.167485377363789, -33.004095061663854 ], [ -71.167440824156131, -33.004079076337227 ], [ -71.167399527287586, -33.004057768784733 ], [ -71.167362376138641, -33.004031597892514 ], [ -71.167330170804377, -33.004001127284802 ], [ -71.167318875510034, -33.003985477427172 ], [ -71.167304558871791, -33.003971694197816 ], [ -71.167287646140323, -33.003960187002363 ], [ -71.167268639677971, -33.003951297640839 ], [ -71.16724810403683, -33.003945290155286 ], [ -71.16697419582421, -33.003860574364538 ], [ -71.167167649372203, -33.003923543547522 ], [ -71.167345665422673, -33.003940016433361 ], [ -71.167743635112217, -33.003859358891553 ], [ -71.16814000080636, -33.003773277594981 ], [ -71.168534658382441, -33.003681795160695 ], [ -71.168927504167584, -33.003584935624531 ], [ -71.169318434965945, -33.003482724434797 ], [ -71.16970734808595, -33.003375188445595 ], [ -71.170094141367244, -33.003262355909669 ], [ -71.170091578474583, -33.004024710035239 ], [ -71.170137685159531, -33.0046931655503 ] ] ] } },
{ "type": "Feature", "properties": { "OBJECTID": 8, "ID": 20, "SHAPE_Leng": 1053.7849039499999, "OBJECTID_1": 20, "ID_2": 20.0, "PROY": "MEJORAMIENTO PAVIMENTACION CIRCUITO CALLES POTALES- PRIETO-21 DE MAYO", "FUENTE": "F.N.D.R. TRADICIONAL", "ESTADO": "DISEÑO EN EJECUCIÓN", "MONTO": 1232808000.0 }, "geometry": { "type": "MultiLineString", "coordinates": [ [ [ -71.186382342125938, -32.99531798586613 ], [ -71.186476679816209, -32.99504854827061 ], [ -71.186577936930732, -32.994780900220526 ], [ -71.186686065669903, -32.994515167894413 ], [ -71.186801014995936, -32.994251476566482 ], [ -71.186922730656931, -32.993989950547572 ], [ -71.187051155212686, -32.993730713126673 ], [ -71.187186228061776, -32.993473886512632 ], [ -71.187663348617903, -32.992845180231988 ], [ -71.1876754144335, -32.992825631288227 ], [ -71.187690652163965, -32.992807724382182 ], [ -71.187708752962905, -32.992791822458294 ], [ -71.187729349954694, -32.992778247822969 ], [ -71.187752025670449, -32.992767275612088 ], [ -71.187913915905327, -32.992770512426226 ], [ -71.188075800978694, -32.992767097620266 ], [ -71.188237296274508, -32.992757039308842 ], [ -71.1883980181032, -32.992740361390503 ], [ -71.188580725994413, -32.992714317942308 ], [ -71.188761825048331, -32.992681243650416 ], [ -71.188940934487491, -32.992641208058778 ], [ -71.189117677719395, -32.992594295347935 ], [ -71.189291683128531, -32.992540604158094 ], [ -71.189462584858049, -32.992480247381557 ], [ -71.189630023579085, -32.992413351925343 ], [ -71.190241302088452, -32.992402106410502 ], [ -71.190852467484049, -32.992387125430795 ], [ -71.191011805598947, -32.992414289045087 ], [ -71.191169447208253, -32.992447752068671 ], [ -71.191325041843584, -32.992487440105535 ], [ -71.191478243586218, -32.992533264920226 ], [ -71.191628711835946, -32.992585124633955 ], [ -71.191776112068084, -32.992642903951072 ], [ -71.19201636151071, -32.992726665296637 ], [ -71.19202642878949, -32.992731726795881 ], [ -71.192037332105002, -32.992735355561031 ], [ -71.192048786670014, -32.99273745681117 ], [ -71.192060493298882, -32.992737975663104 ], [ -71.192072146222216, -32.992736898564758 ], [ -71.192083441073422, -32.99273425364926 ], [ -71.192094082838551, -32.992730110000068 ], [ -71.192103793561941, -32.992724575846538 ], [ -71.192112319606238, -32.99271779573705 ], [ -71.192119438277274, -32.992709946763469 ], [ -71.192124963640666, -32.992701233935605 ], [ -71.192128751378235, -32.992691884826478 ], [ -71.192161088526746, -32.992583527411796 ], [ -71.192199672943488, -32.992476631792023 ], [ -71.192244412335626, -32.992371453595453 ], [ -71.192295199692424, -32.992268244342398 ], [ -71.192351913541458, -32.992167250843828 ], [ -71.192414418239196, -32.992068714611086 ], [ -71.19248256429556, -32.991972871278541 ], [ -71.192546880904345, -32.991896664911401 ], [ -71.192617567288778, -32.991824576843001 ], [ -71.192694253434254, -32.991756984408951 ], [ -71.192776537923933, -32.991694241412027 ], [ -71.192863990040124, -32.991636676270495 ], [ -71.192956152018667, -32.991584590299212 ], [ -71.19301991486148, -32.991499741089989 ], [ -71.193077101425729, -32.991411626015498 ], [ -71.193127477133118, -32.991320606553899 ], [ -71.193170835347757, -32.991227056096989 ], [ -71.193206998223502, -32.991131358418265 ], [ -71.193235817433262, -32.991033906098444 ], [ -71.193257174777003, -32.990935098915038 ], [ -71.193333807998727, -32.990745407111447 ], [ -71.193404347058603, -32.990554043744687 ], [ -71.193468740754341, -32.990361147829155 ], [ -71.193526942348811, -32.99016685949168 ] ] ] } },
{ "type": "Feature", "properties": { "OBJECTID": 9, "ID": 21, "SHAPE_Leng": 130.37851171899999, "OBJECTID_1": 21, "ID_2": 21.0, "PROY": "MEJORAMIENTO PAVIMENTO CALLE GUACOLDA, OLMUÉ", "FUENTE": "F.N.D.R. TRADICIONAL", "ESTADO": "DISEÑO EN EJECUCIÓN", "MONTO": 0.0 }, "geometry": { "type": "MultiLineString", "coordinates": [ [ [ -71.185070745360079, -32.98846371126664 ], [ -71.18367606895174, -32.988449349589089 ] ] ] } },
{ "type": "Feature", "properties": { "OBJECTID": 10, "ID": 84, "SHAPE_Leng": 671.73332035700003, "OBJECTID_1": 84, "ID_2": 84.0, "PROY": "CONSTRUCCIÓN PAVIMENTACIÓN CALLE LA GRUTA Y OTRAS VIAS", "FUENTE": "SERVIU PAVIPART", "ESTADO": "EJECUTADO", "MONTO": 430820000.0 }, "geometry": { "type": "MultiLineString", "coordinates": [ [ [ -71.187676158050778, -32.99277042535649 ], [ -71.18766812675544, -32.992705858187293 ], [ -71.187651743231939, -32.992642422372981 ], [ -71.187627205050717, -32.992580882824264 ], [ -71.187594808109466, -32.992521981585064 ], [ -71.187554943064583, -32.992466428885322 ], [ -71.187508090620042, -32.992414894577138 ], [ -71.18745481573059, -32.992368000058065 ], [ -71.187395760789428, -32.992326310778573 ], [ -71.187331637881968, -32.992290329424186 ], [ -71.187155538373887, -32.992230778273189 ], [ -71.186977174613986, -32.992176222522922 ], [ -71.186796746064829, -32.992126723182878 ], [ -71.186710648072349, -32.992111318024996 ], [ -71.186626474355947, -32.992089638363183 ], [ -71.186544867477096, -32.992061849694196 ], [ -71.186466450401198, -32.992028164149453 ], [ -71.186391821741651, -32.991988838875542 ], [ -71.186321551189991, -32.991944174071072 ], [ -71.186201050825645, -32.991787867090466 ], [ -71.186087525500866, -32.991627894885625 ], [ -71.18598113196721, -32.991464478391734 ], [ -71.185882017124143, -32.991297843299684 ], [ -71.185790317816313, -32.99112821974439 ], [ -71.185706160644614, -32.990955841986775 ], [ -71.185656681401582, -32.990875956200838 ], [ -71.185613871491185, -32.990793379750649 ], [ -71.185577935597351, -32.990708507488421 ], [ -71.185549045533179, -32.990621745243125 ], [ -71.185527339419778, -32.990533507879803 ], [ -71.185512921026117, -32.990444217315762 ], [ -71.185505859273292, -32.9903543005031 ], [ -71.185506187905375, -32.990264187387147 ], [ -71.185513905328463, -32.990174308850527 ], [ -71.185528974618762, -32.990085094652969 ], [ -71.1855887154735, -32.989350372766403 ], [ -71.185599534982529, -32.989302248826618 ], [ -71.185603651830462, -32.989253391721945 ], [ -71.185601010352102, -32.989204462197172 ], [ -71.185591646281907, -32.989156121975356 ], [ -71.185575686270127, -32.989109024808862 ] ], [ [ -71.185555557992714, -32.99064651755716 ], [ -71.183723521744838, -32.990578378036417 ] ] ] } },
{ "type": "Feature", "properties": { "OBJECTID": 12, "ID": 85, "SHAPE_Leng": 351.40427400900001, "OBJECTID_1": 85, "ID_2": 85.0, "PROY": "PAVIMENTACIÓN CALLE PAGLIATINI", "FUENTE": "SERVIU PAVIPART", "ESTADO": "EJECUTADO", "MONTO": 208428000.0 }, "geometry": { "type": "MultiLineString", "coordinates": [ [ [ -71.170797973836173, -32.993819313812445 ], [ -71.171156419407069, -32.991981864288626 ], [ -71.170976006146816, -32.990684661619184 ] ] ] } },
{ "type": "Feature", "properties": { "OBJECTID": 13, "ID": 86, "SHAPE_Leng": 405.06217084999997, "OBJECTID_1": 86, "ID_2": 86.0, "PROY": "PAVIMENTACIÓN CALLE PORTALES", "FUENTE": "SERVIU PAVIPART", "ESTADO": "EN EJECUCIÓN", "MONTO": 386205000.0 }, "geometry": { "type": "MultiLineString", "coordinates": [ [ [ -71.185825175319792, -32.997993901012009 ], [ -71.184825533210002, -33.001547362885496 ] ] ] } },
{ "type": "Feature", "properties": { "OBJECTID": 14, "ID": 87, "SHAPE_Leng": 2196.8957260500001, "OBJECTID_1": 87, "ID_2": 87.0, "PROY": "CONSTRUCCION PAVIMENTOS PARTICIPATIVOS BARRIO LAS ROSAS SANTA REGINA, OLMUÉ (ETAPA DE DISEÑO)", "FUENTE": "MINVU- QMB", "ESTADO": "EN EJECUCIÓN", "MONTO": 24449000.0 }, "geometry": { "type": "MultiLineString", "coordinates": [ [ [ -71.164138061885041, -33.000103845604222 ], [ -71.164085746974294, -33.000201187558325 ], [ -71.164038611307902, -33.000300390338225 ], [ -71.163996747821784, -33.000401258386511 ], [ -71.163960239059776, -33.00050359286238 ], [ -71.163949166679359, -33.000579054662779 ], [ -71.163930171333277, -33.000653387247375 ], [ -71.163903403632574, -33.000726001167187 ], [ -71.163869075823555, -33.000796320600564 ], [ -71.16382746010521, -33.000863787919457 ], [ -71.163773922621175, -33.00095989696068 ], [ -71.163714397517793, -33.001053471931804 ], [ -71.163649053111669, -33.001144248204554 ], [ -71.163578074177991, -33.001231969064456 ] ], [ [ -71.16508701742211, -32.999913687217436 ], [ -71.165196932139622, -32.999965391724906 ], [ -71.165310621546524, -33.000010933509529 ], [ -71.16542759966859, -33.000050117898553 ], [ -71.165547366471642, -33.000082777394539 ], [ -71.165669409999211, -33.000108772391378 ], [ -71.165878305576811, -33.000154808242648 ], [ -71.166085101945015, -33.000207143070618 ], [ -71.166289531709268, -33.000265709203497 ], [ -71.166491330533731, -33.000330430912236 ], [ -71.166690237482953, -33.000401224508366 ], [ -71.166843988225921, -33.000449881995216 ], [ -71.166999922406049, -33.000493326779235 ], [ -71.167157791229698, -33.000531489544628 ] ], [ [ -71.165366247098504, -32.99900409053167 ], [ -71.165285860653697, -32.999211178094448 ], [ -71.165213358829263, -32.999420322156105 ], [ -71.165148815557728, -32.999631309609548 ], [ -71.165092296663701, -32.999843925467765 ], [ -71.165062306011507, -32.999928309151088 ], [ -71.165028458889182, -33.000011650619776 ], [ -71.164990806088838, -33.000093824781828 ], [ -71.164944700975482, -33.00016947130468 ], [ -71.164905854342535, -33.000247958438202 ], [ -71.164874510507147, -33.000328792595681 ], [ -71.164850866604851, -33.00041146542906 ], [ -71.164835071349259, -33.000495457025842 ] ], [ [ -71.165359246779744, -32.998949334550446 ], [ -71.165339195651129, -32.998959516706691 ], [ -71.165317599354964, -32.998967131285333 ], [ -71.165294917820646, -32.998972016120959 ], [ -71.165271634089848, -32.998974067182608 ], [ -71.165248244029257, -32.998973240789319 ], [ -71.165225245770102, -32.998969554540466 ], [ -71.165127718296532, -32.998941793105651 ], [ -71.165027892648212, -32.998920611967172 ], [ -71.164926393020053, -32.998906143568327 ], [ -71.164907383495233, -32.998905781169455 ], [ -71.164888554293668, -32.998908011930716 ], [ -71.16487040030988, -32.998912777220283 ], [ -71.164853398691633, -32.998919951790434 ], [ -71.164837996298957, -32.998929347069385 ], [ -71.164824597959196, -32.998940716117602 ], [ -71.164798119636473, -32.998997463359011 ], [ -71.164766165996625, -32.999052172365559 ], [ -71.164728955677603, -32.999104468781795 ], [ -71.164686743288314, -32.999153994760036 ], [ -71.164639817666639, -32.999200411409277 ], [ -71.16459641191561, -32.999242711806943 ], [ -71.164558686675861, -32.99928871799456 ], [ -71.164527084042689, -32.999337890845524 ], [ -71.164501974365081, -32.999389654123533 ], [ -71.164483651905357, -32.999443401234977 ], [ -71.164472331390343, -32.999498502337346 ], [ -71.164468145494439, -32.999554311720004 ], [ -71.164471143284359, -32.999610175370982 ], [ -71.164481289643348, -32.999665438641145 ], [ -71.164500785672502, -32.999706575853537 ], [ -71.164512967068518, -32.999749666419291 ], [ -71.164517574279728, -32.999793792235835 ], [ -71.164514509131877, -32.999838013141826 ], [ -71.164503836920844, -32.99988138694858 ], [ -71.164485785022435, -32.999922989514658 ], [ -71.164460738048675, -32.999961934436122 ], [ -71.164429229653862, -32.999997391932915 ], [ -71.164342793560053, -33.000027869070998 ], [ -71.1642538029825, -33.000052580769555 ], [ -71.164162798588862, -33.000071376889899 ], [ -71.164070333283277, -33.000084143233785 ] ], [ [ -71.164101493225786, -32.998171860351725 ], [ -71.164031829338384, -32.998217805488181 ], [ -71.164033542237689, -32.998242075178986 ], [ -71.16403886999133, -32.998265969648301 ], [ -71.164047727701316, -32.99828910812375 ], [ -71.164056464631813, -32.998311167310199 ], [ -71.164069538589516, -32.998331647499114 ], [ -71.164086566415008, -32.998349948471883 ], [ -71.164107049070893, -32.998365533876445 ], [ -71.164130386267004, -32.998377946946505 ], [ -71.164155894053422, -32.998386823888247 ], [ -71.164182824865222, -32.998391904542288 ], [ -71.164210389431986, -32.998393040008253 ], [ -71.164237779909328, -32.998390197008831 ], [ -71.164410757210049, -32.998233402766147 ], [ -71.164580449360187, -32.998074080114918 ], [ -71.164636253486179, -32.998025242060145 ], [ -71.164686654111563, -32.997972396486432 ], [ -71.164731247804667, -32.997915966407135 ], [ -71.164769677618622, -32.997856403527635 ], [ -71.164801635948393, -32.997794184629299 ], [ -71.164826866992726, -32.997729807753082 ] ], [ [ -71.162618148085173, -32.995222963294076 ], [ -71.162505338259692, -32.995308830907746 ], [ -71.162396981564896, -32.995398678889558 ], [ -71.162293275611276, -32.99549234339586 ], [ -71.162194409530187, -32.995589653622773 ], [ -71.162100563628911, -32.995690432117506 ], [ -71.162054188808838, -32.99574552304103 ], [ -71.162013886513876, -32.995803907829256 ], [ -71.16197998392839, -32.99586511251794 ], [ -71.161952756286041, -32.995928640249943 ], [ -71.161932424634983, -32.995993975308643 ], [ -71.161913570473956, -32.996016500941415 ], [ -71.161891271755522, -32.996036668804727 ], [ -71.161865938879842, -32.996054107713967 ], [ -71.161731999020034, -32.996134687642545 ], [ -71.161708484694898, -32.996154180848428 ], [ -71.161688694106971, -32.996176418106288 ], [ -71.161673072352684, -32.996200899296788 ], [ -71.161661970771632, -32.996227073833751 ], [ -71.161655639044696, -32.99625435304683 ], [ -71.161570495247346, -32.996414334722424 ], [ -71.161572145454528, -32.996427165274369 ], [ -71.161576187768048, -32.996439613302584 ], [ -71.161582520019991, -32.996451364184928 ], [ -71.161590982164341, -32.996462120919368 ], [ -71.161601360322152, -32.996471611630781 ], [ -71.161613392187178, -32.996479596442541 ], [ -71.161626773655726, -32.996485873539399 ], [ -71.161641166512709, -32.996490284268404 ], [ -71.161656206980197, -32.996492717148875 ], [ -71.161671514911774, -32.996493110689968 ], [ -71.161798738566858, -32.996501390370319 ], [ -71.161926262344181, -32.99650516682695 ], [ -71.162053861868614, -32.996504433416099 ], [ -71.162181312631787, -32.996499191428946 ], [ -71.162287440103356, -32.99650004669499 ], [ -71.162393292075691, -32.996506542991604 ], [ -71.162498446732442, -32.996518654430453 ], [ -71.162602485035848, -32.996536332747034 ], [ -71.162704992396201, -32.996559507493025 ], [ -71.162805560323875, -32.996588086316955 ], [ -71.162903788056823, -32.996621955332238 ], [ -71.162999284157479, -32.996660979570912 ], [ -71.163052847444632, -32.996709607341344 ], [ -71.163111270253211, -32.996754084563285 ], [ -71.163174101393622, -32.996794067741995 ], [ -71.163240855628956, -32.996829248089597 ], [ -71.163311017422544, -32.996859353910004 ], [ -71.163384044919653, -32.996884152697383 ], [ -71.163459374132245, -32.996903452931775 ], [ -71.163536423295099, -32.996917105558417 ], [ -71.163602327689532, -32.996926705643567 ], [ -71.163666663829119, -32.996942106973542 ], [ -71.163728714695353, -32.996963137902036 ], [ -71.163787788737579, -32.996989564041492 ], [ -71.163843227579946, -32.997021090875258 ], [ -71.16389441335879, -32.997057367039766 ], [ -71.16394077560831, -32.997097988240306 ], [ -71.164329727845498, -32.997517730843526 ], [ -71.164418857634359, -32.997689166919571 ], [ -71.16441498564366, -32.99782046118316 ], [ -71.164350681131666, -32.99794087403945 ], [ -71.164118745920206, -32.998153667241134 ] ], [ [ -71.161901544255684, -32.99406274436943 ], [ -71.161446596077226, -32.994273430542947 ], [ -71.161466647730364, -32.994336753406422 ], [ -71.161492724725477, -32.994398498100203 ], [ -71.161524655433084, -32.994458258214088 ], [ -71.161562229692734, -32.99451564039984 ], [ -71.161605200195979, -32.994570266960359 ], [ -71.161653284114024, -32.994621778335819 ], [ -71.161693492781154, -32.994659776096782 ], [ -71.161728834157572, -32.994701067329771 ], [ -71.161758930945311, -32.994745211224881 ], [ -71.161958692132345, -32.995099643667416 ], [ -71.161946214340333, -32.995168455175012 ], [ -71.16165755706831, -32.9955224011524 ], [ -71.161596196129935, -32.995665064709058 ], [ -71.161528153228389, -32.99580555982363 ], [ -71.1614535359152, -32.995943664357135 ], [ -71.16137246213836, -32.996079159949183 ], [ -71.161285060056017, -32.996211832363478 ], [ -71.16125707383172, -32.996232415221684 ], [ -71.161233060517006, -32.996256297355913 ], [ -71.16121356157602, -32.996282940263548 ], [ -71.161199016682446, -32.996311743190503 ], [ -71.161199073194211, -32.996335262965061 ], [ -71.161194832616857, -32.996358509738513 ], [ -71.16118639603377, -32.996380929355105 ], [ -71.161173964552944, -32.99640198737643 ], [ -71.161157834513233, -32.996421181821347 ], [ -71.161138390420447, -32.996438055132359 ], [ -71.161005774327904, -32.996514913200002 ], [ -71.160992473947914, -32.996525313887219 ], [ -71.160981463940288, -32.996537467614161 ], [ -71.160973064455987, -32.996551020973669 ], [ -71.160967519737369, -32.996565579859784 ], [ -71.160964991015888, -32.996580720927547 ], [ -71.160965551823551, -32.99659600390298 ], [ -71.160969185854725, -32.996610984385541 ], [ -71.161002333406657, -32.996664093961265 ], [ -71.161009140827119, -32.996674073185211 ], [ -71.161014063434394, -32.996684810251793 ], [ -71.161016986161997, -32.996696054182401 ], [ -71.161017840690462, -32.996707542150418 ], [ -71.161016607044417, -32.996719005624762 ], [ -71.161013314059502, -32.996730176646743 ], [ -71.16100803870853, -32.996740794093732 ], [ -71.161000904302156, -32.996750609782715 ], [ -71.160948443927154, -32.996921517301914 ], [ -71.160956711406939, -32.996930946356379 ], [ -71.160966591196512, -32.996939200457099 ], [ -71.160977851370063, -32.996946085840612 ], [ -71.160990227597424, -32.996951440873907 ], [ -71.161003429349094, -32.996955139848545 ], [ -71.161017146716375, -32.996957095931833 ], [ -71.161031057686557, -32.99695726320509 ], [ -71.161044835702057, -32.996955637741642 ], [ -71.161338033436834, -32.996932665145955 ], [ -71.161437854083516, -32.996950861415925 ], [ -71.161539011233273, -32.99696270908521 ], [ -71.16164093709169, -32.996968141653838 ], [ -71.161743059549224, -32.996967128629755 ], [ -71.161844805392946, -32.996959675699948 ], [ -71.161930343234815, -32.996948792289921 ], [ -71.162016635136212, -32.996943650362809 ], [ -71.162103139253503, -32.996944282205078 ], [ -71.162189312410817, -32.996950683848567 ], [ -71.162274613510306, -32.996962815095443 ], [ -71.162358506929621, -32.996980599770531 ], [ -71.162434731272583, -32.997026894310245 ], [ -71.162507090774739, -32.997077401395842 ], [ -71.162575258174599, -32.997131892602098 ], [ -71.162638925168295, -32.997190121484742 ], [ -71.162697803804022, -32.997251824694928 ], [ -71.16275162778436, -32.997316723170137 ], [ -71.162800153670716, -32.997384523396271 ], [ -71.162811747010196, -32.997408014704725 ], [ -71.162818564592001, -32.997432799325978 ], [ -71.162820418210814, -32.99745819307342 ], [ -71.162817256692676, -32.997483494944767 ], [ -71.162809167308112, -32.997508006473396 ], [ -71.162796373363449, -32.997531051009759 ], [ -71.162779228036811, -32.997551992400702 ], [ -71.162758204628844, -32.997570252550695 ], [ -71.162733883497225, -32.997585327380541 ], [ -71.162706936035804, -32.997596800742919 ], [ -71.162678106140433, -32.997604355910362 ], [ -71.162615676335477, -32.997613455262055 ], [ -71.162552455282096, -32.997616948218365 ], [ -71.162489149998436, -32.997614795716132 ], [ -71.162426468444849, -32.997607021826873 ], [ -71.162365111606007, -32.997593713487603 ], [ -71.162305765651411, -32.997575019528576 ], [ -71.162217325650971, -32.997550336676198 ], [ -71.162126777306028, -32.997531863072147 ], [ -71.162034733411161, -32.997519723738968 ], [ -71.16194181688148, -32.997514000831444 ], [ -71.161848656537273, -32.997514733080699 ], [ -71.161755882848894, -32.997521915531998 ], [ -71.161625203266055, -32.997533125770325 ], [ -71.161616079144736, -32.997546413241921 ], [ -71.161609668973128, -32.997560783137814 ], [ -71.161606146880146, -32.997575845110561 ], [ -71.161605608542317, -32.997591190012734 ], [ -71.161608068584755, -32.997606401011161 ], [ -71.161613460183659, -32.997621064909836 ], [ -71.161621636881378, -32.997634783374167 ], [ -71.161632376564683, -32.997647183751418 ], [ -71.161645387498254, -32.9976579291937 ], [ -71.161660316249396, -32.997666727808202 ], [ -71.161670226287939, -32.997676907455201 ], [ -71.16167800254803, -32.997688327747177 ], [ -71.161683430967031, -32.997700674310899 ], [ -71.161686362112576, -32.997713607274953 ], [ -71.161686715296099, -32.997726770625611 ], [ -71.161684480794165, -32.997739802006976 ], [ -71.161679720116211, -32.997752342695783 ], [ -71.161672564311516, -32.997764047476252 ], [ -71.161663210361752, -32.99777459414306 ], [ -71.161651915758725, -32.997783692370909 ], [ -71.161638991416154, -32.997791091706617 ], [ -71.161624793111073, -32.997796588463466 ], [ -71.161609711689977, -32.997800031328353 ], [ -71.16159416230974, -32.997801325527021 ], [ -71.161578573009209, -32.99780043543312 ], [ -71.161563372926139, -32.99779738554885 ], [ -71.161548980483985, -32.99779225983049 ], [ -71.161535791873519, -32.997785199377269 ], [ -71.161350517468691, -32.997734724909137 ], [ -71.161290447872062, -32.997738747474344 ] ] ] } },
{ "type": "Feature", "properties": { "OBJECTID": 21, "ID": 88, "SHAPE_Leng": 269.25989960499999, "OBJECTID_1": 88, "ID_2": 88.0, "PROY": "MEJORAMIENTO BARRIO LAS ROSAS SANTA REGINA, OLMUÉ", "FUENTE": "MINVU- QMB", "ESTADO": "EJECUTADO", "MONTO": 435009000.0 }, "geometry": { "type": "MultiLineString", "coordinates": [ [ [ -71.167656343759006, -33.001813031083209 ], [ -71.167685868438497, -33.001693032011588 ], [ -71.167709685055783, -33.001572135522245 ], [ -71.167727755671919, -33.001450534318671 ], [ -71.16774005150711, -33.001328422226848 ], [ -71.167752087083159, -33.001230207425351 ], [ -71.167757940618088, -33.001131593680554 ], [ -71.167757595744163, -33.001032857086699 ], [ -71.16775098015043, -33.001031142161111 ], [ -71.167744780605943, -33.001028548575412 ], [ -71.167739160216286, -33.00102514456502 ], [ -71.167734266849877, -33.00102101968703 ], [ -71.167730229247553, -33.001016282464022 ], [ -71.167727153635639, -33.001011057528935 ], [ -71.167725120931053, -33.001005482346052 ], [ -71.167724184612624, -33.000999703594381 ], [ -71.167724369313973, -33.000993873308666 ], [ -71.167725670175514, -33.000988144879422 ], [ -71.167728052972336, -33.000982669017375 ], [ -71.167727062544074, -33.000908945813386 ], [ -71.167732047302223, -33.000835337630946 ], [ -71.167742983972914, -33.000762187927428 ], [ -71.167759821510785, -33.000689838020087 ] ], [ [ -71.162452291014461, -32.997043692330152 ], [ -71.162469607969385, -32.996966590770363 ], [ -71.162492558488864, -32.996890541024484 ], [ -71.162521054436809, -32.996815835095695 ], [ -71.162565388633027, -32.996743264352965 ], [ -71.162602567233463, -32.996667893963121 ], [ -71.162632343615741, -32.996590223930255 ], [ -71.162681118282791, -32.99647295004052 ], [ -71.162735693551625, -32.996357505443889 ], [ -71.162795973131949, -32.996244093777435 ], [ -71.162861850672542, -32.996132915091493 ], [ -71.162928216848485, -32.996048251445757 ], [ -71.162999421705649, -32.995966427072247 ], [ -71.163075294491279, -32.995887638173933 ] ] ] } },
{ "type": "Feature", "properties": { "OBJECTID": 25, "ID": 95, "SHAPE_Leng": 707.85677854300002, "OBJECTID_1": 95, "ID_2": 95.0, "PROY": "PAVIMENTACIÓN CALLE SANTA FILOMENA", "FUENTE": "SERVIU PAVIPART", "ESTADO": "POSTULADO", "MONTO": 626324000.0 }, "geometry": { "type": "MultiLineString", "coordinates": [ [ [ -71.177905377007221, -32.988493787898129 ], [ -71.175168627154221, -32.987378366953145 ], [ -71.17506212308254, -32.987339574086882 ], [ -71.17495345340339, -32.98730531166995 ], [ -71.174842889247984, -32.987275665187262 ], [ -71.174730706473412, -32.987250708607085 ], [ -71.174617184974437, -32.98723050419639 ], [ -71.171295182318659, -32.986490241630626 ], [ -71.171246512478334, -32.986475865481928 ], [ -71.171195854349946, -32.986467716876426 ], [ -71.171144323194397, -32.986465975209668 ], [ -71.171093053492328, -32.986470678825675 ], [ -71.171043173968684, -32.986481724172734 ], [ -71.170995782744015, -32.986498868083061 ], [ -71.170951923159564, -32.986521733126061 ], [ -71.170912560808006, -32.986549815917321 ], [ -71.170878562275703, -32.986582498200661 ], [ -71.170850676064362, -32.986619060458999 ] ] ] } },
{ "type": "Feature", "properties": { "OBJECTID": 26, "ID": 96, "SHAPE_Leng": 783.06548102199997, "OBJECTID_1": 96, "ID_2": 96.0, "PROY": "PAVIMENTACIÓN CALLE PEDRO AGUIRRE CERDA", "FUENTE": "SERVIU PAVIPART", "ESTADO": "POSTULADO", "MONTO": 733480000.0 }, "geometry": { "type": "MultiLineString", "coordinates": [ [ [ -71.173981169034775, -32.994279765627397 ], [ -71.173936795891677, -32.992009118633945 ], [ -71.173922288622649, -32.99141765690235 ], [ -71.173921056792636, -32.991342633742725 ], [ -71.173926975939267, -32.991267769400842 ], [ -71.17394000783294, -32.991193547168862 ], [ -71.173960718703924, -32.991053343175885 ], [ -71.173987554371095, -32.990913878700248 ], [ -71.174020478254107, -32.990775343698324 ], [ -71.174059445480765, -32.990637926859669 ], [ -71.174875053423619, -32.987300889648125 ] ] ] } },
{ "type": "Feature", "properties": { "OBJECTID": 28, "ID": 97, "SHAPE_Leng": 196.20596553300001, "OBJECTID_1": 97, "ID_2": 97.0, "PROY": "PAVIMENTACIÓN CALLE ATHUEL", "FUENTE": "SERVIU PAVIPART", "ESTADO": "DISEÑO EN EJECUCIÓN", "MONTO": 184081000.0 }, "geometry": { "type": "MultiLineString", "coordinates": [ [ [ -71.175923991501222, -32.994352079385692 ], [ -71.175952350059021, -32.994110412586018 ], [ -71.175986241107793, -32.993869252330235 ], [ -71.176025651962945, -32.993628688555795 ], [ -71.176070567881624, -32.993388810976953 ], [ -71.176120972068347, -32.993149709051337 ], [ -71.17612647736, -32.993126589737088 ], [ -71.176136333498974, -32.993104520784399 ], [ -71.176150282629095, -32.993084079553817 ], [ -71.176167959815388, -32.993065800821526 ], [ -71.176188902591676, -32.993050162788862 ], [ -71.176212563059522, -32.993037574571915 ], [ -71.176238322222162, -32.993028365498489 ], [ -71.176651654389502, -32.992854140754858 ] ] ] } },
{ "type": "Feature", "properties": { "OBJECTID": 29, "ID": 98, "SHAPE_Leng": 322.52498399000001, "OBJECTID_1": 98, "ID_2": 98.0, "PROY": "PAVIMENTACIÓN CIRCUITO PLAZA LOS PERALES", "FUENTE": "SERVIU PAVIPART", "ESTADO": "POSTULADO", "MONTO": 220412000.0 }, "geometry": { "type": "MultiLineString", "coordinates": [ [ [ -71.156490732205214, -32.991575981699924 ], [ -71.156491435761012, -32.991575079488918 ] ], [ [ -71.156491435761012, -32.991575079488918 ], [ -71.156661020335036, -32.992029352677967 ] ], [ [ -71.156491435761012, -32.991575079488918 ], [ -71.156533135560679, -32.99151611464066 ], [ -71.15656865296053, -32.991454341767437 ], [ -71.156597723919461, -32.991390220120529 ], [ -71.156620132324065, -32.99132422641209 ], [ -71.156635711594689, -32.991256851271018 ], [ -71.156644345923695, -32.991188595595268 ], [ -71.156645971135788, -32.991119966827924 ] ], [ [ -71.155878849239912, -32.991300238029048 ], [ -71.155970112778334, -32.991360918606794 ], [ -71.156066355875879, -32.991415864328793 ], [ -71.156167072134849, -32.991464786086041 ], [ -71.156271731618261, -32.991507426465645 ], [ -71.156379783638499, -32.991543561105544 ], [ -71.156490659655191, -32.991572999875075 ], [ -71.156491435761012, -32.991575079488918 ] ], [ [ -71.156954879700777, -32.991016207488116 ], [ -71.156659975999943, -32.991113760461701 ], [ -71.156598005439179, -32.991116230494654 ], [ -71.156536090234667, -32.991112918151209 ], [ -71.156471747233653, -32.991097342832383 ], [ -71.156405615622745, -32.991088576276752 ], [ -71.156338705841634, -32.991086752431066 ], [ -71.156272040219562, -32.991091899162925 ], [ -71.156206637355481, -32.991103937834914 ], [ -71.156143496555543, -32.991122684505996 ], [ -71.155927794540915, -32.991275533294193 ], [ -71.155832741369679, -32.991299151357062 ], [ -71.155736403025315, -32.991318725048721 ], [ -71.155639021651069, -32.991334205170659 ], [ -71.155452329038141, -32.991370236346654 ] ] ] } },
{ "type": "Feature", "properties": { "OBJECTID": 32, "ID": 99, "SHAPE_Leng": 600.25688635500001, "OBJECTID_1": 99, "ID_2": 99.0, "PROY": "PAVIMENTACIÓN VIÑA AURORA", "FUENTE": "SERVIU PAVIPART", "ESTADO": "INGENIERÍA APROBADA", "MONTO": 0.0 }, "geometry": { "type": "MultiLineString", "coordinates": [ [ [ -71.180022322577614, -32.987853854290123 ], [ -71.180022555336848, -32.98785387727763 ] ], [ [ -71.180022322577614, -32.987853854290123 ], [ -71.179936506119901, -32.988677395398483 ], [ -71.179842747734298, -32.989500321298621 ], [ -71.179741053394949, -32.990322577603322 ] ], [ [ -71.179274111956389, -32.98677537935766 ], [ -71.179155484213865, -32.987707968481828 ], [ -71.179160908277382, -32.98772315630503 ], [ -71.1791691446832, -32.987737417566557 ], [ -71.17917998140183, -32.987750385137154 ], [ -71.17919313946328, -32.987761725191014 ], [ -71.179208280138553, -32.987771145799591 ], [ -71.179225013659533, -32.987778404446857 ], [ -71.179242909252963, -32.987783314272413 ], [ -71.179261506229892, -32.987785748881898 ], [ -71.179280325845397, -32.987785645600844 ], [ -71.179298883623119, -32.98778300708809 ], [ -71.180022322577614, -32.987853854290123 ] ], [ [ -71.180134525259774, -32.986636581921644 ], [ -71.18008059172513, -32.987245360035857 ], [ -71.180022322577614, -32.987853854290123 ] ] ] } },
{ "type": "Feature", "properties": { "OBJECTID": 34, "ID": 100, "SHAPE_Leng": 217.13474079400001, "OBJECTID_1": 100, "ID_2": 100.0, "PROY": "PAVIMENTACIÓN CALLE LA GRUTA TRAMO 2", "FUENTE": "SERVIU PAVIPART", "ESTADO": "DISEÑO EN EJECUCIÓN", "MONTO": 0.0 }, "geometry": { "type": "MultiLineString", "coordinates": [ [ [ -71.185565186217374, -32.9891049956153 ], [ -71.185473359318493, -32.988817646194164 ], [ -71.185388371804024, -32.988528806176788 ], [ -71.185310257621907, -32.988238591164077 ], [ -71.185310356219972, -32.98809208126594 ], [ -71.185302076669998, -32.987945737594906 ], [ -71.185285438253828, -32.987799900233213 ], [ -71.185260479677595, -32.987654908084821 ], [ -71.185114597792349, -32.987192203662978 ] ] ] } },
{ "type": "Feature", "properties": { "OBJECTID": 35, "ID": 101, "SHAPE_Leng": 657.22595255500005, "OBJECTID_1": 101, "ID_2": 101.0, "PROY": "PAVIMENTACIÓN CALLE CANCHITA", "FUENTE": null, "ESTADO": null, "MONTO": 0.0 }, "geometry": { "type": "MultiLineString", "coordinates": [ [ [ -71.161841140019462, -32.989925596224651 ], [ -71.161242688023009, -32.989887157948203 ], [ -71.160644707070546, -32.989843825885025 ], [ -71.160047253540171, -32.989795604116367 ], [ -71.159904954794897, -32.989751920777067 ], [ -71.159760402822812, -32.989713852679166 ], [ -71.159613909421608, -32.989681481935953 ], [ -71.159465790575581, -32.98965487837156 ], [ -71.159316365774231, -32.98963409937047 ], [ -71.159165957323339, -32.989619189753704 ], [ -71.159014889649967, -32.989610181682124 ], [ -71.15886348860279, -32.989607094587186 ], [ -71.158712080749524, -32.989609935128904 ], [ -71.158142046248045, -32.989769820522689 ], [ -71.157570128648175, -32.989924859346431 ], [ -71.15699638598872, -32.990075035859981 ], [ -71.156517898797588, -32.990190672983076 ], [ -71.156374883657833, -32.990198237543275 ], [ -71.156231621130146, -32.990200869618654 ], [ -71.156088350653221, -32.990198564809106 ], [ -71.155945311679062, -32.990191326965778 ], [ -71.155802743272801, -32.990179168184504 ], [ -71.155710887408958, -32.990156060072209 ], [ -71.155617245619737, -32.990138777134909 ], [ -71.155522337273268, -32.990127415230219 ], [ -71.155426688761892, -32.990122037375649 ], [ -71.15533083058277, -32.990122673399348 ], [ -71.155235294395951, -32.990129319774489 ], [ -71.15514444832462, -32.990140505780296 ], [ -71.155055013374962, -32.990157993093 ], [ -71.154967603860541, -32.990181661596132 ] ] ] } },
{ "type": "Feature", "properties": { "OBJECTID": 36, "ID": 102, "SHAPE_Leng": 422.33451307899998, "OBJECTID_1": 102, "ID_2": 102.0, "PROY": "PAVIMENTACIÓN CALLE EL PILÓN", "FUENTE": null, "ESTADO": null, "MONTO": 0.0 }, "geometry": { "type": "MultiLineString", "coordinates": [ [ [ -71.168002471591009, -33.002157149144324 ], [ -71.16800808548561, -33.002106929480902 ], [ -71.168007712153383, -33.002056488500969 ], [ -71.168001355346192, -33.002006331743836 ], [ -71.167989078784402, -33.001956961899431 ], [ -71.167958715758758, -33.001919357971424 ], [ -71.167922349836942, -33.001885747798013 ], [ -71.167880711206408, -33.001856806228943 ], [ -71.167834635921409, -33.001833114373817 ], [ -71.167785049116233, -33.001815147934479 ], [ -71.167732946429908, -33.001803267653656 ], [ -71.167679374015648, -33.00179771207209 ], [ -71.167474738011109, -33.001784352767288 ], [ -71.167270785989373, -33.001764939008112 ], [ -71.167067770172409, -33.001739494801313 ], [ -71.166865941624039, -33.001708051611274 ], [ -71.166744571238581, -33.001676740318928 ], [ -71.16662529475748, -33.00164015936511 ], [ -71.166508434182788, -33.001598407504574 ], [ -71.16639430499329, -33.001551597451531 ], [ -71.166283215292751, -33.001499855575474 ], [ -71.165520169209998, -33.001212471425418 ], [ -71.165430111099298, -33.001165183791684 ], [ -71.165335883794612, -33.001124067118432 ], [ -71.165238081581023, -33.001089380724508 ], [ -71.165137321287943, -33.00106134337355 ], [ -71.165034238399159, -33.001040131894399 ], [ -71.164929483045341, -33.001025880065974 ], [ -71.164890678552439, -33.00101560731401 ], [ -71.16485046948695, -33.001010437276491 ], [ -71.164809795049479, -33.001010490715132 ], [ -71.164769605310639, -33.001015766381975 ], [ -71.164730839019811, -33.001026141048655 ], [ -71.164694401678389, -33.001041372384556 ], [ -71.164661144389569, -33.001061104617122 ], [ -71.164631843978455, -33.001084876841695 ], [ -71.164317861644278, -33.00156154785995 ] ] ] } }
]
}
