{
"type": "FeatureCollection",
"name": "poly_proyectos",
"crs": { "type": "name", "properties": { "name": "urn:ogc:def:crs:OGC:1.3:CRS84" } },
"features": [
{ "type": "Feature", "properties": { "OBJECTID": 1, "ID": 2, "SHAPE_Leng": 1498.2055111, "SHAPE_Area": 14626.8801982, "OBJECTID_1": 2, "ID_2": 2.0, "PROY": "MEJORAMIENTO INTEGRAL EJE PRAT, PLAZA MANUEL MONTT Y PARQUE TENIENTE MERINO DE OLMUÉ", "FUENTE": "F.N.D.R. TRADICIONAL", "ESTADO": "DISEÑO EN EJECUCIÓN", "MONTO": 134686000.0 }, "geometry": { "type": "MultiPolygon", "coordinates": [ [ [ [ -71.186281559949137, -32.996013220222338 ], [ -71.18631885741047, -32.995344504562851 ], [ -71.185987793892551, -32.995352690338486 ], [ -71.185973884291883, -32.995247952707388 ], [ -71.185890852104805, -32.99527161960463 ], [ -71.185806032707632, -32.995290250115488 ], [ -71.1857198556947, -32.995303749879064 ], [ -71.185632757537178, -32.995312050520781 ], [ -71.185545179372369, -32.995315109998657 ], [ -71.185323461767595, -32.995339756510901 ], [ -71.185101132727169, -32.995360120000832 ], [ -71.184878308756083, -32.995376189796218 ], [ -71.184655106618905, -32.995387957474769 ], [ -71.184421670150201, -32.99539156392683 ], [ -71.184188218842365, -32.9953887186823 ], [ -71.183955003742696, -32.995379424798706 ], [ -71.18372227564457, -32.995363692268327 ], [ -71.183490284817452, -32.995341538007331 ], [ -71.183093827506724, -32.995299992126228 ], [ -71.182696796581112, -32.995262538382335 ], [ -71.182299251499956, -32.99522918238705 ], [ -71.181901251799374, -32.99519992913811 ], [ -71.181641102393868, -32.995167364406733 ], [ -71.181380077028322, -32.99514023054671 ], [ -71.181118335315617, -32.995118544151978 ], [ -71.180856037306384, -32.995102318485472 ], [ -71.180593343391223, -32.995091563470922 ], [ -71.179994899484029, -32.995049527887289 ], [ -71.179981086919611, -32.995178610591793 ], [ -71.180412495750204, -32.995221177830189 ], [ -71.180204831646122, -32.995756870618031 ], [ -71.180988341764092, -32.995955528558603 ], [ -71.181001335400808, -32.995961240388496 ], [ -71.181015271230777, -32.995965062345221 ], [ -71.181029765307613, -32.995966889129946 ], [ -71.181044418304523, -32.995966670412905 ], [ -71.181058826516264, -32.99596441222004 ], [ -71.181072592981806, -32.995960176766921 ], [ -71.181085338420971, -32.99595408074466 ], [ -71.181096711684148, -32.995946292104946 ], [ -71.181106399426781, -32.99593702543276 ], [ -71.181114134742387, -32.995926536034247 ], [ -71.18111970451605, -32.995915112902843 ], [ -71.181122955295862, -32.995903070757102 ], [ -71.181147981692845, -32.995654495854929 ], [ -71.181135956527811, -32.995610990499699 ], [ -71.181131958173083, -32.995566447818433 ], [ -71.181136080451907, -32.995521913159571 ], [ -71.181148226608698, -32.995478431681718 ], [ -71.181168111581016, -32.995437023825453 ], [ -71.181189660845149, -32.995417302157634 ], [ -71.181206850564593, -32.995394743935904 ], [ -71.181219165500025, -32.995370025318245 ], [ -71.181226236529355, -32.995343887217437 ], [ -71.181227851711341, -32.995317113093044 ], [ -71.181223962637731, -32.995290505467956 ], [ -71.181288092329169, -32.99527555615154 ], [ -71.181353668782279, -32.995266057597291 ], [ -71.181420041294231, -32.995262104057048 ], [ -71.181486551263703, -32.995263734760506 ], [ -71.181552538725541, -32.995270933525987 ], [ -71.181617348899195, -32.995283628921037 ], [ -71.182066099228265, -32.995310413148914 ], [ -71.182514167311666, -32.995344353166409 ], [ -71.182961392515253, -32.995385436801307 ], [ -71.183407614506606, -32.995433649320354 ], [ -71.183634488039203, -32.995457699446668 ], [ -71.183862242311307, -32.995474848118342 ], [ -71.184090581763442, -32.995485073083636 ], [ -71.184319210076438, -32.995488361075694 ], [ -71.184547830556312, -32.995484707829917 ], [ -71.184776146519411, -32.99547411808939 ], [ -71.185056768090973, -32.995461121925459 ], [ -71.185336931783738, -32.995442381439879 ], [ -71.185616472019774, -32.995417907710603 ], [ -71.185895223590066, -32.995387715203961 ], [ -71.185983074594745, -32.995390947609067 ], [ -71.186006096587064, -32.995979870420037 ], [ -71.186281559949137, -32.996013220222338 ] ] ] ] } },
{ "type": "Feature", "properties": { "OBJECTID": 2, "ID": 13, "SHAPE_Leng": 813.59653874100002, "SHAPE_Area": 25313.909311200001, "OBJECTID_1": 13, "ID_2": 13.0, "PROY": "CONSTRUCCION SISTEMA FOTOVOLTAICO ONGRID PARA SSR EL GRANIZO DE LA COMUNA DE OLMUÉ", "FUENTE": "F.N.D.R. TRADICIONAL", "ESTADO": "RECOMENDADO SATISFACTORIAMENTE (RS)", "MONTO": 1767942000.0 }, "geometry": { "type": "MultiPolygon", "coordinates": [ [ [ [ -71.179873955798371, -33.012066365822491 ], [ -71.180057321991427, -33.012382876710994 ], [ -71.180128048914625, -33.012376621084684 ], [ -71.18019747453144, -33.012363636649155 ], [ -71.180264700005281, -33.01234409151153 ], [ -71.180328854985731, -33.01231823871862 ], [ -71.180389108877648, -33.012286412980622 ], [ -71.180402652239806, -33.012265787493924 ], [ -71.18041990190504, -33.012247229576936 ], [ -71.18044042242181, -33.012231207704311 ], [ -71.180463695770314, -33.01221812633068 ], [ -71.180489134439384, -33.012208315680859 ], [ -71.180590548159969, -33.012180965508229 ], [ -71.180689725924694, -33.012148309637496 ], [ -71.180786277126344, -33.012110476683993 ], [ -71.180879821503936, -33.012067615652683 ], [ -71.180969990640378, -33.012019895351187 ], [ -71.18105642941363, -33.011967503724875 ], [ -71.181138797395377, -33.011910647116537 ], [ -71.18092216463414, -33.011623350552526 ], [ -71.180801159850049, -33.011670431446824 ], [ -71.180677290741087, -33.011711888966715 ], [ -71.180550925130987, -33.011747600003709 ], [ -71.180422438258447, -33.011777458513109 ], [ -71.180292211662604, -33.011801375829151 ], [ -71.180192862533332, -33.011873293502731 ], [ -71.180089906760898, -33.011941515355652 ], [ -71.179983537868949, -33.012005913146645 ], [ -71.179873955798371, -33.012066365822491 ] ] ], [ [ [ -71.164205533810232, -33.001838836555578 ], [ -71.164202599884717, -33.001892570943319 ], [ -71.167539539587281, -33.002353593576188 ], [ -71.167599218789164, -33.002346979809936 ], [ -71.167657637350999, -33.002334754945288 ], [ -71.167714054680587, -33.002317073961649 ], [ -71.167767755557449, -33.002294161007399 ], [ -71.16781805919986, -33.002266306558127 ], [ -71.167864327895899, -33.002233863734091 ], [ -71.167905975087791, -33.002197243823389 ], [ -71.167942472807965, -33.002156911067686 ], [ -71.167955898360958, -33.002116959460324 ], [ -71.167963028116773, -33.002075873991267 ], [ -71.167963740387123, -33.002034355944168 ], [ -71.16795802302336, -33.001993113985328 ], [ -71.167945973623191, -33.001952852067568 ], [ -71.167924936906871, -33.001926020281047 ], [ -71.167899414678772, -33.001902110800792 ], [ -71.167869970253761, -33.001881651342977 ], [ -71.167837253513682, -33.001865093476539 ], [ -71.167801986563731, -33.0018528026567 ], [ -71.167764947794694, -33.001845050158991 ], [ -71.167690841759111, -33.001824947435509 ], [ -71.167615108843904, -33.001809747567968 ], [ -71.167538205152439, -33.001799542098411 ], [ -71.167460593838669, -33.001794392490005 ], [ -71.167382742317855, -33.001794329756862 ], [ -71.167305119451953, -33.001799354277381 ], [ -71.167188229484097, -33.001791713243456 ], [ -71.167072133776657, -33.001777937362533 ], [ -71.166957285368952, -33.001758080391134 ], [ -71.166844132432317, -33.001732219815992 ], [ -71.166733116521016, -33.001700456551497 ], [ -71.166624670848833, -33.001662914546081 ], [ -71.166519218598381, -33.001619740298317 ], [ -71.166199144527454, -33.001492345511025 ], [ -71.165876155175866, -33.001370287512799 ], [ -71.165550375844134, -33.00125361365361 ], [ -71.165431943413182, -33.001201940681071 ], [ -71.165310266301503, -33.001155930740929 ], [ -71.165185725509502, -33.001115727900917 ], [ -71.165058711002786, -33.001081458045384 ], [ -71.164929620491321, -33.001053228481211 ], [ -71.164888228549245, -33.001053718521725 ], [ -71.164846973293777, -33.001050844281679 ], [ -71.164806238942063, -33.001044632529108 ], [ -71.164795414731742, -33.001040642579468 ], [ -71.164783976527033, -33.00103814974625 ], [ -71.1647722138934, -33.001037217137103 ], [ -71.164760424609341, -33.001037868361664 ], [ -71.164748907128043, -33.001040086933784 ], [ -71.16473795302187, -33.00104381668892 ], [ -71.164727839601099, -33.001048963205974 ], [ -71.164718822893647, -33.001055396197593 ], [ -71.1647111311636, -33.001062952808439 ], [ -71.164704959132436, -33.00107144173797 ], [ -71.164611643183392, -33.001175189070587 ], [ -71.164524998843731, -33.001282966654351 ], [ -71.164445270774436, -33.00139447018563 ], [ -71.164322924943122, -33.001615704332629 ], [ -71.164205533810232, -33.001838836555578 ] ] ], [ [ [ -71.221836405657299, -32.999847506481835 ], [ -71.221886692967985, -32.999847960847994 ], [ -71.221936419048603, -32.999841631392798 ], [ -71.221984303395388, -32.999828681107438 ], [ -71.222029112932631, -32.999809443477091 ], [ -71.222069693766628, -32.99978441389284 ], [ -71.222105000900029, -32.999754236894532 ], [ -71.222134125141935, -32.999719689572892 ], [ -71.22215631652017, -32.999681661558007 ], [ -71.222171003593445, -32.999641132110348 ], [ -71.222156890329956, -32.99955381125001 ], [ -71.222135648372713, -32.999467521207094 ], [ -71.222107379342702, -32.999382674707832 ], [ -71.222072218470259, -32.999299677572871 ], [ -71.222030333947984, -32.999218926776301 ], [ -71.221981926126048, -32.999140808547018 ], [ -71.221927226553518, -32.999065696521484 ], [ -71.221717535538446, -32.998833224950445 ], [ -71.221382939413274, -32.999039598045492 ], [ -71.221465171236034, -32.999139440625378 ], [ -71.221541313115907, -32.999242655931099 ], [ -71.22161117063105, -32.999348980438974 ], [ -71.221674565402523, -32.999458142686201 ], [ -71.221731335549777, -32.999569863963899 ], [ -71.221781336104371, -32.999683859028572 ], [ -71.221836405657299, -32.999847506481835 ] ] ], [ [ [ -71.19802669222311, -32.983822815208974 ], [ -71.1982835627105, -32.984021096193018 ], [ -71.198337149541089, -32.983978553434667 ], [ -71.198386141694755, -32.983932242885359 ], [ -71.198430167668249, -32.983882515721483 ], [ -71.198443679788738, -32.983860827703076 ], [ -71.198452885772198, -32.983837592853341 ], [ -71.198457546843272, -32.983813413822915 ], [ -71.198457542109921, -32.983788917751511 ], [ -71.198452871698763, -32.983764740001511 ], [ -71.198443656751323, -32.983741507678417 ], [ -71.198412462301647, -32.983625146546892 ], [ -71.198348956208619, -32.983649326898117 ], [ -71.19828322101975, -32.983668821888003 ], [ -71.198215742345226, -32.983683487499015 ], [ -71.198118973652157, -32.983750988880224 ], [ -71.19802669222311, -32.983822815208974 ] ] ] ] } },
{ "type": "Feature", "properties": { "OBJECTID": 6, "ID": 22, "SHAPE_Leng": 1498.20550159, "SHAPE_Area": 14626.8840057, "OBJECTID_1": 22, "ID_2": 22.0, "PROY": "MEJORAMIENTO INTEGRAL EJE PRAT, PLAZA MANUEL MONTT Y PARQUE TENIENTE MERINO DE OLMUÉ", "FUENTE": "F.N.D.R. TRADICIONAL", "ESTADO": "EN FORMULACIÓN", "MONTO": 1457616504.0 }, "geometry": { "type": "MultiPolygon", "coordinates": [ [ [ [ -71.183159355650119, -32.995405932973576 ], [ -71.183407614506606, -32.995433649320354 ], [ -71.183634488039203, -32.995457699446668 ], [ -71.183862242311307, -32.995474848118342 ], [ -71.184090581763442, -32.995485073083636 ], [ -71.184319210076438, -32.995488361075694 ], [ -71.184547830556312, -32.995484707829917 ], [ -71.184776146519411, -32.99547411808939 ], [ -71.185056768090973, -32.995461121925452 ], [ -71.185336931783738, -32.995442381439865 ], [ -71.185616472019774, -32.995417907710596 ], [ -71.185895223590066, -32.995387715203961 ], [ -71.185983074594745, -32.995390947609067 ], [ -71.186006096587064, -32.995979870420037 ], [ -71.186281559949137, -32.996013220222338 ], [ -71.18631885741047, -32.995344504562851 ], [ -71.185987793892551, -32.995352690338486 ], [ -71.185986449527675, -32.995342569884166 ], [ -71.185973884291883, -32.995247952707388 ], [ -71.185890852104805, -32.99527161960463 ], [ -71.185806032707632, -32.995290250115488 ], [ -71.1857198556947, -32.995303749879064 ], [ -71.185632757537178, -32.995312050520788 ], [ -71.185545179372369, -32.995315109998657 ], [ -71.185357970892071, -32.995336206003188 ], [ -71.185170313393257, -32.995354248365565 ], [ -71.184912974567141, -32.995373973903376 ], [ -71.184655106618905, -32.995387957474769 ], [ -71.18445988971429, -32.995391415440132 ], [ -71.184216871909882, -32.995389415571843 ], [ -71.183974076656867, -32.995380427708575 ], [ -71.183731786855631, -32.99536446232036 ], [ -71.183490284817452, -32.995341538007331 ], [ -71.183323900154278, -32.995323596600429 ], [ -71.182850415317048, -32.995276538381049 ], [ -71.182376165482822, -32.995235312961434 ], [ -71.181901251799374, -32.99519992913811 ], [ -71.18163260431092, -32.995166393580057 ], [ -71.181475214687694, -32.995149480516261 ], [ -71.181317543182345, -32.995134547961044 ], [ -71.181171073779709, -32.995122470550754 ], [ -71.181057979268274, -32.995114323026094 ], [ -71.180825809086144, -32.995100801142677 ], [ -71.180593343391223, -32.995091563470922 ], [ -71.179994899484029, -32.995049527887289 ], [ -71.179987602047191, -32.995117721932552 ], [ -71.179981086919611, -32.995178610591793 ], [ -71.18036333662856, -32.995216327632214 ], [ -71.180412495750204, -32.995221177830189 ], [ -71.180204831646122, -32.995756870618031 ], [ -71.180988341764092, -32.995955528558603 ], [ -71.181000313936607, -32.995960872312835 ], [ -71.181013115330984, -32.995964609680293 ], [ -71.181026444545139, -32.995966652666674 ], [ -71.18103998774977, -32.995966953170957 ], [ -71.181053426077185, -32.995965504117926 ], [ -71.181066443129012, -32.995962339624846 ], [ -71.181078732425732, -32.995957534198084 ], [ -71.181089974462964, -32.995951220944164 ], [ -71.181099941927712, -32.995943536295549 ], [ -71.18110840145907, -32.995934660167542 ], [ -71.181115155000512, -32.995924800370673 ], [ -71.181120044436824, -32.995914187745271 ], [ -71.181122955295862, -32.995903070757102 ], [ -71.181147981692845, -32.995654495854929 ], [ -71.181135956527811, -32.995610990499699 ], [ -71.181131958173097, -32.995566447818433 ], [ -71.181136080451907, -32.995521913159571 ], [ -71.181148226608698, -32.995478431681718 ], [ -71.181168111581016, -32.995437023825453 ], [ -71.181189660845149, -32.995417302157634 ], [ -71.181206850564593, -32.995394743935904 ], [ -71.181219165500025, -32.995370025318245 ], [ -71.181226236529355, -32.995343887217437 ], [ -71.181227851711341, -32.995317113093044 ], [ -71.181223962637731, -32.995290505467956 ], [ -71.181231069483204, -32.995288559672012 ], [ -71.18129961094634, -32.995273474359458 ], [ -71.181320879685799, -32.995270097893048 ], [ -71.181395206065162, -32.995262927738544 ], [ -71.181470017735194, -32.995262806585934 ], [ -71.181544376262849, -32.995269735954203 ], [ -71.181617348899195, -32.995283628921037 ], [ -71.181635513690239, -32.995284573841985 ], [ -71.182016092730777, -32.995307072222786 ], [ -71.182396194007907, -32.995334717784132 ], [ -71.182775719520208, -32.995367503395414 ], [ -71.183154571414576, -32.995405420600683 ], [ -71.183159355650119, -32.995405932973576 ] ] ] ] } },
{ "type": "Feature", "properties": { "OBJECTID": 7, "ID": 74, "SHAPE_Leng": 888.01295099200001, "SHAPE_Area": 1953.8809555800001, "OBJECTID_1": 74, "ID_2": 74.0, "PROY": "MEJORAMIENTO BANDEJON CENTRAL PEDRO AGUIRRE CERDA, OLMUÉ", "FUENTE": "PMU EMERGENCIA", "ESTADO": "EN FORMULACIÓN", "MONTO": 150000000.0 }, "geometry": { "type": "MultiPolygon", "coordinates": [ [ [ [ -71.173972712126528, -32.991268150163478 ], [ -71.174000781535952, -32.991215956255218 ], [ -71.174074212831201, -32.990954668017899 ], [ -71.174240826253921, -32.990241061536317 ], [ -71.174414284612993, -32.989528614558857 ], [ -71.174594576386298, -32.988817373726285 ], [ -71.174781689605183, -32.988107385599257 ], [ -71.174975611855203, -32.987398696655276 ], [ -71.174973928250211, -32.987393158757477 ], [ -71.174971196601263, -32.98738792600669 ], [ -71.174967489898805, -32.987383138223208 ], [ -71.174962907186924, -32.987378923337708 ], [ -71.174957570916803, -32.987375393972847 ], [ -71.174951623674801, -32.987372644434025 ], [ -71.174945224372578, -32.987370748189548 ], [ -71.174938544000838, -32.987369755907466 ], [ -71.174931761060563, -32.987369694101773 ], [ -71.174925056793356, -32.987370564423941 ], [ -71.174918610338651, -32.987372343618794 ], [ -71.174912593947155, -32.987374984145852 ], [ -71.174907168378169, -32.987378415449683 ], [ -71.174782894118991, -32.987846015466296 ], [ -71.174663325842346, -32.988314486285034 ], [ -71.174548472210716, -32.988783794261934 ], [ -71.174438341548353, -32.989253905692351 ], [ -71.174249533604524, -32.99006408241415 ], [ -71.174053618870587, -32.990873060126525 ], [ -71.174025982041385, -32.990970664160422 ], [ -71.174003259754443, -32.991069164500665 ], [ -71.173985492548667, -32.991168385484535 ], [ -71.173972712126528, -32.991268150163478 ] ] ] ] } },
{ "type": "Feature", "properties": { "OBJECTID": 8, "ID": 103, "SHAPE_Leng": 289.60106958699998, "SHAPE_Area": 989.451955709, "OBJECTID_1": 103, "ID_2": 103.0, "PROY": "MEJORAMIENTO ESPACIO PUBLICO HUGO QUINTEROS P14, OLMUE", "FUENTE": null, "ESTADO": null, "MONTO": 0.0 }, "geometry": { "type": "MultiPolygon", "coordinates": [ [ [ [ -71.165385798835644, -32.998186732280516 ], [ -71.165311432567151, -32.998185040536207 ], [ -71.165292083831375, -32.998315833055059 ], [ -71.165278914323821, -32.998447169892792 ], [ -71.165271944850204, -32.998578843833471 ], [ -71.165271186434381, -32.998710647128426 ], [ -71.165273961051511, -32.998786391067895 ], [ -71.165281711077128, -32.998861889158889 ], [ -71.165294412720115, -32.998936909513652 ], [ -71.165290849351294, -32.998945480348716 ], [ -71.165285732176869, -32.998953472963059 ], [ -71.165279188305803, -32.998960688822081 ], [ -71.165271380285958, -32.998966948685563 ], [ -71.165262502066497, -32.998972097059919 ], [ -71.165252774180175, -32.998976006060694 ], [ -71.165242438265466, -32.998978578589146 ], [ -71.165231751064155, -32.998979750744219 ], [ -71.165220008186722, -32.998980510943653 ], [ -71.1652082536839, -32.998979891317042 ], [ -71.165196714787797, -32.998977903842658 ], [ -71.165185614562589, -32.99897458694133 ], [ -71.165116830234993, -32.998959878204055 ], [ -71.165046884033401, -32.998949784048129 ], [ -71.164976211233295, -32.998944367289987 ], [ -71.164905251631595, -32.998943661638585 ], [ -71.164899561361437, -32.99894272786382 ], [ -71.164893767797878, -32.998942555679328 ], [ -71.164888013597547, -32.998943149324859 ], [ -71.164882440447812, -32.998944494182929 ], [ -71.164877185577978, -32.998946557138702 ], [ -71.164872378380295, -32.998949287395412 ], [ -71.164868137223877, -32.998952617725116 ], [ -71.164864566540061, -32.998956466124127 ], [ -71.164861754250992, -32.998960737832157 ], [ -71.164859769604632, -32.998965327665587 ], [ -71.164930671882018, -32.998970062829677 ], [ -71.16500161913244, -32.99897163064081 ], [ -71.165071990124602, -32.99897939486835 ], [ -71.165141024775991, -32.998993271649667 ], [ -71.165207977437333, -32.999013111099977 ], [ -71.165272124945986, -32.999038698931095 ], [ -71.165378842736487, -32.999060707169178 ], [ -71.165476663030901, -32.999008308343761 ], [ -71.165439530063622, -32.998949672562333 ], [ -71.165408085727762, -32.998888720450751 ], [ -71.165382531776444, -32.998825843112343 ], [ -71.165363032165544, -32.998761444003001 ], [ -71.165349712002012, -32.99869593634228 ], [ -71.165342656741387, -32.998629740461979 ], [ -71.165341911639857, -32.998563281108886 ], [ -71.165385798835644, -32.998186732280516 ] ] ] ] } }
]
}
