{
"type": "FeatureCollection",
"name": "PROYECTOS",
"crs": { "type": "name", "properties": { "name": "urn:ogc:def:crs:OGC:1.3:CRS84" } },
"features": [
{ "type": "Feature", "properties": { "OBJECTID": 3, "ID": 1, "OBJECTID_1": 1, "ID_2": 1.0, "PROY": "ACTUALIZACION PLAN REGULADOR COMUNA DE OLMUE", "FUENTE": "F.N.D.R. TRADICIONAL", "ESTADO": "EN EJECUCIÓN", "MONTO": 270557000.0 }, "geometry": { "type": "MultiPoint", "coordinates": [ [ -71.185513431604917, -32.99523263017204 ] ] } },
{ "type": "Feature", "properties": { "OBJECTID": 4, "ID": 6, "OBJECTID_1": 6, "ID_2": 6.0, "PROY": "MEJORAMIENTO ESPACIO DEPORTIVO ESTADIO MUNICIPAL", "FUENTE": "F.N.D.R. TRADICIONAL", "ESTADO": "EN LICITACIÓN", "MONTO": 321080000.0 }, "geometry": { "type": "MultiPoint", "coordinates": [ [ -71.168620191513185, -32.999316448537883 ] ] } },
{ "type": "Feature", "properties": { "OBJECTID": 5, "ID": 7, "OBJECTID_1": 7, "ID_2": 7.0, "PROY": "NORMALIZACIÓN Y AMPLIACIÓN ESCUELA ESPECIAL HELLEN KELLER, OLMUÉ. ETAPA DISEÑO", "FUENTE": "F.N.D.R. TRADICIONAL", "ESTADO": "EN FIRMA DE CONVENIO", "MONTO": 60000000.0 }, "geometry": { "type": "MultiPoint", "coordinates": [ [ -71.170360699150422, -33.003527880768075 ] ] } },
{ "type": "Feature", "properties": { "OBJECTID": 6, "ID": 10, "OBJECTID_1": 10, "ID_2": 10.0, "PROY": "NORMALIZACIÓN Y AMPLIACIÓN ESCUELA QUEBRADA DE ALVARADO, COMUNA DE OLMUÉ. ETAPA DISEÑO", "FUENTE": "F.N.D.R. TRADICIONAL", "ESTADO": "RECOMENDADO SATISFACTORIAMENTE (RS)", "MONTO": 168465000.0 }, "geometry": { "type": "MultiPoint", "coordinates": [ [ -71.112470595081149, -33.052617770846453 ] ] } },
{ "type": "Feature", "properties": { "OBJECTID": 7, "ID": 14, "OBJECTID_1": 14, "ID_2": 14.0, "PROY": "DIAGNOSTICO PLAN DE ACCION COMUNAL PARA EL CAMBIO CLIMATICO, COMUNA DE OLMUÉ", "FUENTE": "F.N.D.R. TRADICIONAL", "ESTADO": "RECOMENDADO SATISFACTORIAMENTE (RS)", "MONTO": 49737000.0 }, "geometry": { "type": "MultiPoint", "coordinates": [ [ -71.185505020162793, -32.995187616866424 ] ] } },
{ "type": "Feature", "properties": { "OBJECTID": 8, "ID": 23, "OBJECTID_1": 23, "ID_2": 23.0, "PROY": "MEJORAMIENTO DEL SISTEMA DE ALUMBRADO PÚBLICO, COMUNA DE OLMUÉ", "FUENTE": "F.N.D.R. TRADICIONAL", "ESTADO": "EN FORMULACIÓN", "MONTO": 4500000000.0 }, "geometry": { "type": "MultiPoint", "coordinates": [ [ -71.185500420530929, -32.99513340819049 ] ] } },
{ "type": "Feature", "properties": { "OBJECTID": 9, "ID": 24, "OBJECTID_1": 24, "ID_2": 24.0, "PROY": "ESTACIÓN DE AVANZADA DE SALUD", "FUENTE": "F.N.D.R. TRADICIONAL", "ESTADO": null, "MONTO": 0.0 }, "geometry": { "type": "MultiPoint", "coordinates": [ [ -71.064320761863385, -33.063087855579589 ] ] } },
{ "type": "Feature", "properties": { "OBJECTID": 10, "ID": 25, "OBJECTID_1": 25, "ID_2": 25.0, "PROY": "REPOSICION BUS MUNICIPAL DE OLMUE", "FUENTE": "F.N.D.R. - CIRCULAR 33", "ESTADO": "EJECUTADO", "MONTO": 374880000.0 }, "geometry": { "type": "MultiPoint", "coordinates": [ [ -71.185492955953137, -32.995086347515588 ] ] } },
{ "type": "Feature", "properties": { "OBJECTID": 11, "ID": 26, "OBJECTID_1": 26, "ID_2": 26.0, "PROY": "ADQUISICION DE CONTENEDORES DOMICILIARIOS Y COMUNITARIOS PARA LA EXTRACCIÓN DE RSDYA, OLMUÉ", "FUENTE": "F.N.D.R. - CIRCULAR 33", "ESTADO": "EN LICITACIÓN", "MONTO": 235949000.0 }, "geometry": { "type": "MultiPoint", "coordinates": [ [ -71.185484630447803, -32.995035792230112 ] ] } },
{ "type": "Feature", "properties": { "OBJECTID": 12, "ID": 27, "OBJECTID_1": 27, "ID_2": 27.0, "PROY": "ADQUISICIÓN VAN MUNICIPALIDAD DE OLMUÉ", "FUENTE": "F.N.D.R. - CIRCULAR 33", "ESTADO": "EN FIRMA DE CONVENIO", "MONTO": 55799000.0 }, "geometry": { "type": "MultiPoint", "coordinates": [ [ -71.185475863837027, -32.994967349953775 ] ] } },
{ "type": "Feature", "properties": { "OBJECTID": 13, "ID": 28, "OBJECTID_1": 28, "ID_2": 28.0, "PROY": "ADQUISICIÓN EQUIPOS COMPUTACIONALES DESAM", "FUENTE": "F.N.D.R. - CIRCULAR 33", "ESTADO": "EN FORMULACIÓN", "MONTO": 60000000.0 }, "geometry": { "type": "MultiPoint", "coordinates": [ [ -71.180815746886012, -32.99461254580104 ] ] } },
{ "type": "Feature", "properties": { "OBJECTID": 14, "ID": 29, "OBJECTID_1": 29, "ID_2": 29.0, "PROY": "ADQUISICIÓN AMBULANCIA", "FUENTE": "F.N.D.R. - CIRCULAR 33", "ESTADO": "EN FORMULACIÓN", "MONTO": 150000000.0 }, "geometry": { "type": "MultiPoint", "coordinates": [ [ -71.18081363409965, -32.994526689060258 ] ] } },
{ "type": "Feature", "properties": { "OBJECTID": 15, "ID": 30, "OBJECTID_1": 30, "ID_2": 30.0, "PROY": "ADQUISICIÓN DE TOLVAS PARA LA MUNICIPALIDAD DE OLMUÉ", "FUENTE": "F.N.D.R. - CIRCULAR 33", "ESTADO": "EN FORMULACIÓN", "MONTO": 38000000.0 }, "geometry": { "type": "MultiPoint", "coordinates": [ [ -71.185477349913384, -32.994893658374338 ] ] } },
{ "type": "Feature", "properties": { "OBJECTID": 17, "ID": 31, "OBJECTID_1": 31, "ID_2": 31.0, "PROY": "ADQUISICIÓN DE CAMIONES AMPLIROLL, OLMUÉ", "FUENTE": "F.N.D.R. - CIRCULAR 33", "ESTADO": null, "MONTO": 300000000.0 }, "geometry": { "type": "MultiPoint", "coordinates": [ [ -71.185603662596762, -32.995240254266285 ] ] } },
{ "type": "Feature", "properties": { "OBJECTID": 18, "ID": 32, "OBJECTID_1": 32, "ID_2": 32.0, "PROY": "ADQUISICIÓN DE BACHEADORA", "FUENTE": "F.N.D.R. - CIRCULAR 33", "ESTADO": "EN FORMULACIÓN", "MONTO": 365235000.0 }, "geometry": { "type": "MultiPoint", "coordinates": [ [ -71.185581201396488, -32.995190542630468 ] ] } },
{ "type": "Feature", "properties": { "OBJECTID": 19, "ID": 33, "OBJECTID_1": 33, "ID_2": 33.0, "PROY": "ADQUISICIÓN DE CHIPEADORA", "FUENTE": "F.N.D.R. - CIRCULAR 33", "ESTADO": "EN FORMULACIÓN", "MONTO": 24990000.0 }, "geometry": { "type": "MultiPoint", "coordinates": [ [ -71.185584210547475, -32.995140384910854 ] ] } },
{ "type": "Feature", "properties": { "OBJECTID": 20, "ID": 34, "OBJECTID_1": 34, "ID_2": 34.0, "PROY": "ADQUISICIÓN DE EQUIPO MÉDICO DESAM", "FUENTE": "F.N.D.R. - CIRCULAR 33", "ESTADO": "EN FORMULACIÓN", "MONTO": 0.0 }, "geometry": { "type": "MultiPoint", "coordinates": [ [ -71.180815477037299, -32.994475820430473 ] ] } },
{ "type": "Feature", "properties": { "OBJECTID": 21, "ID": 35, "OBJECTID_1": 35, "ID_2": 35.0, "PROY": "CONSTRUCCION PATIO TECHADO CLUB DEPORTIVO LO NARVAEZ, OLMUÉ", "FUENTE": "F.N.D.R. - F.R.I.L.", "ESTADO": "EJECUTADO", "MONTO": 81507000.0 }, "geometry": { "type": "MultiPoint", "coordinates": [ [ -71.172628481334058, -33.001793055762548 ] ] } },
{ "type": "Feature", "properties": { "OBJECTID": 24, "ID": 36, "OBJECTID_1": 36, "ID_2": 36.0, "PROY": "MEJORAMIENTO ORGANIZACIONES DEPORTIVAS SECTOR LO NARVAEZ, OLMUÉ", "FUENTE": "F.N.D.R. - F.R.I.L.", "ESTADO": "EJECUTADO", "MONTO": 131700000.0 }, "geometry": { "type": "MultiPoint", "coordinates": [ [ -71.171273407720633, -33.000630351117941 ], [ -71.169743728655618, -33.000603275393146 ] ] } },
{ "type": "Feature", "properties": { "OBJECTID": 25, "ID": 37, "OBJECTID_1": 37, "ID_2": 37.0, "PROY": "CONSTRUCCION BAÑOS Y CAMARINES CLUB DEPORTIVO EL AROMO, OLMUÉ", "FUENTE": "F.N.D.R. - F.R.I.L.", "ESTADO": "EN EJECUCIÓN", "MONTO": 63655000.0 }, "geometry": { "type": "MultiPoint", "coordinates": [ [ -71.197559949112787, -32.996846885449834 ] ] } },
{ "type": "Feature", "properties": { "OBJECTID": 26, "ID": 38, "OBJECTID_1": 38, "ID_2": 38.0, "PROY": "CONSTRUCCIÓN BAÑOS, CAMARINES Y CIERRE PERIMETRAL CLUB DEPORTIVO LA DORMIDA, OLMUÉ", "FUENTE": "F.N.D.R. - F.R.I.L.", "ESTADO": "EN EJECUCIÓN", "MONTO": 100300000.0 }, "geometry": { "type": "MultiPoint", "coordinates": [ [ -71.067331671304757, -33.063759330511772 ] ] } },
{ "type": "Feature", "properties": { "OBJECTID": 27, "ID": 39, "OBJECTID_1": 39, "ID_2": 39.0, "PROY": "CONSTRUCCIÓN PATIO TECHADO CLUB DEPORTIVO LA CAMPANA, OLMUÉ", "FUENTE": "F.N.D.R. - F.R.I.L.", "ESTADO": "EN EJECUCIÓN", "MONTO": 116066000.0 }, "geometry": { "type": "MultiPoint", "coordinates": [ [ -71.141606921878719, -33.001129294472271 ] ] } },
{ "type": "Feature", "properties": { "OBJECTID": 28, "ID": 40, "OBJECTID_1": 40, "ID_2": 40.0, "PROY": "REPOSICIÓN SEDE JUNTA DE VECINOS CAJÓN GRANDE, OLMUÉ", "FUENTE": "F.N.D.R. - F.R.I.L.", "ESTADO": "EN EJECUCIÓN", "MONTO": 70700000.0 }, "geometry": { "type": "MultiPoint", "coordinates": [ [ -71.138986615940752, -32.996383667006207 ] ] } },
{ "type": "Feature", "properties": { "OBJECTID": 29, "ID": 41, "OBJECTID_1": 41, "ID_2": 41.0, "PROY": "MEJORAMIENTO CLUB DE RAYUELA GRANIZO, OLMUÉ", "FUENTE": "F.N.D.R. - F.R.I.L.", "ESTADO": "EN EJECUCIÓN", "MONTO": 61154000.0 }, "geometry": { "type": "MultiPoint", "coordinates": [ [ -71.168456756533473, -32.982732452703374 ] ] } },
{ "type": "Feature", "properties": { "OBJECTID": 30, "ID": 42, "OBJECTID_1": 42, "ID_2": 42.0, "PROY": "CONSTRUCCIÓN PATIO TECHADO CLUB CAMPERO LA VEGA, OLMUÉ", "FUENTE": "F.N.D.R. - F.R.I.L.", "ESTADO": "POSTULADO", "MONTO": 152892000.0 }, "geometry": { "type": "MultiPoint", "coordinates": [ [ -71.044775578782719, -33.049943881026806 ] ] } },
{ "type": "Feature", "properties": { "OBJECTID": 32, "ID": 43, "OBJECTID_1": 43, "ID_2": 43.0, "PROY": "CONSTRUCCIÓN PATIO TECHADO Y GRADERÍAS CLUB DE RAYUELA EL TEBAL, OLMUÉ", "FUENTE": "F.N.D.R. - F.R.I.L.", "ESTADO": "POSTULADO", "MONTO": 163000000.0 }, "geometry": { "type": "MultiPoint", "coordinates": [ [ -71.119644379246509, -33.049126493310368 ] ] } },
{ "type": "Feature", "properties": { "OBJECTID": 33, "ID": 44, "OBJECTID_1": 44, "ID_2": 44.0, "PROY": "CONSTRUCCIÓN BAÑOS Y CAMARINES CLUB DEPORTIVO UNIÓN LA LAJA LAS PALMAS, OLMUÉ", "FUENTE": "F.N.D.R. - F.R.I.L.", "ESTADO": "POSTULADO", "MONTO": 163000000.0 }, "geometry": { "type": "MultiPoint", "coordinates": [ [ -71.05660967333624, -33.018735658190224 ] ] } },
{ "type": "Feature", "properties": { "OBJECTID": 34, "ID": 45, "OBJECTID_1": 45, "ID_2": 45.0, "PROY": "REPOSICIÓN SEDE CLUB DE RAYUELA LAS PALMAS, OLMUÉ", "FUENTE": "COMPROMISO ALCALDE", "ESTADO": null, "MONTO": 0.0 }, "geometry": { "type": "MultiPoint", "coordinates": [ [ -71.057845777377139, -33.012867640499934 ] ] } },
{ "type": "Feature", "properties": { "OBJECTID": 35, "ID": 46, "OBJECTID_1": 46, "ID_2": 46.0, "PROY": "CONSTRUCCIÓN DE BAÑOS Y  CAMARINES CON CIERRE PERIMETRAL CLUB DEPORTIVO LOS BELLOTOS, OLMUÉ", "FUENTE": "COMPROMISO ALCALDE", "ESTADO": null, "MONTO": 0.0 }, "geometry": { "type": "MultiPoint", "coordinates": [ [ -71.031893334775901, -33.041248600883733 ] ] } },
{ "type": "Feature", "properties": { "OBJECTID": 36, "ID": 47, "OBJECTID_1": 47, "ID_2": 47.0, "PROY": "MEJORAMIENTO CLUB DE RAYUELA DE QUEBRADA ALVARADO, OLMUÉ", "FUENTE": "COMPROMISO ALCALDE", "ESTADO": null, "MONTO": 0.0 }, "geometry": { "type": "MultiPoint", "coordinates": [ [ -71.1082893844316, -33.056435965695094 ] ] } },
{ "type": "Feature", "properties": { "OBJECTID": 37, "ID": 48, "OBJECTID_1": 48, "ID_2": 48.0, "PROY": "MEJORAMIENTO MEDIALUNA CONSEJO LOCAL DE DEPORTES, OLMUÉ", "FUENTE": "COMPROMISO ALCALDE", "ESTADO": null, "MONTO": 0.0 }, "geometry": { "type": "MultiPoint", "coordinates": [ [ -71.172241182556419, -33.000165680411996 ] ] } },
{ "type": "Feature", "properties": { "OBJECTID": 38, "ID": 49, "OBJECTID_1": 49, "ID_2": 49.0, "PROY": "CONSTRUCCIÓN SEDE CONSEJO LOCAL DE DEPORTES, OLMUÉ", "FUENTE": "COMPROMISO ALCALDE", "ESTADO": null, "MONTO": 0.0 }, "geometry": { "type": "MultiPoint", "coordinates": [ [ -71.172418472986905, -33.000813956583386 ] ] } },
{ "type": "Feature", "properties": { "OBJECTID": 39, "ID": 50, "OBJECTID_1": 50, "ID_2": 50.0, "PROY": "CONSULTORÍA PARA LA ELABORACIÓN DE LA ESTRATEGIA ENERGÉTICA LOCAL DE LA COMUNA DE OLMUÉ.", "FUENTE": "PMB", "ESTADO": "EJECUTADO", "MONTO": 16000000.0 }, "geometry": { "type": "MultiPoint", "coordinates": [ [ -71.185578834083074, -32.995088523623288 ] ] } },
{ "type": "Feature", "properties": { "OBJECTID": 40, "ID": 51, "OBJECTID_1": 51, "ID_2": 51.0, "PROY": "CONSTRUCCIÓN Y HABILITACIÓN DE FUENTE SSR EL GRANIZO, COMUNA DE OLMUÉ", "FUENTE": "PMB", "ESTADO": "EJECUTADO", "MONTO": 279274406.0 }, "geometry": { "type": "MultiPoint", "coordinates": [ [ -71.185751696621821, -33.010612247025982 ] ] } },
{ "type": "Feature", "properties": { "OBJECTID": 42, "ID": 52, "OBJECTID_1": 52, "ID_2": 52.0, "PROY": "HABILITACIÓN DE FUENTE SSR LAS PALMAS PARA ABASTECIMIENTO DE AGUA POTABLE POR CAMIÓN ALJIBE, OLMUÉ", "FUENTE": "PMB", "ESTADO": "EN LICITACIÓN", "MONTO": 270000000.0 }, "geometry": { "type": "MultiPoint", "coordinates": [ [ -71.0850981484014, -33.032751220468768 ] ] } },
{ "type": "Feature", "properties": { "OBJECTID": 43, "ID": 53, "OBJECTID_1": 53, "ID_2": 53.0, "PROY": "FORMULACIÓN DE PROYECTOS DE MEJORAMIENTO DE ESPACIOS PÚBLICOS Y DE EDIFICACIÓN PÚBLICA EN LA COMUNA DE OLMUÉ", "FUENTE": "PMB", "ESTADO": "EN EJECUCIÓN", "MONTO": 46104000.0 }, "geometry": { "type": "MultiPoint", "coordinates": [ [ -71.185585507011055, -32.995011627394739 ] ] } },
{ "type": "Feature", "properties": { "OBJECTID": 44, "ID": 54, "OBJECTID_1": 54, "ID_2": 54.0, "PROY": "ASISTENCIA TÉCNICA “PREPARACIÓN Y EVALUACIÓN DE PROYECTOS DE SANEAMIENTO BÁSICO EN DIVERSOS SECTORES DE LA COMUNA DE OLMUÉ", "FUENTE": "PMB", "ESTADO": "EN EJECUCIÓN", "MONTO": 126815117.0 }, "geometry": { "type": "MultiPoint", "coordinates": [ [ -71.185568946549367, -32.994950031692547 ] ] } },
{ "type": "Feature", "properties": { "OBJECTID": 45, "ID": 56, "OBJECTID_1": 56, "ID_2": 56.0, "PROY": "CONSTRUCCIÓN Y HABILITACIÓN   DE NUEVA FUENTE   SSR QUEBRADA ALVARADO,   COMUNA DE OLMUÉ, PROVINCIA DE MARGA MARGA", "FUENTE": "PMB", "ESTADO": "POSTULADO", "MONTO": 324000000.0 }, "geometry": { "type": "MultiPoint", "coordinates": [ [ -71.116333299029208, -33.047220365387304 ] ] } },
{ "type": "Feature", "properties": { "OBJECTID": 46, "ID": 57, "OBJECTID_1": 57, "ID_2": 57.0, "PROY": "CONSTRUCCIÓN DE ESTANQUE DE ACUMULACION   SSR QUEBRADA ALVARADO,   COMUNA DE OLMUÉ", "FUENTE": "PMB", "ESTADO": "POSTULADO", "MONTO": 256309300.0 }, "geometry": { "type": "MultiPoint", "coordinates": [ [ -71.078813518049472, -33.06045387521187 ] ] } },
{ "type": "Feature", "properties": { "OBJECTID": 47, "ID": 58, "OBJECTID_1": 58, "ID_2": 58.0, "PROY": "HABILITACION DE CAPTACION EXISTENTE SSR QUEBRADA ALVARADO, COMUNA DE OLMUE", "FUENTE": "PMB", "ESTADO": "POSTULADO", "MONTO": 195783000.0 }, "geometry": { "type": "MultiPoint", "coordinates": [ [ -71.113593464578628, -33.047752005970558 ] ] } },
{ "type": "Feature", "properties": { "OBJECTID": 48, "ID": 60, "OBJECTID_1": 60, "ID_2": 60.0, "PROY": "ESTUDIO PARA ALTERNATIVAS DE SOLUCION PLANTA DE VALORIZACION DE RESIDUOS SÓLIDOS Y EDUCACIÓN MEDIO AMBIENTAL, COMUNA DE OLMUE", "FUENTE": "PMB", "ESTADO": "POSTULADO", "MONTO": 78837105.0 }, "geometry": { "type": "MultiPoint", "coordinates": [ [ -71.185549752976854, -32.994896565563913 ] ] } },
{ "type": "Feature", "properties": { "OBJECTID": 49, "ID": 62, "OBJECTID_1": 62, "ID_2": 62.0, "PROY": "CONSTRUCCION SISTEMA FOTOVOLTAICO ONGRID  DE PROPIEDAD CONJUNTA PARA SERVICIO SANITARIO RURAL  LAS PALMAS – CAJON GRANDE – VILLA LA CAMPANA", "FUENTE": "PMB", "ESTADO": "POSTULADO", "MONTO": 259489504.0 }, "geometry": { "type": "MultiPoint", "coordinates": [ [ -71.13417703993413, -33.001871735711511 ] ] } },
{ "type": "Feature", "properties": { "OBJECTID": 50, "ID": 63, "OBJECTID_1": 63, "ID_2": 63.0, "PROY": "MEJORAMIENTO PLAZA LOS PENSAMIENTOS , OLMUE", "FUENTE": "PMU TRADICIONAL", "ESTADO": "EJECUTADO", "MONTO": 109965915.0 }, "geometry": { "type": "MultiPoint", "coordinates": [ [ -71.177608361981953, -32.999043683699625 ] ] } },
{ "type": "Feature", "properties": { "OBJECTID": 51, "ID": 64, "OBJECTID_1": 64, "ID_2": 64.0, "PROY": "MEJORAMIENTO CLUB DEPORTIVO QUEBRADA ALVARADO, OLMUÉ", "FUENTE": "PMU EMERGENCIA", "ESTADO": "EN LICITACIÓN", "MONTO": 168572490.0 }, "geometry": { "type": "MultiPoint", "coordinates": [ [ -71.10731526942584, -33.056590790528418 ] ] } },
{ "type": "Feature", "properties": { "OBJECTID": 52, "ID": 65, "OBJECTID_1": 65, "ID_2": 65.0, "PROY": "REPOSICIÓN SEDE SOCIAL JUNTA DE VECINOS LA AGUADA, OLMUE", "FUENTE": "PMU TRADICIONAL", "ESTADO": "EN EJECUCIÓN", "MONTO": 109601356.0 }, "geometry": { "type": "MultiPoint", "coordinates": [ [ -71.161933136798453, -33.005852964154911 ] ] } },
{ "type": "Feature", "properties": { "OBJECTID": 53, "ID": 66, "OBJECTID_1": 66, "ID_2": 66.0, "PROY": "REPOSICION BAÑOS, CAMARINES Y SALA REUNIONES CLUB DEPORTIVO EL VENADO, OLMUÉ", "FUENTE": "PMU EMERGENCIA", "ESTADO": "EN EJECUCIÓN", "MONTO": 110750000.0 }, "geometry": { "type": "MultiPoint", "coordinates": [ [ -71.086938171689539, -33.055828325517361 ] ] } },
{ "type": "Feature", "properties": { "OBJECTID": 54, "ID": 67, "OBJECTID_1": 67, "ID_2": 67.0, "PROY": "CONSTRUCCION DIVERSOS MUROS DE CONTENCION EN SECTOR SANTA REGINA-LAS ROSAS, OLMUE", "FUENTE": "PMU EMERGENCIA", "ESTADO": "REEVALUACIÓN", "MONTO": 98594386.0 }, "geometry": { "type": "MultiPoint", "coordinates": [ [ -71.169507347133134, -33.001658209401171 ], [ -71.164211862481238, -32.99835354570326 ], [ -71.16382203726414, -32.999782330981311 ] ] } },
{ "type": "Feature", "properties": { "OBJECTID": 55, "ID": 68, "OBJECTID_1": 68, "ID_2": 68.0, "PROY": "MEJORAMIENTO PLAZA ALBERTO ARCADIO ERBETTA DEVON, OLMUE", "FUENTE": "PMU EMERGENCIA", "ESTADO": "ELEGIBLE", "MONTO": 120922190.0 }, "geometry": { "type": "MultiPoint", "coordinates": [ [ -71.173003257926752, -32.991271980709207 ] ] } },
{ "type": "Feature", "properties": { "OBJECTID": 56, "ID": 69, "OBJECTID_1": 69, "ID_2": 69.0, "PROY": "MEJORAMIENTO PLAZA Y MULTICANCHA VILLA UNIÓN, OLMUÉ", "FUENTE": "PMU EMERGENCIA", "ESTADO": "ELEGIBLE", "MONTO": 161663220.0 }, "geometry": { "type": "MultiPoint", "coordinates": [ [ -71.175096308320448, -33.002223979329798 ] ] } },
{ "type": "Feature", "properties": { "OBJECTID": 57, "ID": 70, "OBJECTID_1": 70, "ID_2": 70.0, "PROY": "REPOSICIÓN DE MULTICANCHA Y  PLAZA LAS CRUCES, COMUNA DE OLMUÉ", "FUENTE": "PMU EMERGENCIA", "ESTADO": "ELEGIBLE", "MONTO": 161664000.0 }, "geometry": { "type": "MultiPoint", "coordinates": [ [ -71.200151474495613, -33.007146202105744 ] ] } },
{ "type": "Feature", "properties": { "OBJECTID": 58, "ID": 71, "OBJECTID_1": 71, "ID_2": 71.0, "PROY": "REPOSICIÓN SEDE JUNTA DE VECINOS SANTA REGINA, OLMUÉ", "FUENTE": "PMU EMERGENCIA", "ESTADO": "ELEGIBLE", "MONTO": 173000000.0 }, "geometry": { "type": "MultiPoint", "coordinates": [ [ -71.161368158365335, -32.996353458890695 ] ] } },
{ "type": "Feature", "properties": { "OBJECTID": 60, "ID": 72, "OBJECTID_1": 72, "ID_2": 72.0, "PROY": "CONSTRUCCION ESPACIO PUBLICO PASAJE 21 DE MAYO, POBLACION CARLOS CONDELL, OLMUE", "FUENTE": "PMU EMERGENCIA", "ESTADO": "EN FORMULACIÓN", "MONTO": 150000000.0 }, "geometry": { "type": "MultiPoint", "coordinates": [ [ -71.200192322687244, -33.005742101780655 ], [ -71.170919099439431, -33.002611207664017 ], [ -71.168078221138117, -32.983192149782226 ] ] } },
{ "type": "Feature", "properties": { "OBJECTID": 61, "ID": 73, "OBJECTID_1": 73, "ID_2": 73.0, "PROY": "CONSTRUCCION SOBRECUBIERTA EN TECHUMBRE CESFAM MANUEL LUCERO, OLMUÉ", "FUENTE": "PMU EMERGENCIA", "ESTADO": "POSTULADO", "MONTO": 173000000.0 }, "geometry": { "type": "MultiPoint", "coordinates": [ [ -71.180796529445516, -32.994377611446644 ] ] } },
{ "type": "Feature", "properties": { "OBJECTID": 62, "ID": 76, "OBJECTID_1": 76, "ID_2": 76.0, "PROY": "MEJORAMIENTO ESPACIO PUBLICO SEDE JJVV LO CASTRO, OLMUE", "FUENTE": "PMU EMERGENCIA", "ESTADO": "EN FORMULACIÓN", "MONTO": 100000000.0 }, "geometry": { "type": "MultiPoint", "coordinates": [ [ -71.117371388700406, -33.06236648913395 ] ] } },
{ "type": "Feature", "properties": { "OBJECTID": 63, "ID": 78, "OBJECTID_1": 78, "ID_2": 78.0, "PROY": "MEJORAMIENTO PLAZA LOS PERALES P36, OLMUÉ", "FUENTE": "PMU EMERGENCIA", "ESTADO": "EN FORMULACIÓN", "MONTO": 100000000.0 }, "geometry": { "type": "MultiPoint", "coordinates": [ [ -71.15631194212402, -32.9912455018085 ] ] } },
{ "type": "Feature", "properties": { "OBJECTID": 64, "ID": 79, "OBJECTID_1": 79, "ID_2": 79.0, "PROY": "MEJORAMIENTO PLAZA QUEBRADA ALVARADO, OLMUÉ", "FUENTE": "PMU EMERGENCIA", "ESTADO": "POSTULADO", "MONTO": 173000000.0 }, "geometry": { "type": "MultiPoint", "coordinates": [ [ -71.099837989134429, -33.049416783352228 ] ] } },
{ "type": "Feature", "properties": { "OBJECTID": 65, "ID": 80, "OBJECTID_1": 80, "ID_2": 80.0, "PROY": "MEJORAMIENTO PLAZA SEGURA, OLMUÉ", "FUENTE": "PMU EMERGENCIA", "ESTADO": "EN FORMULACIÓN", "MONTO": 100000000.0 }, "geometry": { "type": "MultiPoint", "coordinates": [ [ -71.165732559849971, -32.997742238722807 ] ] } },
{ "type": "Feature", "properties": { "OBJECTID": 66, "ID": 77, "OBJECTID_1": 77, "ID_2": 77.0, "PROY": "MEJORAMIENTO PLAZA LAS LILAS, OLMUÉ", "FUENTE": "PMU EMERGENCIA", "ESTADO": "POSTULADO", "MONTO": 173000000.0 }, "geometry": { "type": "MultiPoint", "coordinates": [ [ -71.162896047401418, -32.997533752632435 ] ] } },
{ "type": "Feature", "properties": { "OBJECTID": 67, "ID": 81, "OBJECTID_1": 81, "ID_2": 81.0, "PROY": "MEJORAMIENTO PLAZUELA LAS LILAS, OLMUÉ", "FUENTE": "PMU EMERGENCIA", "ESTADO": "EN FORMULACIÓN", "MONTO": 173000000.0 }, "geometry": { "type": "MultiPoint", "coordinates": [ [ -71.163196025907141, -32.995625327461497 ] ] } },
{ "type": "Feature", "properties": { "OBJECTID": 68, "ID": 82, "OBJECTID_1": 82, "ID_2": 82.0, "PROY": "NORMALIZACIÓN ELÉCTRICA BODEGA MUNICIPAL OLMUÉ", "FUENTE": "PMU EMERGENCIA", "ESTADO": "EN FORMULACIÓN", "MONTO": 150000000.0 }, "geometry": { "type": "MultiPoint", "coordinates": [ [ -71.183694240855729, -32.995572003762938 ] ] } },
{ "type": "Feature", "properties": { "OBJECTID": 69, "ID": 83, "OBJECTID_1": 83, "ID_2": 83.0, "PROY": "CONSTRUCCION CESFAM VILLA OLIMPICA, OLMUE", "FUENTE": "MINISTERIO DE SALUD", "ESTADO": "EN EJECUCIÓN", "MONTO": 9880667000.0 }, "geometry": { "type": "MultiPoint", "coordinates": [ [ -71.16581641786459, -32.998578251778326 ] ] } },
{ "type": "Feature", "properties": { "OBJECTID": 70, "ID": 89, "OBJECTID_1": 89, "ID_2": 89.0, "PROY": "REPOSICIÓN ILUMINACIÓN PÚBLICA EN DIVERSOS SECTORES DE LA COMUNA DE OLMUÉ", "FUENTE": "SPD (SIEVAP)", "ESTADO": "POSTULADO", "MONTO": 21000000.0 }, "geometry": { "type": "MultiPoint", "coordinates": [ [ -71.185681633141883, -32.995234417697972 ] ] } },
{ "type": "Feature", "properties": { "OBJECTID": 71, "ID": 90, "OBJECTID_1": 90, "ID_2": 90.0, "PROY": "PATRULLANDO EN LOS SECTORES RURALES DE LA COMUNA DE OLMUÉ", "FUENTE": "SPD (SIEVAP)", "ESTADO": "POSTULADO", "MONTO": 30000000.0 }, "geometry": { "type": "MultiPoint", "coordinates": [ [ -71.18567173168735, -32.995177328756348 ] ] } },
{ "type": "Feature", "properties": { "OBJECTID": 72, "ID": 91, "OBJECTID_1": 91, "ID_2": 91.0, "PROY": "CENTRO COMUNITARIO DE CUIDADOS VILLA OLIMPICA", "FUENTE": "CAP. I D.S.N° 27 MINVU", "ESTADO": "EJECUTADO", "MONTO": 307352000.0 }, "geometry": { "type": "MultiPoint", "coordinates": [ [ -71.165994097168195, -32.997510777908701 ] ] } },
{ "type": "Feature", "properties": { "OBJECTID": 73, "ID": 92, "OBJECTID_1": 92, "ID_2": 92.0, "PROY": "MEJORAMIENTO DE ÁREAS VERDES DE LA PLAZA LAS LILAS", "FUENTE": "CAP. I D.S.N° 27 MINVU", "ESTADO": "EJECUTADO", "MONTO": 145921213.0 }, "geometry": { "type": "MultiPoint", "coordinates": [ [ -71.161848670496568, -32.994193418586448 ] ] } },
{ "type": "Feature", "properties": { "OBJECTID": 74, "ID": 93, "OBJECTID_1": 93, "ID_2": 93.0, "PROY": "CENTRO COMUNITARIO CON SALAS DE USO MULTIPLE DEL CLUB DE CUECA RAMÓN ANGEL JARA", "FUENTE": "CAP. I D.S.N° 27 MINVU", "ESTADO": "FINANCIADO", "MONTO": 328598697.31099999 }, "geometry": { "type": "MultiPoint", "coordinates": [ [ -71.17155302966529, -33.001243309243634 ] ] } },
{ "type": "Feature", "properties": { "OBJECTID": 75, "ID": 94, "OBJECTID_1": 94, "ID_2": 94.0, "PROY": "DISEÑO ENERGÉTICO INTEGRAL EDIFICIO CONSISTORIAL DE LA I. MUNICIPALIDAD DE OLMUÉ", "FUENTE": "ACELERADORA DE ENERGÍA MUNICIPAL", "ESTADO": "EN EJECUCIÓN", "MONTO": 6500000.0 }, "geometry": { "type": "MultiPoint", "coordinates": [ [ -71.18566048902747, -32.99512330497199 ] ] } },
{ "type": "Feature", "properties": { "OBJECTID": 76, "ID": 104, "OBJECTID_1": 104, "ID_2": 104.0, "PROY": "CONSTRUCCIÓN SEDE CLUB DE ADULTO MAYOR VINCULOS DE AMOR", "FUENTE": null, "ESTADO": null, "MONTO": 0.0 }, "geometry": { "type": "MultiPoint", "coordinates": [ [ -71.168866119539544, -33.000221301335557 ] ] } },
{ "type": "Feature", "properties": { "OBJECTID": 77, "ID": 105, "OBJECTID_1": 105, "ID_2": 105.0, "PROY": "CONSTRUCCIÓN SEDE UNCO DE ADULTO MAYOR", "FUENTE": null, "ESTADO": null, "MONTO": 0.0 }, "geometry": { "type": "MultiPoint", "coordinates": [ [ -71.169066633050917, -33.000199921263906 ] ] } }
]
}
