{
"type": "FeatureCollection",
"name": "ptoslineas_proyectos",
"crs": { "type": "name", "properties": { "name": "urn:ogc:def:crs:OGC:1.3:CRS84" } },
"features": [
{ "type": "Feature", "properties": { "OBJECTID": 1, "ID": 3, "SHAPE_Leng": 284.82984738900001, "OBJECTID_1": 3, "ID_2": 3.0, "PROY": "MEJORAMIENTO PAVIMENTO CALLE PABLO NERUDA, OLMUÉ", "FUENTE": "F.N.D.R. TRADICIONAL", "ESTADO": "EN EJECUCIÓN", "MONTO": 927829000.0, "ORIG_FID": 0 }, "geometry": { "type": "Point", "coordinates": [ -71.167200969491773, -33.002793770429797 ] } },
{ "type": "Feature", "properties": { "OBJECTID": 2, "ID": 4, "SHAPE_Leng": 673.38621205200002, "OBJECTID_1": 4, "ID_2": 4.0, "PROY": "MEJORAMIENTO PAVIMENTO CALLE PROGRESO, OLMUÉ", "FUENTE": "F.N.D.R. TRADICIONAL", "ESTADO": "REEVALUACIÓN", "MONTO": 1178521000.0, "ORIG_FID": 1 }, "geometry": { "type": "Point", "coordinates": [ -71.167682406943086, -33.001034298940468 ] } },
{ "type": "Feature", "properties": { "OBJECTID": 3, "ID": 5, "SHAPE_Leng": 461.54875687999998, "OBJECTID_1": 5, "ID_2": 5.0, "PROY": "MEJORAMIENTO PAVIMENTACIÓN MARIANA DE OSORIO ETAPA II ENTRE LO GUALA Y FONDO ORIENTE, OLMUÉ", "FUENTE": "F.N.D.R. TRADICIONAL", "ESTADO": "EN LICITACIÓN", "MONTO": 647586000.0, "ORIG_FID": 2 }, "geometry": { "type": "Point", "coordinates": [ -71.161081240654539, -32.986651436157551 ] } },
{ "type": "Feature", "properties": { "OBJECTID": 4, "ID": 8, "SHAPE_Leng": 319.992811184, "OBJECTID_1": 8, "ID_2": 8.0, "PROY": "MEJORAMIENTO PAVIMENTO CALLE SERAFÍN PINTO, OLMUÉ", "FUENTE": "F.N.D.R. TRADICIONAL", "ESTADO": "REEVALUACIÓN APROBADA TECNICAMENTE", "MONTO": 1690163000.0000002, "ORIG_FID": 3 }, "geometry": { "type": "Point", "coordinates": [ -71.166629743289008, -33.002479999706203 ] } },
{ "type": "Feature", "properties": { "OBJECTID": 5, "ID": 9, "SHAPE_Leng": 126.918196635, "OBJECTID_1": 9, "ID_2": 9.0, "PROY": "MEJORAMIENTO PAVIMENTO CALLE LAUTARO, COMUNA DE OLMUÉ.", "FUENTE": "F.N.D.R. TRADICIONAL", "ESTADO": "RECOMENDADO SATISFACTORIAMENTE (RS)", "MONTO": 305190000.0, "ORIG_FID": 4 }, "geometry": { "type": "Point", "coordinates": [ -71.164491899264021, -33.003113906502321 ] } },
{ "type": "Feature", "properties": { "OBJECTID": 6, "ID": 18, "SHAPE_Leng": 1623.9789046000001, "OBJECTID_1": 18, "ID_2": 18.0, "PROY": "MEJORAMIENTO PAVIMENTACION MARIANA DE OSORIO ETAPA I ENTRE AV GRANIZO Y LO GUALA", "FUENTE": "F.N.D.R. TRADICIONAL", "ESTADO": "DISEÑO EN EJECUCIÓN", "MONTO": 1793296000.0, "ORIG_FID": 5 }, "geometry": { "type": "Point", "coordinates": [ -71.170359567320006, -32.990579054882531 ] } },
{ "type": "Feature", "properties": { "OBJECTID": 7, "ID": 19, "SHAPE_Leng": 1066.65354202, "OBJECTID_1": 19, "ID_2": 19.0, "PROY": "REPOSICION  PAVIMENTOS CIRCUITO CALLES LAUTARO, LINCOLN Y BALMACEDA, OLMUÉ", "FUENTE": "F.N.D.R. TRADICIONAL", "ESTADO": "DISEÑO EN EJECUCIÓN", "MONTO": 1111567000.0, "ORIG_FID": 6 }, "geometry": { "type": "Point", "coordinates": [ -71.170119808578562, -33.004433992286259 ] } },
{ "type": "Feature", "properties": { "OBJECTID": 8, "ID": 20, "SHAPE_Leng": 1053.7849039499999, "OBJECTID_1": 20, "ID_2": 20.0, "PROY": "MEJORAMIENTO PAVIMENTACION CIRCUITO CALLES POTALES- PRIETO-21 DE MAYO", "FUENTE": "F.N.D.R. TRADICIONAL", "ESTADO": "DISEÑO EN EJECUCIÓN", "MONTO": 1232808000.0, "ORIG_FID": 7 }, "geometry": { "type": "Point", "coordinates": [ -71.189946070579651, -32.992407538073607 ] } },
{ "type": "Feature", "properties": { "OBJECTID": 9, "ID": 21, "SHAPE_Leng": 130.37851171899999, "OBJECTID_1": 21, "ID_2": 21.0, "PROY": "MEJORAMIENTO PAVIMENTO CALLE GUACOLDA, OLMUÉ", "FUENTE": "F.N.D.R. TRADICIONAL", "ESTADO": "DISEÑO EN EJECUCIÓN", "MONTO": 0.0, "ORIG_FID": 8 }, "geometry": { "type": "Point", "coordinates": [ -71.184373407213741, -32.988456532379438 ] } },
{ "type": "Feature", "properties": { "OBJECTID": 10, "ID": 84, "SHAPE_Leng": 671.73332035700003, "OBJECTID_1": 84, "ID_2": 84.0, "PROY": "CONSTRUCCIÓN PAVIMENTACIÓN CALLE LA GRUTA Y OTRAS VIAS", "FUENTE": "SERVIU PAVIPART", "ESTADO": "EJECUTADO", "MONTO": 430820000.0, "ORIG_FID": 9 }, "geometry": { "type": "Point", "coordinates": [ -71.185701215257538, -32.990947857512374 ] } },
{ "type": "Feature", "properties": { "OBJECTID": 12, "ID": 85, "SHAPE_Leng": 351.40427400900001, "OBJECTID_1": 85, "ID_2": 85.0, "PROY": "PAVIMENTACIÓN CALLE PAGLIATINI", "FUENTE": "SERVIU PAVIPART", "ESTADO": "EJECUTADO", "MONTO": 208428000.0, "ORIG_FID": 10 }, "geometry": { "type": "Point", "coordinates": [ -71.171100222185487, -32.992269944632383 ] } },
{ "type": "Feature", "properties": { "OBJECTID": 13, "ID": 86, "SHAPE_Leng": 405.06217084999997, "OBJECTID_1": 86, "ID_2": 86.0, "PROY": "PAVIMENTACIÓN CALLE PORTALES", "FUENTE": "SERVIU PAVIPART", "ESTADO": "EN EJECUCIÓN", "MONTO": 386205000.0, "ORIG_FID": 11 }, "geometry": { "type": "Point", "coordinates": [ -71.185325363306077, -32.999770632767245 ] } },
{ "type": "Feature", "properties": { "OBJECTID": 14, "ID": 87, "SHAPE_Leng": 2196.8957260500001, "OBJECTID_1": 87, "ID_2": 87.0, "PROY": "CONSTRUCCION PAVIMENTOS PARTICIPATIVOS BARRIO LAS ROSAS SANTA REGINA, OLMUÉ (ETAPA DE DISEÑO)", "FUENTE": "MINVU- QMB", "ESTADO": "EN EJECUCIÓN", "MONTO": 24449000.0, "ORIG_FID": 12 }, "geometry": { "type": "Point", "coordinates": [ -71.164276524476364, -32.997460316091555 ] } },
{ "type": "Feature", "properties": { "OBJECTID": 21, "ID": 88, "SHAPE_Leng": 269.25989960499999, "OBJECTID_1": 88, "ID_2": 88.0, "PROY": "MEJORAMIENTO BARRIO LAS ROSAS SANTA REGINA, OLMUÉ", "FUENTE": "MINVU- QMB", "ESTADO": "EJECUTADO", "MONTO": 435009000.0, "ORIG_FID": 13 }, "geometry": { "type": "Point", "coordinates": [ -71.162452291014461, -32.997043692330152 ] } },
{ "type": "Feature", "properties": { "OBJECTID": 25, "ID": 95, "SHAPE_Leng": 707.85677854300002, "OBJECTID_1": 95, "ID_2": 95.0, "PROY": "PAVIMENTACIÓN CALLE SANTA FILOMENA", "FUENTE": "SERVIU PAVIPART", "ESTADO": "POSTULADO", "MONTO": 626324000.0, "ORIG_FID": 14 }, "geometry": { "type": "Point", "coordinates": [ -71.174465820631056, -32.98719677695712 ] } },
{ "type": "Feature", "properties": { "OBJECTID": 26, "ID": 96, "SHAPE_Leng": 783.06548102199997, "OBJECTID_1": 96, "ID_2": 96.0, "PROY": "PAVIMENTACIÓN CALLE PEDRO AGUIRRE CERDA", "FUENTE": "SERVIU PAVIPART", "ESTADO": "POSTULADO", "MONTO": 733480000.0, "ORIG_FID": 15 }, "geometry": { "type": "Point", "coordinates": [ -71.174038480852786, -32.990711858084993 ] } },
{ "type": "Feature", "properties": { "OBJECTID": 28, "ID": 97, "SHAPE_Leng": 196.20596553300001, "OBJECTID_1": 97, "ID_2": 97.0, "PROY": "PAVIMENTACIÓN CALLE ATHUEL", "FUENTE": "SERVIU PAVIPART", "ESTADO": "DISEÑO EN EJECUCIÓN", "MONTO": 184081000.0, "ORIG_FID": 16 }, "geometry": { "type": "Point", "coordinates": [ -71.176036694142994, -32.993569716885069 ] } },
{ "type": "Feature", "properties": { "OBJECTID": 29, "ID": 98, "SHAPE_Leng": 322.52498399000001, "OBJECTID_1": 98, "ID_2": 98.0, "PROY": "PAVIMENTACIÓN CIRCUITO PLAZA LOS PERALES", "FUENTE": "SERVIU PAVIPART", "ESTADO": "POSTULADO", "MONTO": 220412000.0, "ORIG_FID": 17 }, "geometry": { "type": "Point", "coordinates": [ -71.156235142561343, -32.991492519362538 ] } },
{ "type": "Feature", "properties": { "OBJECTID": 32, "ID": 99, "SHAPE_Leng": 600.25688635500001, "OBJECTID_1": 99, "ID_2": 99.0, "PROY": "PAVIMENTACIÓN VIÑA AURORA", "FUENTE": "SERVIU PAVIPART", "ESTADO": "INGENIERÍA APROBADA", "MONTO": 0.0, "ORIG_FID": 18 }, "geometry": { "type": "Point", "coordinates": [ -71.179954507081987, -32.988504649360458 ] } },
{ "type": "Feature", "properties": { "OBJECTID": 34, "ID": 100, "SHAPE_Leng": 217.13474079400001, "OBJECTID_1": 100, "ID_2": 100.0, "PROY": "PAVIMENTACIÓN CALLE LA GRUTA TRAMO 2", "FUENTE": "SERVIU PAVIPART", "ESTADO": "DISEÑO EN EJECUCIÓN", "MONTO": 0.0, "ORIG_FID": 19 }, "geometry": { "type": "Point", "coordinates": [ -71.185310318191924, -32.988148585880886 ] } },
{ "type": "Feature", "properties": { "OBJECTID": 35, "ID": 101, "SHAPE_Leng": 657.22595255500005, "OBJECTID_1": 101, "ID_2": 101.0, "PROY": "PAVIMENTACIÓN CALLE CANCHITA", "FUENTE": null, "ESTADO": null, "MONTO": 0.0, "ORIG_FID": 20 }, "geometry": { "type": "Point", "coordinates": [ -71.15833215452264, -32.989716498596721 ] } },
{ "type": "Feature", "properties": { "OBJECTID": 36, "ID": 102, "SHAPE_Leng": 422.33451307899998, "OBJECTID_1": 102, "ID_2": 102.0, "PROY": "PAVIMENTACIÓN CALLE EL PILÓN", "FUENTE": null, "ESTADO": null, "MONTO": 0.0, "ORIG_FID": 21 }, "geometry": { "type": "Point", "coordinates": [ -71.166217370153163, -33.001475056747076 ] } }
]
}
