{
"type": "FeatureCollection",
"name": "reservabiosfera",
"crs": { "type": "name", "properties": { "name": "urn:ogc:def:crs:OGC:1.3:CRS84" } },
"features": [
{ "type": "Feature", "properties": { "objectid": 390, "st_area_sh": 108503722.54599999, "st_length_": 48751.7513932, "Nombre": "P.N.La Campana", "Tipo_Snasp": "Parque", "Region": "Región de Valparaíso", "Cod_Region": 5 }, "geometry": { "type": "MultiPolygon", "coordinates": [ [ [ [ -71.118154290716262, -32.951497773506311 ], [ -71.115637669430967, -32.950357022507227 ], [ -71.111426557821858, -32.948448000560198 ], [ -71.111541228666184, -32.943657637560207 ], [ -71.114207525447497, -32.937899856492024 ], [ -71.11664050010512, -32.934679961293163 ], [ -71.117792590355322, -32.929403124006107 ], [ -71.115119862534897, -32.926445532317224 ], [ -71.110451680922694, -32.924130334055945 ], [ -71.108345560077836, -32.922339772521156 ], [ -71.105204086850563, -32.919209532857252 ], [ -71.101461626325175, -32.915800684511652 ], [ -71.096680307292829, -32.912927684832326 ], [ -71.080268343071822, -32.928040680093424 ], [ -71.05394256508707, -32.925274921334953 ], [ -71.034417968949313, -32.936316531762856 ], [ -71.017516882835892, -32.946181182092303 ], [ -71.007218087073966, -32.951992469131625 ], [ -71.007649944960292, -32.952134338751158 ], [ -71.00819499057242, -32.95226375766304 ], [ -71.01038818062618, -32.953355184029334 ], [ -71.011559006139947, -32.954046238176133 ], [ -71.011783706233544, -32.954181815699521 ], [ -71.01178270191707, -32.95420315073126 ], [ -71.011912405169355, -32.954303673456089 ], [ -71.01213052151023, -32.95448785577458 ], [ -71.012383447568354, -32.954701018184856 ], [ -71.012933825580006, -32.955608515256827 ], [ -71.012963784394742, -32.956624113475755 ], [ -71.012861869627443, -32.9570170066334 ], [ -71.012591270114413, -32.958218474973158 ], [ -71.012410100582855, -32.958781991895478 ], [ -71.012191333861708, -32.960174975189275 ], [ -71.012123208325519, -32.960618830879305 ], [ -71.012113410400701, -32.961088224990505 ], [ -71.011809737613845, -32.961991725848343 ], [ -71.011735690383304, -32.963419224113025 ], [ -71.011821993329278, -32.964213774037184 ], [ -71.012323942265638, -32.965549155781702 ], [ -71.013114710345633, -32.966827351207392 ], [ -71.014022613348772, -32.968958500010494 ], [ -71.014290207098867, -32.969995526216863 ], [ -71.014453980754951, -32.970976525343502 ], [ -71.014523058505361, -32.971924871594261 ], [ -71.014509413096164, -32.972208028107516 ], [ -71.014430348774781, -32.972777459163417 ], [ -71.014345725678368, -32.973173420823514 ], [ -71.014278752680681, -32.973275831636535 ], [ -71.014249773927929, -32.973465897085013 ], [ -71.014084839648504, -32.973691342102612 ], [ -71.013964982830032, -32.973855168843897 ], [ -71.014328937962347, -32.973873488439025 ], [ -71.014420743089417, -32.973883035215735 ], [ -71.014545500217778, -32.973896009425268 ], [ -71.014855211479968, -32.973943042426122 ], [ -71.015962316795679, -32.974445479316373 ], [ -71.016461288715178, -32.974671560138361 ], [ -71.017226064940758, -32.975049436619294 ], [ -71.017383584525817, -32.975189976038145 ], [ -71.017873054964568, -32.975676359468721 ], [ -71.018337890903268, -32.976436300474532 ], [ -71.018732147108452, -32.976807149726945 ], [ -71.018717607875573, -32.976846407915041 ], [ -71.019328438014242, -32.977239768042864 ], [ -71.019789445333231, -32.977830665537283 ], [ -71.020359633891843, -32.978471824009482 ], [ -71.020601116311568, -32.978910177885297 ], [ -71.020798391737856, -32.979440300419846 ], [ -71.021234804980978, -32.979628350380025 ], [ -71.02153148348502, -32.979779638873417 ], [ -71.022105130557463, -32.980120110131104 ], [ -71.02215688519594, -32.980133725457591 ], [ -71.022190720241113, -32.980170909877096 ], [ -71.022235505749592, -32.980197490190321 ], [ -71.022223947126847, -32.980207425873637 ], [ -71.022600126533533, -32.980620837474724 ], [ -71.022811956464054, -32.98111169723208 ], [ -71.022896213946126, -32.981422517226115 ], [ -71.023087874003565, -32.981705580742116 ], [ -71.023316624600767, -32.982109719760182 ], [ -71.023546343581856, -32.982483247379925 ], [ -71.023671888532704, -32.982723098124772 ], [ -71.023770320531654, -32.982898973738735 ], [ -71.023847506475803, -32.983043303757512 ], [ -71.023878856780911, -32.983085405274664 ], [ -71.023901963246644, -32.98311617134955 ], [ -71.024398829515121, -32.983674568206737 ], [ -71.024466516673471, -32.983750514952092 ], [ -71.024528135712075, -32.983809592384254 ], [ -71.025316398390729, -32.984593616793305 ], [ -71.026127217766174, -32.98543954003118 ], [ -71.026184893200693, -32.985508152810674 ], [ -71.02643074682257, -32.985798297541386 ], [ -71.026851726110806, -32.986260494464069 ], [ -71.026996622569513, -32.986536119685454 ], [ -71.028252449370413, -32.986879443267512 ], [ -71.029484816667662, -32.9868571471225 ], [ -71.030579262924391, -32.986767399619062 ], [ -71.031967724180348, -32.986738463570411 ], [ -71.032712860538851, -32.986730102691716 ], [ -71.032881027854984, -32.986732231340184 ], [ -71.032881033244863, -32.986718702177257 ], [ -71.033325236678138, -32.986701700865297 ], [ -71.034350916899882, -32.98677376144942 ], [ -71.034695256419624, -32.986849054502088 ], [ -71.035158419695279, -32.987003194681613 ], [ -71.035818146931518, -32.987283727384607 ], [ -71.035817829826229, -32.987297592521521 ], [ -71.036535969115505, -32.987339811062569 ], [ -71.037216659437206, -32.987528645164403 ], [ -71.037807523620373, -32.987693535033941 ], [ -71.037807096920631, -32.987706993972388 ], [ -71.038186769875466, -32.987754056538016 ], [ -71.038383969843252, -32.987758615183516 ], [ -71.038604446058386, -32.987783916791969 ], [ -71.039677959772362, -32.987789247014632 ], [ -71.041102806390597, -32.987939841118788 ], [ -71.043215609802857, -32.988098480002606 ], [ -71.043813899460204, -32.988194948803049 ], [ -71.045005856044369, -32.988201651108611 ], [ -71.045267574812527, -32.988175286443315 ], [ -71.046112115147082, -32.987981638149932 ], [ -71.047076195194848, -32.987622570784239 ], [ -71.047679899896707, -32.987311091455759 ], [ -71.049216250797912, -32.986357843108934 ], [ -71.050219727360755, -32.985636156715415 ], [ -71.050829267518694, -32.985184647424703 ], [ -71.051024298055083, -32.985175109405056 ], [ -71.051245146172747, -32.98513584512434 ], [ -71.051838577740995, -32.984877655745905 ], [ -71.052724235762767, -32.984397109308595 ], [ -71.053150335448109, -32.984178123718685 ], [ -71.053563173304923, -32.983996896088776 ], [ -71.059839848620456, -32.985326275366432 ], [ -71.065327346772378, -32.989365673747713 ], [ -71.070904250651253, -32.992857839428069 ], [ -71.07850432314504, -32.995049031730453 ], [ -71.084181691012034, -32.997713723807706 ], [ -71.084643082809947, -33.003396156170894 ], [ -71.087621701357676, -33.007291568832166 ], [ -71.092990995591236, -33.010943959611474 ], [ -71.095782667541826, -33.01087005887279 ], [ -71.100465843832723, -33.007567495990806 ], [ -71.104348303201888, -33.005630911731807 ], [ -71.108600856789991, -33.004693460146932 ], [ -71.112560486831939, -33.006064817112566 ], [ -71.11761507786531, -33.007286709111035 ], [ -71.122123180592169, -33.008558245899629 ], [ -71.125265845883817, -32.999225654266134 ], [ -71.12380399047251, -32.994741781273696 ], [ -71.124415883318179, -32.991164941829382 ], [ -71.126035599674367, -32.986114579047253 ], [ -71.125681363415126, -32.982914839450103 ], [ -71.125368858392406, -32.978609817686504 ], [ -71.125199796354252, -32.975907416903837 ], [ -71.134131147844585, -32.978830058973365 ], [ -71.14260164652616, -32.981363106634745 ], [ -71.132978831218935, -32.962379080232672 ], [ -71.13221741738748, -32.961822830972537 ], [ -71.132060755693516, -32.961700747670584 ], [ -71.131855900282858, -32.961625908770699 ], [ -71.131465240932101, -32.961457528739786 ], [ -71.131215288297554, -32.961385843952762 ], [ -71.130124905120837, -32.961170349069157 ], [ -71.129649912829535, -32.961075389092187 ], [ -71.128973135569211, -32.960722778020184 ], [ -71.128634336858113, -32.960529301669865 ], [ -71.128301710471348, -32.960253268908147 ], [ -71.127684625363329, -32.959427544996586 ], [ -71.127578493005771, -32.959142314681813 ], [ -71.127359695741916, -32.958672738380109 ], [ -71.127174387671843, -32.957966199958356 ], [ -71.126873247235778, -32.956827763571404 ], [ -71.126841459451143, -32.95644657700894 ], [ -71.126838735759179, -32.956400259812142 ], [ -71.12638091566285, -32.955594048158986 ], [ -71.125557798351167, -32.955138293037976 ], [ -71.125146147168834, -32.954906432777584 ], [ -71.124107629123387, -32.954525993214212 ], [ -71.123319326918846, -32.954340344872612 ], [ -71.122318773473935, -32.953967207034225 ], [ -71.120993649733705, -32.953448291954004 ], [ -71.120199279409434, -32.953007936284898 ], [ -71.118154290716262, -32.951497773506311 ] ] ] ] } }
]
}
