{
"type": "FeatureCollection",
"name": "unidadesvecinales",
"crs": { "type": "name", "properties": { "name": "urn:ogc:def:crs:OGC:1.3:CRS84" } },
"features": [
{ "type": "Feature", "properties": { "t_reg_ca": "05", "t_prov_ca": "058", "t_com": "05803", "t_reg_nom": "VALPARAISO", "t_prov_nom": "MARGA MARGA", "t_com_nom": "OLMUE", "t_id_uv_ca": "58031104", "uv_carto": "4", "t_uv_nom": "4" }, "geometry": { "type": "MultiPolygon", "coordinates": [ [ [ [ -71.18124, -32.99519 ], [ -71.18141, -32.99523 ], [ -71.18221, -32.99523 ], [ -71.182218673999955, -32.995230935999977 ], [ -71.18397, -32.99542 ], [ -71.1845, -32.99546 ], [ -71.18582, -32.99537 ], [ -71.18643, -32.99535 ], [ -71.18654, -32.99497 ], [ -71.18708, -32.9937 ], [ -71.18744, -32.99318 ], [ -71.18756, -32.99302 ], [ -71.18771, -32.99283 ], [ -71.18763, -32.9926 ], [ -71.18748, -32.99243 ], [ -71.18735, -32.99234 ], [ -71.18714, -32.99227 ], [ -71.18684, -32.99219 ], [ -71.18649, -32.99208 ], [ -71.18641, -32.99201 ], [ -71.18629, -32.99188 ], [ -71.18615, -32.99168 ], [ -71.18599, -32.99136 ], [ -71.18582, -32.99107 ], [ -71.18561, -32.99068 ], [ -71.18559, -32.99053 ], [ -71.18558, -32.99035 ], [ -71.18558, -32.99006 ], [ -71.18562, -32.98976 ], [ -71.18563, -32.98933 ], [ -71.18552, -32.98884 ], [ -71.18537, -32.9884 ], [ -71.18533, -32.98818 ], [ -71.18527, -32.98761 ], [ -71.18521, -32.98737 ], [ -71.18519, -32.9872 ], [ -71.18527, -32.98718 ], [ -71.18538, -32.987 ], [ -71.18548, -32.98683 ], [ -71.1855, -32.98666 ], [ -71.18555, -32.98653 ], [ -71.18572, -32.98645 ], [ -71.18592, -32.98634 ], [ -71.18606, -32.98621 ], [ -71.1862, -32.98617 ], [ -71.18633, -32.98613 ], [ -71.18639, -32.9861 ], [ -71.18649, -32.98603 ], [ -71.18662, -32.98586 ], [ -71.18669, -32.98563 ], [ -71.18671, -32.98553 ], [ -71.186733966999952, -32.98541016399998 ], [ -71.186946592999959, -32.981273936999969 ], [ -71.187197502999936, -32.976392973999964 ], [ -71.187248284999953, -32.975405104999936 ], [ -71.187373387999969, -32.972971470999937 ], [ -71.187428707999985, -32.971138866999979 ], [ -71.186846775999982, -32.971211608999965 ], [ -71.18636586699995, -32.971211608999972 ], [ -71.185915013999988, -32.971181551999955 ], [ -71.185283819999952, -32.971181551999955 ], [ -71.184742797999945, -32.971181550999965 ], [ -71.184442228999956, -32.971241665999969 ], [ -71.183841090999977, -32.971361892999937 ], [ -71.183480408999969, -32.97136189299993 ], [ -71.183149783999966, -32.971361891999948 ], [ -71.18263881699994, -32.971211608999972 ], [ -71.182368304999954, -32.971121437999955 ], [ -71.181857338999976, -32.970971154999972 ], [ -71.181709507999983, -32.970913078999956 ], [ -71.181015746999947, -32.970640529999962 ], [ -71.180324439999936, -32.970430131999933 ], [ -71.179573018999974, -32.970279847999961 ], [ -71.179212335999978, -32.970069448999936 ], [ -71.178971880999939, -32.969738823999926 ], [ -71.178405942999973, -32.96953508699994 ], [ -71.178223947999982, -32.976315804999942 ], [ -71.178128675999972, -32.978810193999948 ], [ -71.17792732099997, -32.984082039999983 ], [ -71.177878168999939, -32.984149622999951 ], [ -71.177829047999978, -32.984928779999962 ], [ -71.177837115999978, -32.984931284999959 ], [ -71.177870950999989, -32.985347623999928 ], [ -71.177879596999958, -32.985324564999928 ], [ -71.177879890999975, -32.985323831999949 ], [ -71.177878801999967, -32.98535234299991 ], [ -71.177841831999956, -32.985548893999976 ], [ -71.177835667999943, -32.985581661999952 ], [ -71.17781, -32.98571 ], [ -71.17773, -32.98594 ], [ -71.17748, -32.98721 ], [ -71.17749, -32.98743 ], [ -71.17753, -32.98761 ], [ -71.1776, -32.98778 ], [ -71.1777, -32.98806 ], [ -71.17779, -32.98817 ], [ -71.17786, -32.98825 ], [ -71.1779, -32.98833 ], [ -71.17792, -32.98839 ], [ -71.17796, -32.98854 ], [ -71.17795, -32.98864 ], [ -71.17784, -32.98886 ], [ -71.177752750999957, -32.989028265999934 ], [ -71.1777, -32.98913 ], [ -71.177655284999958, -32.989230609999929 ], [ -71.17762, -32.98931 ], [ -71.17763, -32.98942 ], [ -71.177637266999966, -32.989427804999934 ], [ -71.17784015999996, -32.989645726999981 ], [ -71.1779, -32.98971 ], [ -71.17845, -32.99031 ], [ -71.1786, -32.99065 ], [ -71.17869, -32.99089 ], [ -71.1787, -32.99111 ], [ -71.1787, -32.99131 ], [ -71.178687113999956, -32.991408790999976 ], [ -71.178678460999947, -32.991475130999959 ], [ -71.17867, -32.99154 ], [ -71.17857, -32.99168 ], [ -71.17845, -32.9918 ], [ -71.178398866999942, -32.991830679999964 ], [ -71.17835, -32.99186 ], [ -71.178248782999958, -32.991885303999929 ], [ -71.17823, -32.99189 ], [ -71.1781, -32.9919 ], [ -71.178, -32.99191 ], [ -71.17794, -32.99193 ], [ -71.17791, -32.99197 ], [ -71.1779, -32.99205 ], [ -71.17791, -32.99243 ], [ -71.17794, -32.99268 ], [ -71.17828, -32.99274 ], [ -71.17866, -32.9928 ], [ -71.17891, -32.99293 ], [ -71.17918, -32.99313 ], [ -71.17949, -32.99346 ], [ -71.18018, -32.99367 ], [ -71.18058, -32.99372 ], [ -71.180679374999954, -32.993722838999936 ], [ -71.180855172999941, -32.993727861999965 ], [ -71.18093, -32.99373 ], [ -71.181080693999945, -32.994261395999963 ], [ -71.18112, -32.9944 ], [ -71.181127325999967, -32.994448230999978 ], [ -71.18124, -32.99519 ] ] ] ] } },
{ "type": "Feature", "properties": { "t_reg_ca": "05", "t_prov_ca": "058", "t_com": "05803", "t_reg_nom": "VALPARAISO", "t_prov_nom": "MARGA MARGA", "t_com_nom": "OLMUE", "t_id_uv_ca": "58031101", "uv_carto": "1", "t_uv_nom": "1" }, "geometry": { "type": "MultiPolygon", "coordinates": [ [ [ [ -71.19931269999995, -32.970662914999927 ], [ -71.199135412, -32.972848771999956 ], [ -71.198577587999978, -32.978156078999966 ], [ -71.198194749999971, -32.981798513999934 ], [ -71.198274194999954, -32.981966229999955 ], [ -71.198297037999964, -32.982171814999951 ], [ -71.198285616999968, -32.982360268999962 ], [ -71.198279905999982, -32.982497325999923 ], [ -71.198125716999982, -32.982565853999972 ], [ -71.198112709999975, -32.982579070999968 ], [ -71.1981, -32.9827 ], [ -71.19814, -32.98289 ], [ -71.19832, -32.98325 ], [ -71.198388394999938, -32.983429535999967 ], [ -71.1984, -32.98346 ], [ -71.198460815999965, -32.983698193999942 ], [ -71.19852, -32.98393 ], [ -71.19859, -32.98414 ], [ -71.19869, -32.98422 ], [ -71.198706340999934, -32.984225941999952 ], [ -71.1988, -32.98426 ], [ -71.19892, -32.98436 ], [ -71.198944958999959, -32.984384958999954 ], [ -71.19903, -32.98447 ], [ -71.19901, -32.98461 ], [ -71.19892, -32.98474 ], [ -71.19881, -32.98483 ], [ -71.19877, -32.98495 ], [ -71.19879, -32.98508 ], [ -71.19888, -32.98523 ], [ -71.19906, -32.98539 ], [ -71.19919, -32.98578 ], [ -71.19957, -32.98601 ], [ -71.19959, -32.98616 ], [ -71.19934, -32.98646 ], [ -71.19928, -32.98677 ], [ -71.19925, -32.98698 ], [ -71.19939, -32.98705 ], [ -71.19955, -32.98742 ], [ -71.19966, -32.98772 ], [ -71.19968, -32.98788 ], [ -71.19957, -32.98848 ], [ -71.19959, -32.98906 ], [ -71.19961, -32.98924 ], [ -71.19961, -32.98933 ], [ -71.19915, -32.98982 ], [ -71.19906, -32.99007 ], [ -71.19901, -32.99052 ], [ -71.19903, -32.9913 ], [ -71.19909, -32.99174 ], [ -71.19911, -32.99195 ], [ -71.199039846999952, -32.992199432999946 ], [ -71.201744795999957, -32.995048646999976 ], [ -71.201460560999976, -32.995408162999972 ], [ -71.20113, -32.99613 ], [ -71.20034, -32.99704 ], [ -71.2, -32.99773 ], [ -71.19979, -32.99788 ], [ -71.19952, -32.99799 ], [ -71.1992, -32.9981 ], [ -71.19903, -32.99815 ], [ -71.19886, -32.99829 ], [ -71.19866, -32.99848 ], [ -71.19777, -33.00002 ], [ -71.19764, -33.00038 ], [ -71.19968, -33.00059 ], [ -71.19996, -33.00062 ], [ -71.19983, -33.00087 ], [ -71.19964, -33.00128 ], [ -71.1995, -33.00166 ], [ -71.19943, -33.00198 ], [ -71.19938, -33.00279 ], [ -71.1993, -33.00325 ], [ -71.19928, -33.00346 ], [ -71.1993, -33.00363 ], [ -71.199328664999939, -33.003763769999978 ], [ -71.19936, -33.00391 ], [ -71.19952, -33.00427 ], [ -71.199736836999989, -33.004868657999957 ], [ -71.199806067999987, -33.005057009999959 ], [ -71.200439184999937, -33.006779468999973 ], [ -71.200907332999975, -33.006734936999976 ], [ -71.201365501999987, -33.00665527599994 ], [ -71.201632318999941, -33.006567060999934 ], [ -71.201990531999968, -33.006453372999935 ], [ -71.202369229999988, -33.006309498999933 ], [ -71.202978026999972, -33.006024369999984 ], [ -71.203446633999988, -33.005795397999975 ], [ -71.203873672999975, -33.005602946999936 ], [ -71.204372358999947, -33.005445016999928 ], [ -71.204794098999969, -33.005324233999936 ], [ -71.205061501999978, -33.005259860999956 ], [ -71.205244980999964, -33.005160067999938 ], [ -71.205713034999974, -33.004985892999976 ], [ -71.206176185999936, -33.00482261999997 ], [ -71.20654101599996, -33.00469090799993 ], [ -71.206922984999949, -33.004539031999968 ], [ -71.207259058999966, -33.004425425999948 ], [ -71.207662253999956, -33.004269131999934 ], [ -71.207751550999944, -33.004242684999944 ], [ -71.208142560999988, -33.004272345999937 ], [ -71.208736807999969, -33.004235168999969 ], [ -71.209136301999933, -33.00407477299995 ], [ -71.209446391999961, -33.003975003999976 ], [ -71.209705903999975, -33.003857804999939 ], [ -71.209952624999971, -33.003655179999953 ], [ -71.21016272199995, -33.003516123999916 ], [ -71.210450464999951, -33.003479692999974 ], [ -71.210792921999939, -33.003452507999953 ], [ -71.211026720999939, -33.003460294999968 ], [ -71.211387585999944, -33.003453899999947 ], [ -71.211779719999981, -33.003434775999942 ], [ -71.212024456999984, -33.003394550999928 ], [ -71.212303907999967, -33.003312901999955 ], [ -71.21259607099995, -33.003226406999943 ], [ -71.212947977999988, -33.003162361999948 ], [ -71.21324240499996, -33.003136258 ], [ -71.213682321999954, -33.00304619099996 ], [ -71.213994206999985, -33.002932613999967 ], [ -71.214208799999938, -33.002787307999938 ], [ -71.214413761999936, -33.002669958999938 ], [ -71.214729358999989, -33.002455374999947 ], [ -71.215048445999969, -33.002234581999971 ], [ -71.21546435099998, -33.001947529999931 ], [ -71.215871048999986, -33.001875768999973 ], [ -71.216287550999937, -33.001810152999944 ], [ -71.216845033999974, -33.001740601999977 ], [ -71.217535908999935, -33.001626923999936 ], [ -71.217775135999943, -33.001568988999963 ], [ -71.21815404299997, -33.001491869999946 ], [ -71.218503260999967, -33.001416469999988 ], [ -71.218874519999986, -33.001364477999971 ], [ -71.219185792999951, -33.001325352999977 ], [ -71.21921628299998, -33.001321520999966 ], [ -71.21953786499995, -33.001346532999953 ], [ -71.219904118999978, -33.00140762999996 ], [ -71.220166370999948, -33.001393744 ], [ -71.220412270999987, -33.001309463999966 ], [ -71.220619540999962, -33.001083265999974 ], [ -71.220838653999976, -33.000859323999968 ], [ -71.221059724999975, -33.000803143999967 ], [ -71.221277997999948, -33.000780818999942 ], [ -71.221714566999935, -33.000591722999964 ], [ -71.222819497999978, -33.000003489999983 ], [ -71.222117839999953, -32.999181706999927 ], [ -71.221670976999974, -32.998704846999935 ], [ -71.221271743999978, -32.99832066499993 ], [ -71.220901547999972, -32.998010404999953 ], [ -71.220466478999981, -32.997642127999924 ], [ -71.220317082999941, -32.997465364999982 ], [ -71.221014464999939, -32.997300414999977 ], [ -71.220874925999965, -32.995893751999972 ], [ -71.220787573999985, -32.99490487199995 ], [ -71.22071142599998, -32.993873403999942 ], [ -71.220680133999963, -32.993505907999968 ], [ -71.220638242999939, -32.993449790999925 ], [ -71.22056970999995, -32.993407587999968 ], [ -71.220418385999949, -32.993390637999937 ], [ -71.220211014999961, -32.99338915799995 ], [ -71.220328049999978, -32.991531001999931 ], [ -71.220269670999983, -32.990527123999975 ], [ -71.21968037299996, -32.989392430999942 ], [ -71.219374420999941, -32.988543663999963 ], [ -71.219174576999933, -32.988038274999951 ], [ -71.219050654999933, -32.987445510999976 ], [ -71.219035847999976, -32.987112354999958 ], [ -71.219010298999933, -32.986537505999927 ], [ -71.219131365999942, -32.985911991999949 ], [ -71.219272611999941, -32.985447900999922 ], [ -71.219504657999948, -32.985135142999972 ], [ -71.219736702999967, -32.984782029999955 ], [ -71.219988925999985, -32.984338116999922 ], [ -71.220130171999983, -32.983914381999959 ], [ -71.220321861999935, -32.98342002399994 ], [ -71.220443889999956, -32.982737023999952 ], [ -71.220593220999945, -32.982139700999944 ], [ -71.220543817999953, -32.981745259999968 ], [ -71.220419000999982, -32.981368156999963 ], [ -71.220220971999936, -32.981099566999951 ], [ -71.219871453999986, -32.980721057 ], [ -71.219448349999936, -32.979800181999963 ], [ -71.219124799999975, -32.979302410999935 ], [ -71.218851025999982, -32.978779753999952 ], [ -71.218527475999963, -32.978356648999977 ], [ -71.218303478999985, -32.977983320999947 ], [ -71.217930151999951, -32.977435774999947 ], [ -71.217805708999947, -32.97706244699998 ], [ -71.217805708999947, -32.976816931999963 ], [ -71.217805708999947, -32.976589564999983 ], [ -71.217780820999963, -32.976141572999957 ], [ -71.217805707999958, -32.97529536299993 ], [ -71.217706154999973, -32.974698039999957 ], [ -71.217482158999985, -32.974299822999967 ], [ -71.217258161999951, -32.973951384999964 ], [ -71.217140293999947, -32.972956783999955 ], [ -71.217166121999981, -32.97274499699995 ], [ -71.217352080999945, -32.972388574999961 ], [ -71.217594000999952, -32.972053287999984 ], [ -71.21718875199997, -32.972091317999961 ], [ -71.216549529999952, -32.972371932999984 ], [ -71.216239782999949, -32.972718120999957 ], [ -71.216075799999942, -32.973155409999947 ], [ -71.215857154999981, -32.973337614999942 ], [ -71.215492747, -32.973446936999942 ], [ -71.214454184999965, -32.973355833999953 ], [ -71.213743588999932, -32.973228291999924 ], [ -71.212759687999949, -32.973118969999966 ], [ -71.212377058999948, -32.972954985999934 ], [ -71.212304178999943, -32.972517695999954 ], [ -71.212249516999975, -32.971989304999965 ], [ -71.212067312999977, -32.971552015999983 ], [ -71.211812226999939, -32.971424472999949 ], [ -71.21128383599995, -32.971406251999944 ], [ -71.210471462999976, -32.971391949999941 ], [ -71.209840268999983, -32.971361891999955 ], [ -71.209299245999944, -32.971361891999955 ], [ -71.20866805199995, -32.971482119999955 ], [ -71.208247254999961, -32.971542233999962 ], [ -71.207706232999953, -32.971542233999969 ], [ -71.207225321999942, -32.971542233999969 ], [ -71.206760693999968, -32.971542233999962 ], [ -71.206744412999967, -32.971542233999976 ], [ -71.206293559999949, -32.971542233999976 ], [ -71.205662366999945, -32.971542232999987 ], [ -71.205331740999952, -32.971391949999934 ], [ -71.205001114999973, -32.971121437999948 ], [ -71.204670489999955, -32.970911040999951 ], [ -71.204339864999952, -32.970610471999983 ], [ -71.203738727999962, -32.970610470999929 ], [ -71.203227761999983, -32.970880983999962 ], [ -71.202927192999937, -32.971151495999941 ], [ -71.202506396999979, -32.97142200699993 ], [ -71.202205828999979, -32.971512176999973 ], [ -71.201845145999982, -32.971512177999948 ], [ -71.201394292999964, -32.971512177999941 ], [ -71.200913382999943, -32.971452062999965 ], [ -71.200312246999943, -32.971331836999973 ], [ -71.199831337999967, -32.971121438999937 ], [ -71.199620938999942, -32.970971153999983 ], [ -71.19931269999995, -32.970662914999927 ] ] ] ] } },
{ "type": "Feature", "properties": { "t_reg_ca": "05", "t_prov_ca": "058", "t_com": "05803", "t_reg_nom": "VALPARAISO", "t_prov_nom": "MARGA MARGA", "t_com_nom": "OLMUE", "t_id_uv_ca": "58031103", "uv_carto": "3", "t_uv_nom": "3" }, "geometry": { "type": "MultiPolygon", "coordinates": [ [ [ [ -71.175586757999952, -33.002461207999936 ], [ -71.17595218699995, -33.002842694999956 ], [ -71.177709195999967, -33.003518134999979 ], [ -71.178534794999962, -33.003879093999942 ], [ -71.17857728499996, -33.004097318999982 ], [ -71.178768207999951, -33.004312951999971 ], [ -71.179142365999951, -33.004431540999974 ], [ -71.180035270999952, -33.004509785999964 ], [ -71.180631309999967, -33.004593213999946 ], [ -71.180674574999955, -33.004842704999923 ], [ -71.180642854999974, -33.00506222599995 ], [ -71.180686120999951, -33.005311715999937 ], [ -71.182371408999984, -33.005907867999944 ], [ -71.183867318999944, -33.006350907999938 ], [ -71.185545701999956, -33.006665608999981 ], [ -71.188827510999943, -33.00726497699997 ], [ -71.190355168999986, -33.007488413999965 ], [ -71.191183946999956, -33.007974353999934 ], [ -71.191861737999943, -33.008529118999945 ], [ -71.191803479999976, -33.008579722999968 ], [ -71.194384234999973, -33.013168582999974 ], [ -71.19451, -33.01314 ], [ -71.19531, -33.01293 ], [ -71.19619, -33.01273 ], [ -71.19674, -33.01261 ], [ -71.19762, -33.01241 ], [ -71.19821, -33.0123 ], [ -71.19875, -33.01222 ], [ -71.199714928999981, -33.012082806999956 ], [ -71.20026827199996, -33.012004131999952 ], [ -71.200575327999957, -33.011966927999929 ], [ -71.200743328999977, -33.011946572999925 ], [ -71.202458733999947, -33.011738730999973 ], [ -71.202768362999961, -33.011745102999946 ], [ -71.202731136999944, -33.011679134999952 ], [ -71.202582346999975, -33.011340304999976 ], [ -71.201944539999943, -33.009888453999963 ], [ -71.20118105499995, -33.008451285999961 ], [ -71.200607262999938, -33.007239814999942 ], [ -71.200439184999937, -33.006779468999973 ], [ -71.199806067999987, -33.005057009999959 ], [ -71.199736836999989, -33.004868657999957 ], [ -71.19952, -33.00427 ], [ -71.19936, -33.00391 ], [ -71.199328664999939, -33.003763769999978 ], [ -71.1993, -33.00363 ], [ -71.19928, -33.00346 ], [ -71.1993, -33.00325 ], [ -71.19938, -33.00279 ], [ -71.19943, -33.00198 ], [ -71.1995, -33.00166 ], [ -71.19964, -33.00128 ], [ -71.19983, -33.00087 ], [ -71.19996, -33.00062 ], [ -71.19968, -33.00059 ], [ -71.19764, -33.00038 ], [ -71.19777, -33.00002 ], [ -71.19866, -32.99848 ], [ -71.19886, -32.99829 ], [ -71.19903, -32.99815 ], [ -71.1992, -32.9981 ], [ -71.19952, -32.99799 ], [ -71.19979, -32.99788 ], [ -71.2, -32.99773 ], [ -71.20034, -32.99704 ], [ -71.20113, -32.99613 ], [ -71.201460560999976, -32.995408162999972 ], [ -71.201744795999957, -32.995048646999976 ], [ -71.199039846999952, -32.992199432999946 ], [ -71.19902, -32.99227 ], [ -71.1987, -32.9922 ], [ -71.19842, -32.99216 ], [ -71.19804, -32.99229 ], [ -71.1978, -32.99233 ], [ -71.19765, -32.99232 ], [ -71.19757, -32.99278 ], [ -71.1975, -32.99301 ], [ -71.19736, -32.9932 ], [ -71.19725, -32.99321 ], [ -71.19682, -32.99317 ], [ -71.19637, -32.99309 ], [ -71.19595, -32.993 ], [ -71.19561, -32.99298 ], [ -71.19523, -32.993 ], [ -71.195219230999953, -32.993419985999942 ], [ -71.195213579999972, -32.993640380999977 ], [ -71.19521, -32.99378 ], [ -71.19514, -32.99426 ], [ -71.195094311999981, -32.994232924999942 ], [ -71.194945537999956, -32.994144762999952 ], [ -71.19422480299994, -32.993717660999948 ], [ -71.193790397999976, -32.993459801999975 ], [ -71.19337, -32.99321 ], [ -71.1921, -32.99282 ], [ -71.19168, -32.99267 ], [ -71.19113, -32.99244 ], [ -71.19092, -32.99239 ], [ -71.1907, -32.99238 ], [ -71.19024, -32.99238 ], [ -71.19005, -32.99238 ], [ -71.18956, -32.99252 ], [ -71.18944, -32.99254 ], [ -71.18899, -32.99267 ], [ -71.18897, -32.99268 ], [ -71.18865, -32.99273 ], [ -71.18844, -32.99275 ], [ -71.1883, -32.99276 ], [ -71.18796, -32.99279 ], [ -71.18771, -32.99283 ], [ -71.18756, -32.99302 ], [ -71.18744, -32.99318 ], [ -71.18708, -32.9937 ], [ -71.18654, -32.99497 ], [ -71.18643, -32.99535 ], [ -71.18582, -32.99537 ], [ -71.1845, -32.99546 ], [ -71.18397, -32.99542 ], [ -71.182218673999955, -32.995230935999977 ], [ -71.18221, -32.99523 ], [ -71.18141, -32.99523 ], [ -71.18135, -32.99561 ], [ -71.18138, -32.99585 ], [ -71.18124, -32.99604 ], [ -71.18123, -32.99615 ], [ -71.18119, -32.99634 ], [ -71.18113, -32.99656 ], [ -71.18107, -32.99689 ], [ -71.18088, -32.9973 ], [ -71.18081, -32.99746 ], [ -71.18072, -32.99771 ], [ -71.18067, -32.99783 ], [ -71.18048, -32.99826 ], [ -71.18042, -32.99842 ], [ -71.180379414999962, -32.998517404 ], [ -71.180133968999939, -32.999034635999976 ], [ -71.18003, -32.99925 ], [ -71.17995, -32.99938 ], [ -71.17991, -32.99944 ], [ -71.17979, -32.99955 ], [ -71.17969, -32.99961 ], [ -71.179643655999939, -32.999619268999929 ], [ -71.17959, -32.99963 ], [ -71.17945, -32.99965 ], [ -71.17917, -32.99968 ], [ -71.17877, -32.99968 ], [ -71.17844, -32.99978 ], [ -71.17756, -33.00076 ], [ -71.17726, -33.00106 ], [ -71.17687, -33.00139 ], [ -71.17631, -33.00186 ], [ -71.17566, -33.00239 ], [ -71.175586757999952, -33.002461207999936 ] ] ] ] } },
{ "type": "Feature", "properties": { "t_reg_ca": "05", "t_prov_ca": "058", "t_com": "05803", "t_reg_nom": "VALPARAISO", "t_prov_nom": "MARGA MARGA", "t_com_nom": "OLMUE", "t_id_uv_ca": "58031105", "uv_carto": "5", "t_uv_nom": "5" }, "geometry": { "type": "MultiPolygon", "coordinates": [ [ [ [ -71.162309210999979, -32.99452297199997 ], [ -71.16273, -32.99516 ], [ -71.16288, -32.99531 ], [ -71.16301, -32.9954 ], [ -71.16316, -32.99548 ], [ -71.16341, -32.99554 ], [ -71.16392, -32.99568 ], [ -71.16403, -32.99572 ], [ -71.16425, -32.99578 ], [ -71.16436, -32.99588 ], [ -71.16444, -32.99596 ], [ -71.16456, -32.99608 ], [ -71.16514, -32.99679 ], [ -71.16526, -32.99695 ], [ -71.16532, -32.99705 ], [ -71.16538, -32.99717 ], [ -71.16548, -32.99738 ], [ -71.16551, -32.99756 ], [ -71.16549, -32.99792 ], [ -71.16547, -32.99813 ], [ -71.16544, -32.99856 ], [ -71.16545, -32.99879 ], [ -71.16553, -32.99901 ], [ -71.16564, -32.99911 ], [ -71.16599, -32.99931 ], [ -71.16618, -32.99945 ], [ -71.16634, -32.99958 ], [ -71.16644, -32.99968 ], [ -71.16652, -32.99978 ], [ -71.16661, -32.9999 ], [ -71.16674, -33.00009 ], [ -71.16683, -33.00022 ], [ -71.16693, -33.00032 ], [ -71.166959906999978, -33.000346915999955 ], [ -71.16713, -33.0005 ], [ -71.167354435999982, -33.000548092999971 ], [ -71.16741, -33.00056 ], [ -71.167459199999939, -33.000572299999916 ], [ -71.16781, -33.00066 ], [ -71.16886, -33.00082 ], [ -71.17017, -33.00102 ], [ -71.17067, -33.00115 ], [ -71.17132, -33.00142 ], [ -71.17224, -33.00186 ], [ -71.17336, -33.0024 ], [ -71.17447, -33.00295 ], [ -71.17495, -33.00315 ], [ -71.1753, -33.00274 ], [ -71.175586757999952, -33.002461207999936 ], [ -71.17566, -33.00239 ], [ -71.17631, -33.00186 ], [ -71.17687, -33.00139 ], [ -71.17726, -33.00106 ], [ -71.17756, -33.00076 ], [ -71.17844, -32.99978 ], [ -71.17877, -32.99968 ], [ -71.17917, -32.99968 ], [ -71.17945, -32.99965 ], [ -71.17959, -32.99963 ], [ -71.179643655999939, -32.999619268999929 ], [ -71.17969, -32.99961 ], [ -71.17979, -32.99955 ], [ -71.17991, -32.99944 ], [ -71.17995, -32.99938 ], [ -71.18003, -32.99925 ], [ -71.180133968999939, -32.999034635999976 ], [ -71.180379414999962, -32.998517404 ], [ -71.18042, -32.99842 ], [ -71.18048, -32.99826 ], [ -71.18067, -32.99783 ], [ -71.18072, -32.99771 ], [ -71.18081, -32.99746 ], [ -71.18088, -32.9973 ], [ -71.18107, -32.99689 ], [ -71.18113, -32.99656 ], [ -71.18119, -32.99634 ], [ -71.18123, -32.99615 ], [ -71.18124, -32.99604 ], [ -71.18138, -32.99585 ], [ -71.18135, -32.99561 ], [ -71.18141, -32.99523 ], [ -71.18124, -32.99519 ], [ -71.180907275999971, -32.995182170999946 ], [ -71.18039, -32.99517 ], [ -71.17879, -32.99505 ], [ -71.17816, -32.9949 ], [ -71.17759, -32.9947 ], [ -71.17721, -32.99453 ], [ -71.17692, -32.99449 ], [ -71.17663, -32.99446 ], [ -71.17616, -32.99444 ], [ -71.17597, -32.99443 ], [ -71.17527, -32.99441 ], [ -71.1748, -32.99437 ], [ -71.1744, -32.99435 ], [ -71.17402, -32.99431 ], [ -71.17307, -32.99427 ], [ -71.1729, -32.99423 ], [ -71.17272, -32.99421 ], [ -71.17247, -32.99413 ], [ -71.17227, -32.99407 ], [ -71.17206, -32.99402 ], [ -71.17183, -32.99397 ], [ -71.17165, -32.99394 ], [ -71.17088, -32.99384 ], [ -71.17062, -32.99386 ], [ -71.17046, -32.9939 ], [ -71.17008, -32.99398 ], [ -71.1699, -32.99402 ], [ -71.16969, -32.99406 ], [ -71.16952, -32.99407 ], [ -71.16937, -32.99405 ], [ -71.16923, -32.99399 ], [ -71.16901, -32.99387 ], [ -71.16885, -32.99368 ], [ -71.16786, -32.99371 ], [ -71.16753, -32.99373 ], [ -71.16734, -32.99379 ], [ -71.16685, -32.99383 ], [ -71.16664, -32.99377 ], [ -71.16616, -32.9936 ], [ -71.165864018999969, -32.993493832999938 ], [ -71.165761482999983, -32.993457053999961 ], [ -71.16524, -32.99327 ], [ -71.165085675999933, -32.993208641999949 ], [ -71.164532806999944, -32.992988826999976 ], [ -71.162309210999979, -32.99452297199997 ] ] ] ] } },
{ "type": "Feature", "properties": { "t_reg_ca": "05", "t_prov_ca": "058", "t_com": "05803", "t_reg_nom": "VALPARAISO", "t_prov_nom": "MARGA MARGA", "t_com_nom": "OLMUE", "t_id_uv_ca": "58031106", "uv_carto": "6", "t_uv_nom": "6" }, "geometry": { "type": "MultiPolygon", "coordinates": [ [ [ [ -71.159947193999983, -32.97226359999997 ], [ -71.161374880999972, -32.977217046999954 ], [ -71.162092043999962, -32.980085697999989 ], [ -71.162213816999952, -32.980572790999922 ], [ -71.162723048999965, -32.980947820999972 ], [ -71.162641650999944, -32.981728173999954 ], [ -71.16265, -32.98173 ], [ -71.1626, -32.98185 ], [ -71.16257, -32.98196 ], [ -71.162501199999951, -32.982304001999985 ], [ -71.162498383999946, -32.982307932999959 ], [ -71.162497274999964, -32.982323626999978 ], [ -71.16244, -32.98261 ], [ -71.16238, -32.98299 ], [ -71.16246, -32.98305 ], [ -71.16258, -32.98315 ], [ -71.16268, -32.98323 ], [ -71.16277, -32.98329 ], [ -71.16287, -32.98342 ], [ -71.1628, -32.98349 ], [ -71.16277, -32.98361 ], [ -71.16276, -32.98379 ], [ -71.16278, -32.98394 ], [ -71.16289, -32.98449 ], [ -71.16289, -32.98468 ], [ -71.16374, -32.98494 ], [ -71.16442, -32.98687 ], [ -71.16415, -32.98796 ], [ -71.16479, -32.98815 ], [ -71.16552, -32.9884 ], [ -71.1665, -32.98884 ], [ -71.16657, -32.98888 ], [ -71.16669, -32.98894 ], [ -71.16677, -32.98901 ], [ -71.16681, -32.98908 ], [ -71.167000177999967, -32.989452086999961 ], [ -71.16704, -32.98953 ], [ -71.16691, -32.98986 ], [ -71.166837254999962, -32.990002891999943 ], [ -71.166721277999955, -32.990230702999945 ], [ -71.16663, -32.99041 ], [ -71.16659, -32.99145 ], [ -71.16661, -32.99159 ], [ -71.1664, -32.99181 ], [ -71.16622, -32.99233 ], [ -71.16592, -32.99227 ], [ -71.16587, -32.99246 ], [ -71.16571, -32.99282 ], [ -71.16545, -32.99313 ], [ -71.165290313999947, -32.993236456999966 ], [ -71.16524, -32.99327 ], [ -71.165761482999983, -32.993457053999961 ], [ -71.165864018999969, -32.993493832999938 ], [ -71.16616, -32.9936 ], [ -71.16664, -32.99377 ], [ -71.16685, -32.99383 ], [ -71.16734, -32.99379 ], [ -71.16753, -32.99373 ], [ -71.16786, -32.99371 ], [ -71.16885, -32.99368 ], [ -71.16901, -32.99387 ], [ -71.16923, -32.99399 ], [ -71.16937, -32.99405 ], [ -71.16952, -32.99407 ], [ -71.16969, -32.99406 ], [ -71.1699, -32.99402 ], [ -71.17008, -32.99398 ], [ -71.17046, -32.9939 ], [ -71.17062, -32.99386 ], [ -71.17088, -32.99384 ], [ -71.17165, -32.99394 ], [ -71.17183, -32.99397 ], [ -71.17206, -32.99402 ], [ -71.17227, -32.99407 ], [ -71.17247, -32.99413 ], [ -71.17272, -32.99421 ], [ -71.1729, -32.99423 ], [ -71.17307, -32.99427 ], [ -71.17402, -32.99431 ], [ -71.1744, -32.99435 ], [ -71.1748, -32.99437 ], [ -71.17527, -32.99441 ], [ -71.17597, -32.99443 ], [ -71.17616, -32.99444 ], [ -71.17663, -32.99446 ], [ -71.17692, -32.99449 ], [ -71.17721, -32.99453 ], [ -71.17759, -32.9947 ], [ -71.17816, -32.9949 ], [ -71.17879, -32.99505 ], [ -71.18039, -32.99517 ], [ -71.180907275999971, -32.995182170999946 ], [ -71.18124, -32.99519 ], [ -71.181127325999967, -32.994448230999978 ], [ -71.18112, -32.9944 ], [ -71.181080693999945, -32.994261395999963 ], [ -71.18093, -32.99373 ], [ -71.180855172999941, -32.993727861999965 ], [ -71.180679374999954, -32.993722838999936 ], [ -71.18058, -32.99372 ], [ -71.18018, -32.99367 ], [ -71.17949, -32.99346 ], [ -71.17918, -32.99313 ], [ -71.17891, -32.99293 ], [ -71.17866, -32.9928 ], [ -71.17828, -32.99274 ], [ -71.17794, -32.99268 ], [ -71.17791, -32.99243 ], [ -71.1779, -32.99205 ], [ -71.17791, -32.99197 ], [ -71.17794, -32.99193 ], [ -71.178, -32.99191 ], [ -71.1781, -32.9919 ], [ -71.17823, -32.99189 ], [ -71.178248782999958, -32.991885303999929 ], [ -71.17835, -32.99186 ], [ -71.178398866999942, -32.991830679999964 ], [ -71.17845, -32.9918 ], [ -71.17857, -32.99168 ], [ -71.17867, -32.99154 ], [ -71.178678460999947, -32.991475130999959 ], [ -71.178687113999956, -32.991408790999976 ], [ -71.1787, -32.99131 ], [ -71.1787, -32.99111 ], [ -71.17869, -32.99089 ], [ -71.1786, -32.99065 ], [ -71.17845, -32.99031 ], [ -71.1779, -32.98971 ], [ -71.17784015999996, -32.989645726999981 ], [ -71.177637266999966, -32.989427804999934 ], [ -71.17763, -32.98942 ], [ -71.17762, -32.98931 ], [ -71.177655284999958, -32.989230609999929 ], [ -71.1777, -32.98913 ], [ -71.177752750999957, -32.989028265999934 ], [ -71.17784, -32.98886 ], [ -71.17795, -32.98864 ], [ -71.17796, -32.98854 ], [ -71.17792, -32.98839 ], [ -71.1779, -32.98833 ], [ -71.17786, -32.98825 ], [ -71.17779, -32.98817 ], [ -71.1777, -32.98806 ], [ -71.1776, -32.98778 ], [ -71.17753, -32.98761 ], [ -71.17749, -32.98743 ], [ -71.17748, -32.98721 ], [ -71.17773, -32.98594 ], [ -71.17781, -32.98571 ], [ -71.177835667999943, -32.985581661999952 ], [ -71.177841831999956, -32.985548893999976 ], [ -71.177878801999967, -32.98535234299991 ], [ -71.177879890999975, -32.985323831999949 ], [ -71.177879596999958, -32.985324564999928 ], [ -71.177870950999989, -32.985347623999928 ], [ -71.177837115999978, -32.984931284999959 ], [ -71.177829047999978, -32.984928779999962 ], [ -71.177878168999939, -32.984149622999951 ], [ -71.17792732099997, -32.984082039999983 ], [ -71.178128675999972, -32.978810193999948 ], [ -71.178223947999982, -32.976315804999942 ], [ -71.178405942999973, -32.96953508699994 ], [ -71.178220459999977, -32.969468312999922 ], [ -71.177949947999934, -32.969408198999936 ], [ -71.177679436999938, -32.969227856999971 ], [ -71.177318754999988, -32.969227856999964 ], [ -71.177078298999959, -32.969137686999943 ], [ -71.176657503999934, -32.968957345999961 ], [ -71.176116480999951, -32.968777004999922 ], [ -71.175755796999965, -32.968777004999936 ], [ -71.175214773999983, -32.968777004999936 ], [ -71.174733863999961, -32.968777004999936 ], [ -71.174222898999972, -32.968837118999943 ], [ -71.173681874999943, -32.968837116999964 ], [ -71.173381306999943, -32.968837116999964 ], [ -71.173020624999936, -32.968777004999929 ], [ -71.172629885999982, -32.968656776999978 ], [ -71.172329316999935, -32.968656776999971 ], [ -71.172088862999942, -32.968807061999939 ], [ -71.171878464999963, -32.969137686999943 ], [ -71.171607951999988, -32.969287970999964 ], [ -71.17124727099997, -32.969348084999986 ], [ -71.170976757999938, -32.969558482999958 ], [ -71.170345564999934, -32.969859051999947 ], [ -71.169804540999962, -32.969979278999979 ], [ -71.16926351799998, -32.970129563999933 ], [ -71.168602266999983, -32.970279847999954 ], [ -71.167820788999961, -32.970550358999958 ], [ -71.167189594999968, -32.970790812999937 ], [ -71.166678627999943, -32.971091380999951 ], [ -71.166317945999936, -32.971301779999976 ], [ -71.165987321999978, -32.971361893999976 ], [ -71.165356126999939, -32.971482120999944 ], [ -71.164785045999963, -32.97163240499998 ], [ -71.164244022999981, -32.97169252 ], [ -71.16364288699998, -32.971842803999948 ], [ -71.163131918999966, -32.972023144999973 ], [ -71.162590896999987, -32.972023143999927 ], [ -71.162109986999951, -32.972173429999934 ], [ -71.161689190999937, -32.972383827999977 ], [ -71.161298452999972, -32.972383826999923 ], [ -71.160997883999983, -32.972293654999923 ], [ -71.16069731499995, -32.972263599999948 ], [ -71.160336632999986, -32.972263599999955 ], [ -71.159947193999983, -32.97226359999997 ] ] ] ] } },
{ "type": "Feature", "properties": { "t_reg_ca": "05", "t_prov_ca": "058", "t_com": "05803", "t_reg_nom": "VALPARAISO", "t_prov_nom": "MARGA MARGA", "t_com_nom": "OLMUE", "t_id_uv_ca": "58031102", "uv_carto": "2", "t_uv_nom": "2" }, "geometry": { "type": "MultiPolygon", "coordinates": [ [ [ [ -71.187428707999985, -32.971138866999979 ], [ -71.187373387999969, -32.972971470999937 ], [ -71.187248284999953, -32.975405104999936 ], [ -71.187197502999936, -32.976392973999964 ], [ -71.186946592999959, -32.981273936999969 ], [ -71.186733966999952, -32.98541016399998 ], [ -71.18671, -32.98553 ], [ -71.18669, -32.98563 ], [ -71.18662, -32.98586 ], [ -71.18649, -32.98603 ], [ -71.18639, -32.9861 ], [ -71.18633, -32.98613 ], [ -71.1862, -32.98617 ], [ -71.18606, -32.98621 ], [ -71.18592, -32.98634 ], [ -71.18572, -32.98645 ], [ -71.18555, -32.98653 ], [ -71.1855, -32.98666 ], [ -71.18548, -32.98683 ], [ -71.18538, -32.987 ], [ -71.18527, -32.98718 ], [ -71.18519, -32.9872 ], [ -71.18521, -32.98737 ], [ -71.18527, -32.98761 ], [ -71.18533, -32.98818 ], [ -71.18537, -32.9884 ], [ -71.18552, -32.98884 ], [ -71.18563, -32.98933 ], [ -71.18562, -32.98976 ], [ -71.18558, -32.99006 ], [ -71.18558, -32.99035 ], [ -71.18559, -32.99053 ], [ -71.18561, -32.99068 ], [ -71.18582, -32.99107 ], [ -71.18599, -32.99136 ], [ -71.18615, -32.99168 ], [ -71.18629, -32.99188 ], [ -71.18641, -32.99201 ], [ -71.18649, -32.99208 ], [ -71.18684, -32.99219 ], [ -71.18714, -32.99227 ], [ -71.18735, -32.99234 ], [ -71.18748, -32.99243 ], [ -71.18763, -32.9926 ], [ -71.18771, -32.99283 ], [ -71.18796, -32.99279 ], [ -71.1883, -32.99276 ], [ -71.18844, -32.99275 ], [ -71.18865, -32.99273 ], [ -71.18897, -32.99268 ], [ -71.18899, -32.99267 ], [ -71.18944, -32.99254 ], [ -71.18956, -32.99252 ], [ -71.19005, -32.99238 ], [ -71.19024, -32.99238 ], [ -71.1907, -32.99238 ], [ -71.19092, -32.99239 ], [ -71.19113, -32.99244 ], [ -71.19168, -32.99267 ], [ -71.1921, -32.99282 ], [ -71.19337, -32.99321 ], [ -71.193790397999976, -32.993459801999975 ], [ -71.19422480299994, -32.993717660999948 ], [ -71.194945537999956, -32.994144762999952 ], [ -71.195094311999981, -32.994232924999942 ], [ -71.19514, -32.99426 ], [ -71.19521, -32.99378 ], [ -71.195213579999972, -32.993640380999977 ], [ -71.195219230999953, -32.993419985999942 ], [ -71.19523, -32.993 ], [ -71.19561, -32.99298 ], [ -71.19595, -32.993 ], [ -71.19637, -32.99309 ], [ -71.19682, -32.99317 ], [ -71.19725, -32.99321 ], [ -71.19736, -32.9932 ], [ -71.1975, -32.99301 ], [ -71.19757, -32.99278 ], [ -71.19765, -32.99232 ], [ -71.1978, -32.99233 ], [ -71.19804, -32.99229 ], [ -71.19842, -32.99216 ], [ -71.1987, -32.9922 ], [ -71.19902, -32.99227 ], [ -71.199039846999952, -32.992199432999946 ], [ -71.19911, -32.99195 ], [ -71.19909, -32.99174 ], [ -71.19903, -32.9913 ], [ -71.19901, -32.99052 ], [ -71.19906, -32.99007 ], [ -71.19915, -32.98982 ], [ -71.19961, -32.98933 ], [ -71.19961, -32.98924 ], [ -71.19959, -32.98906 ], [ -71.19957, -32.98848 ], [ -71.19968, -32.98788 ], [ -71.19966, -32.98772 ], [ -71.19955, -32.98742 ], [ -71.19939, -32.98705 ], [ -71.19925, -32.98698 ], [ -71.19928, -32.98677 ], [ -71.19934, -32.98646 ], [ -71.19959, -32.98616 ], [ -71.19957, -32.98601 ], [ -71.19919, -32.98578 ], [ -71.19906, -32.98539 ], [ -71.19888, -32.98523 ], [ -71.19879, -32.98508 ], [ -71.19877, -32.98495 ], [ -71.19881, -32.98483 ], [ -71.19892, -32.98474 ], [ -71.19901, -32.98461 ], [ -71.19903, -32.98447 ], [ -71.198944958999959, -32.984384958999954 ], [ -71.19892, -32.98436 ], [ -71.1988, -32.98426 ], [ -71.198706340999934, -32.984225941999952 ], [ -71.19869, -32.98422 ], [ -71.19859, -32.98414 ], [ -71.19852, -32.98393 ], [ -71.198460815999965, -32.983698193999942 ], [ -71.1984, -32.98346 ], [ -71.198388394999938, -32.983429535999967 ], [ -71.19832, -32.98325 ], [ -71.19814, -32.98289 ], [ -71.1981, -32.9827 ], [ -71.198112709999975, -32.982579070999968 ], [ -71.198125716999982, -32.982565853999972 ], [ -71.198279905999982, -32.982497325999923 ], [ -71.198285616999968, -32.982360268999962 ], [ -71.198297037999964, -32.982171814999951 ], [ -71.198274194999954, -32.981966229999955 ], [ -71.198194749999971, -32.981798513999934 ], [ -71.198577587999978, -32.978156078999966 ], [ -71.199135412, -32.972848771999956 ], [ -71.19931269999995, -32.970662914999927 ], [ -71.199260256999935, -32.970610471999976 ], [ -71.198959687999945, -32.970400073999933 ], [ -71.198568948999934, -32.970309903999976 ], [ -71.198178208999934, -32.970309903999969 ], [ -71.197757413999966, -32.970309903999969 ], [ -71.197336616999962, -32.970520300999965 ], [ -71.197005992999948, -32.970941097999962 ], [ -71.196675366999955, -32.971241665999976 ], [ -71.19595400299994, -32.97106132499993 ], [ -71.195202581999979, -32.971001209999933 ], [ -71.19466155799995, -32.970971154999972 ], [ -71.194090478999954, -32.971241665999969 ], [ -71.193579511999985, -32.971512177999955 ], [ -71.193128658999967, -32.971692517999941 ], [ -71.192557577999935, -32.971722574999944 ], [ -71.191956441999935, -32.971692518999916 ], [ -71.191505588999973, -32.971812745999955 ], [ -71.191024679999941, -32.971872859999962 ], [ -71.190663996999959, -32.971872859999962 ], [ -71.190303313999948, -32.971842802999959 ], [ -71.189912575999983, -32.971842802999959 ], [ -71.189371551999955, -32.97163240499998 ], [ -71.189070983999954, -32.971422006999944 ], [ -71.188740358999951, -32.971121437999948 ], [ -71.188319561999947, -32.971061324999937 ], [ -71.187868708999986, -32.97106132499993 ], [ -71.187568141999975, -32.971121437999948 ], [ -71.187428707999985, -32.971138866999979 ] ] ] ] } },
{ "type": "Feature", "properties": { "t_reg_ca": "05", "t_prov_ca": "058", "t_com": "05803", "t_reg_nom": "VALPARAISO", "t_prov_nom": "MARGA MARGA", "t_com_nom": "OLMUE", "t_id_uv_ca": "58031107", "uv_carto": "7", "t_uv_nom": "7" }, "geometry": { "type": "MultiPolygon", "coordinates": [ [ [ [ -71.141208221999989, -32.968502688999926 ], [ -71.141946501999939, -32.970008046999951 ], [ -71.14215033399995, -32.970423663999952 ], [ -71.144443108999951, -32.975098650999939 ], [ -71.144713558999968, -32.97563485899996 ], [ -71.147152782999967, -32.980470981999929 ], [ -71.147674749999965, -32.981835583999946 ], [ -71.148892741999987, -32.985019642999916 ], [ -71.149044178999986, -32.985420151999953 ], [ -71.149868236999964, -32.989548107999951 ], [ -71.14989, -32.98955 ], [ -71.15002, -32.98955 ], [ -71.15011, -32.98953 ], [ -71.1502, -32.98951 ], [ -71.15037, -32.98949 ], [ -71.15049, -32.98957 ], [ -71.15056, -32.98964 ], [ -71.15063, -32.98967 ], [ -71.15081, -32.98965 ], [ -71.15115, -32.98968 ], [ -71.15125, -32.98972 ], [ -71.15127, -32.98984 ], [ -71.15123, -32.99004 ], [ -71.15121, -32.99017 ], [ -71.1512, -32.9903 ], [ -71.15121, -32.99037 ], [ -71.15125, -32.99044 ], [ -71.15144, -32.99043 ], [ -71.15206, -32.99296 ], [ -71.15208, -32.99345 ], [ -71.1525, -32.99363 ], [ -71.15274, -32.99375 ], [ -71.15304, -32.99383 ], [ -71.15339, -32.99387 ], [ -71.15337, -32.99449 ], [ -71.15338, -32.99523 ], [ -71.15337, -32.99537 ], [ -71.15336, -32.99545 ], [ -71.15331, -32.99573 ], [ -71.15325, -32.99593 ], [ -71.15110163199995, -33.003203242999973 ], [ -71.151606105999974, -33.004221960999928 ], [ -71.15172, -33.00418 ], [ -71.15183, -33.00404 ], [ -71.15199, -33.00388 ], [ -71.15208, -33.00387 ], [ -71.15218, -33.00391 ], [ -71.15229, -33.00393 ], [ -71.15231, -33.00386 ], [ -71.15222, -33.00379 ], [ -71.15215, -33.00374 ], [ -71.15212, -33.00369 ], [ -71.15218, -33.00365 ], [ -71.15226, -33.00365 ], [ -71.15237, -33.00371 ], [ -71.15247, -33.00374 ], [ -71.15249, -33.00366 ], [ -71.15246, -33.0036 ], [ -71.15235, -33.00354 ], [ -71.15233, -33.00349 ], [ -71.15239, -33.00345 ], [ -71.15249, -33.00347 ], [ -71.15258, -33.0035 ], [ -71.15265, -33.00347 ], [ -71.15262, -33.00341 ], [ -71.15252, -33.00338 ], [ -71.15252, -33.00332 ], [ -71.15259, -33.00329 ], [ -71.15269, -33.00332 ], [ -71.1528, -33.00333 ], [ -71.15282, -33.00326 ], [ -71.15278, -33.00321 ], [ -71.15272, -33.00317 ], [ -71.15274, -33.00309 ], [ -71.15282, -33.00306 ], [ -71.15305, -33.00303 ], [ -71.15315, -33.00299 ], [ -71.15313, -33.00294 ], [ -71.15301, -33.00292 ], [ -71.15299, -33.00288 ], [ -71.15305, -33.00282 ], [ -71.15315, -33.0028 ], [ -71.15328, -33.00279 ], [ -71.15347, -33.00272 ], [ -71.15357, -33.00266 ], [ -71.15394, -33.00242 ], [ -71.15404, -33.00238 ], [ -71.15424, -33.00232 ], [ -71.15429, -33.00222 ], [ -71.15436, -33.00212 ], [ -71.15435, -33.00205 ], [ -71.15435, -33.00193 ], [ -71.15429, -33.00179 ], [ -71.15438, -33.00162 ], [ -71.15452, -33.00156 ], [ -71.15452, -33.0015 ], [ -71.15442, -33.00143 ], [ -71.15441, -33.00136 ], [ -71.15446, -33.00133 ], [ -71.15463, -33.00135 ], [ -71.15469, -33.00131 ], [ -71.15468, -33.00127 ], [ -71.15459, -33.00121 ], [ -71.15456, -33.00115 ], [ -71.15462, -33.00107 ], [ -71.1548, -33.00107 ], [ -71.15487, -33.00103 ], [ -71.15484, -33.00097 ], [ -71.15466, -33.00086 ], [ -71.15463, -33.0008 ], [ -71.15466, -33.00075 ], [ -71.15489, -33.00078 ], [ -71.15496, -33.00076 ], [ -71.15496, -33.0007 ], [ -71.15475, -33.00061 ], [ -71.15472, -33.00055 ], [ -71.15475, -33.00052 ], [ -71.15503, -33.00049 ], [ -71.15505, -33.00044 ], [ -71.15501, -33.00039 ], [ -71.1548, -33.00031 ], [ -71.15492, -33.00016 ], [ -71.15499, -32.99988 ], [ -71.1551, -32.99978 ], [ -71.15535, -32.99963 ], [ -71.15573, -32.99938 ], [ -71.15589, -32.99934 ], [ -71.15609, -32.99936 ], [ -71.15622, -32.99933 ], [ -71.15639, -32.99925 ], [ -71.15659, -32.99916 ], [ -71.1568, -32.99912 ], [ -71.15702, -32.99912 ], [ -71.15723, -32.99907 ], [ -71.15747, -32.99894 ], [ -71.15754, -32.99886 ], [ -71.15756, -32.99879 ], [ -71.15757, -32.99867 ], [ -71.15754, -32.99848 ], [ -71.15752, -32.99833 ], [ -71.15752, -32.99818 ], [ -71.15748, -32.99801 ], [ -71.15755, -32.99799 ], [ -71.15761, -32.99803 ], [ -71.15764, -32.99815 ], [ -71.15766, -32.99828 ], [ -71.15772, -32.99838 ], [ -71.15794, -32.99861 ], [ -71.1581, -32.99877 ], [ -71.15825, -32.99885 ], [ -71.15852, -32.99892 ], [ -71.1588, -32.99894 ], [ -71.15905, -32.99899 ], [ -71.15919, -32.99906 ], [ -71.1593, -32.99908 ], [ -71.1594, -32.99907 ], [ -71.15954, -32.99902 ], [ -71.15964, -32.99893 ], [ -71.15967, -32.99886 ], [ -71.15966, -32.99881 ], [ -71.15968, -32.99875 ], [ -71.15972, -32.99873 ], [ -71.15977, -32.99874 ], [ -71.16005, -32.99886 ], [ -71.16008, -32.99906 ], [ -71.1601, -32.9991 ], [ -71.16014, -32.99912 ], [ -71.16018, -32.99908 ], [ -71.16034, -32.99886 ], [ -71.16033, -32.99867 ], [ -71.16027, -32.99853 ], [ -71.16028, -32.99849 ], [ -71.16034, -32.99849 ], [ -71.16056, -32.99859 ], [ -71.16062, -32.99855 ], [ -71.16063, -32.99851 ], [ -71.1606, -32.99845 ], [ -71.1605, -32.9984 ], [ -71.16049, -32.99835 ], [ -71.16052, -32.99829 ], [ -71.16059, -32.9983 ], [ -71.16078, -32.99837 ], [ -71.16084, -32.99834 ], [ -71.16085, -32.99828 ], [ -71.16081, -32.99824 ], [ -71.16071, -32.99812 ], [ -71.16068, -32.99806 ], [ -71.16072, -32.99802 ], [ -71.16083, -32.99803 ], [ -71.16107, -32.99813 ], [ -71.16112, -32.99813 ], [ -71.16114, -32.9981 ], [ -71.16113, -32.99807 ], [ -71.16097, -32.9979 ], [ -71.16101, -32.99785 ], [ -71.16109, -32.99786 ], [ -71.16128, -32.99796 ], [ -71.16135, -32.99796 ], [ -71.16137, -32.99791 ], [ -71.16133, -32.99784 ], [ -71.1613, -32.99779 ], [ -71.1613, -32.99773 ], [ -71.16136, -32.9977 ], [ -71.16144, -32.99772 ], [ -71.16162, -32.99784 ], [ -71.16169, -32.99783 ], [ -71.16174, -32.99778 ], [ -71.16174, -32.99772 ], [ -71.16162, -32.99758 ], [ -71.16164, -32.99752 ], [ -71.1617, -32.99749 ], [ -71.16183, -32.99749 ], [ -71.16211, -32.99749 ], [ -71.16247, -32.99758 ], [ -71.16259, -32.99759 ], [ -71.16272, -32.99758 ], [ -71.16281, -32.99754 ], [ -71.16284, -32.99747 ], [ -71.1628, -32.99737 ], [ -71.16272, -32.99725 ], [ -71.16253, -32.99708 ], [ -71.16236, -32.99698 ], [ -71.16219, -32.99695 ], [ -71.16166, -32.99697 ], [ -71.16138, -32.99694 ], [ -71.16106, -32.99692 ], [ -71.16104, -32.99649 ], [ -71.16121, -32.99638 ], [ -71.16123, -32.99629 ], [ -71.16146, -32.99594 ], [ -71.16172, -32.99545 ], [ -71.16193, -32.99524 ], [ -71.16198, -32.99515 ], [ -71.16199, -32.99509 ], [ -71.16193, -32.99495 ], [ -71.1618, -32.99472 ], [ -71.16163, -32.99455 ], [ -71.16157, -32.9944 ], [ -71.1615, -32.99426 ], [ -71.16201, -32.99407 ], [ -71.162138447999951, -32.994264455999939 ], [ -71.162309210999979, -32.99452297199997 ], [ -71.164532806999944, -32.992988826999976 ], [ -71.165085675999933, -32.993208641999949 ], [ -71.16524, -32.99327 ], [ -71.165290313999947, -32.993236456999966 ], [ -71.16545, -32.99313 ], [ -71.16571, -32.99282 ], [ -71.16587, -32.99246 ], [ -71.16592, -32.99227 ], [ -71.16622, -32.99233 ], [ -71.1664, -32.99181 ], [ -71.16661, -32.99159 ], [ -71.16659, -32.99145 ], [ -71.16663, -32.99041 ], [ -71.166721277999955, -32.990230702999945 ], [ -71.166837254999962, -32.990002891999943 ], [ -71.16691, -32.98986 ], [ -71.16704, -32.98953 ], [ -71.167000177999967, -32.989452086999961 ], [ -71.16681, -32.98908 ], [ -71.16677, -32.98901 ], [ -71.16669, -32.98894 ], [ -71.16657, -32.98888 ], [ -71.1665, -32.98884 ], [ -71.16552, -32.9884 ], [ -71.16479, -32.98815 ], [ -71.16415, -32.98796 ], [ -71.16442, -32.98687 ], [ -71.16374, -32.98494 ], [ -71.16289, -32.98468 ], [ -71.16289, -32.98449 ], [ -71.16278, -32.98394 ], [ -71.16276, -32.98379 ], [ -71.16277, -32.98361 ], [ -71.1628, -32.98349 ], [ -71.16287, -32.98342 ], [ -71.16277, -32.98329 ], [ -71.16268, -32.98323 ], [ -71.16258, -32.98315 ], [ -71.16246, -32.98305 ], [ -71.16238, -32.98299 ], [ -71.16244, -32.98261 ], [ -71.162497274999964, -32.982323626999978 ], [ -71.162498383999946, -32.982307932999959 ], [ -71.162501199999951, -32.982304001999985 ], [ -71.16257, -32.98196 ], [ -71.1626, -32.98185 ], [ -71.16265, -32.98173 ], [ -71.162641650999944, -32.981728173999954 ], [ -71.162723048999965, -32.980947820999972 ], [ -71.162213816999952, -32.980572790999922 ], [ -71.162092043999962, -32.980085697999989 ], [ -71.161374880999972, -32.977217046999954 ], [ -71.159947193999983, -32.97226359999997 ], [ -71.159855722999964, -32.972263599999962 ], [ -71.159495040999957, -32.972263599999955 ], [ -71.159284642999978, -32.972053201999984 ], [ -71.158713561999946, -32.971963031999955 ], [ -71.158292766999978, -32.971932974999952 ], [ -71.157751742999949, -32.971932974999959 ], [ -71.157150606999949, -32.972143371999941 ], [ -71.156789923999952, -32.972443940999938 ], [ -71.156489355999952, -32.972714452999988 ], [ -71.156218843999966, -32.972924850999959 ], [ -71.155888217999973, -32.973165303999963 ], [ -71.155527535999965, -32.973255475999956 ], [ -71.155016569999987, -32.973315589999963 ], [ -71.154505602999961, -32.973105191999935 ], [ -71.154114863999951, -32.972714451999941 ], [ -71.153814294999961, -32.97235377 ], [ -71.153303328999982, -32.97196303 ], [ -71.152882532999968, -32.971782688999951 ], [ -71.152491794999946, -32.971692519999984 ], [ -71.152070998999989, -32.971422007999941 ], [ -71.151499917999956, -32.971091380999958 ], [ -71.151169292999953, -32.97079081399994 ], [ -71.15083866699996, -32.970370017999969 ], [ -71.150447927999949, -32.970400074999922 ], [ -71.149846790999959, -32.970490245999933 ], [ -71.149275710999973, -32.970430130999951 ], [ -71.148915028999966, -32.970189676999951 ], [ -71.148524289999955, -32.970159619999947 ], [ -71.148013322999986, -32.970159618999944 ], [ -71.147412186999986, -32.970370018 ], [ -71.146991388999936, -32.970370017999983 ], [ -71.146660764999979, -32.970249789999968 ], [ -71.146209910999985, -32.970099506999937 ], [ -71.145909342999971, -32.969708767999968 ], [ -71.145278148999978, -32.969468312999929 ], [ -71.144977580999978, -32.969137686999936 ], [ -71.144556784999963, -32.968716890999936 ], [ -71.14422615999996, -32.968386265999982 ], [ -71.143895533999967, -32.96826603799996 ], [ -71.143144111999959, -32.968356207999932 ], [ -71.142512918999955, -32.968506493999939 ], [ -71.141971895999973, -32.968626720999957 ], [ -71.141370757999937, -32.968536550999936 ], [ -71.141208221999989, -32.968502688999926 ] ] ] ] } },
{ "type": "Feature", "properties": { "t_reg_ca": "05", "t_prov_ca": "058", "t_com": "05803", "t_reg_nom": "VALPARAISO", "t_prov_nom": "MARGA MARGA", "t_com_nom": "OLMUE", "t_id_uv_ca": "58031108", "uv_carto": "8", "t_uv_nom": "8" }, "geometry": { "type": "MultiPolygon", "coordinates": [ [ [ [ -71.118225972999937, -32.955777345999927 ], [ -71.117849834999959, -32.95603082999996 ], [ -71.117579998999986, -32.956300666999937 ], [ -71.117431968999938, -32.956500925999933 ], [ -71.117385389999981, -32.956694149999976 ], [ -71.117385390999971, -32.957295286999965 ], [ -71.117325275999974, -32.957926480999951 ], [ -71.117385389999981, -32.958257105999962 ], [ -71.117385390999971, -32.958738015999977 ], [ -71.117325275999974, -32.959128755999977 ], [ -71.117024707999974, -32.959489437999927 ], [ -71.116633968999963, -32.959729891999984 ], [ -71.116213171999959, -32.96006051799997 ], [ -71.115852490999941, -32.960511369999949 ], [ -71.115612035999959, -32.960691710999981 ], [ -71.115401636999934, -32.960841996999939 ], [ -71.115221295999959, -32.961052391999942 ], [ -71.115101068999934, -32.961322904999975 ], [ -71.114890669999966, -32.961803813999943 ], [ -71.114860614999941, -32.962104383999929 ], [ -71.114680273999966, -32.962284723999971 ], [ -71.11440976199998, -32.962435008999925 ], [ -71.114079136999976, -32.962585293999943 ], [ -71.11377856699994, -32.962735576999933 ], [ -71.113538112999947, -32.963006088999983 ], [ -71.113538113999937, -32.963276600999947 ], [ -71.113357771999972, -32.963637282999976 ], [ -71.113207487999944, -32.963937851999951 ], [ -71.113087259999986, -32.964418760999919 ], [ -71.112726577999979, -32.965170181999952 ], [ -71.112395952999975, -32.965530864999941 ], [ -71.111794814999939, -32.96592160299997 ], [ -71.11119367799995, -32.966462627999938 ], [ -71.110322029999963, -32.967394389999974 ], [ -71.110051517999977, -32.967694957999974 ], [ -71.10969083599997, -32.968055640999978 ], [ -71.109270038999966, -32.968326152999964 ], [ -71.108729016999973, -32.968837116999957 ], [ -71.108067765999976, -32.969257914999964 ], [ -71.107797253999934, -32.969348085999961 ], [ -71.107436571999983, -32.969468311999954 ], [ -71.107075889999976, -32.969678709999975 ], [ -71.106534865999947, -32.969828994999943 ], [ -71.10578344399994, -32.970189676999951 ], [ -71.105422761999932, -32.970370017999969 ], [ -71.105032023999968, -32.970550358999951 ], [ -71.104701397999975, -32.970760757999983 ], [ -71.104280600999971, -32.971121438999944 ], [ -71.103769635999981, -32.971482120999951 ], [ -71.103529180999956, -32.971752633999984 ], [ -71.103258668999956, -32.972173429999934 ], [ -71.103168497999945, -32.972473997999934 ], [ -71.10298815699997, -32.973045076999945 ], [ -71.102897986999949, -32.973525986999967 ], [ -71.102807816999984, -32.973976840999967 ], [ -71.102567361999945, -32.97421729399997 ], [ -71.102326905999973, -32.974547920999953 ], [ -71.102116509999973, -32.974818432999939 ], [ -71.101605541999959, -32.975058886999925 ], [ -71.101064518999976, -32.975449625999943 ], [ -71.100733893999973, -32.975930535999957 ], [ -71.100433325999973, -32.97620104799995 ], [ -71.100042586999962, -32.976471558999961 ], [ -71.099651847999951, -32.976561729999951 ], [ -71.099381335999965, -32.976561729999951 ], [ -71.098930482999947, -32.976561729999951 ], [ -71.09856979999995, -32.976471558999947 ], [ -71.09814900399995, -32.976531671999957 ], [ -71.097848435999936, -32.97671201299994 ], [ -71.097547866999946, -32.977012582999976 ], [ -71.09697678699996, -32.97746343499994 ], [ -71.096495876999938, -32.977643775999979 ], [ -71.09607508199997, -32.977673831999944 ], [ -71.095564113999956, -32.977854173999951 ], [ -71.095023091999963, -32.978094629999937 ], [ -71.094602295999948, -32.978154742999941 ], [ -71.094271669999955, -32.977974400999983 ], [ -71.093700589999969, -32.978064572999983 ], [ -71.093189623999933, -32.978214855999951 ], [ -71.092828941999983, -32.978244913999958 ], [ -71.092498315999933, -32.978244913999958 ], [ -71.091987348999965, -32.978425253999937 ], [ -71.09156655399994, -32.978425254999934 ], [ -71.091055586999971, -32.978575537999973 ], [ -71.090694904999964, -32.97881599399993 ], [ -71.090274108999949, -32.978966276999984 ], [ -71.08967297199996, -32.978966277999973 ], [ -71.08907183499997, -32.978906163999959 ], [ -71.088410583999973, -32.978605594999976 ], [ -71.087809445999937, -32.978124685999944 ], [ -71.087238365999951, -32.977914288999948 ], [ -71.086517001999937, -32.977673831999937 ], [ -71.085975979999944, -32.977313150999969 ], [ -71.085585239999943, -32.977072696999983 ], [ -71.08525461499994, -32.976712013999936 ], [ -71.084923989999936, -32.976561729999951 ], [ -71.084202624999989, -32.976411445999936 ], [ -71.083601486999953, -32.976351330999925 ], [ -71.083601487999942, -32.97611087599995 ], [ -71.083300918999953, -32.976201047999943 ], [ -71.082820009999978, -32.976321275999958 ], [ -71.082489383999985, -32.976501616999947 ], [ -71.08206858799997, -32.976681956999975 ], [ -71.08146745099998, -32.976952468999976 ], [ -71.081226995999941, -32.977102752999947 ], [ -71.080806199999984, -32.977192922999969 ], [ -71.080325290999966, -32.977192923999951 ], [ -71.079814323999983, -32.977132809999944 ], [ -71.079333413999962, -32.977162865999958 ], [ -71.078762334999965, -32.977222979999965 ], [ -71.078521878999936, -32.97740332199993 ], [ -71.078341537999961, -32.977613719999972 ], [ -71.078101083999968, -32.977944344999962 ], [ -71.07795079899995, -32.978305026999983 ], [ -71.077740400999971, -32.979056448999984 ], [ -71.077560059999939, -32.979837926999956 ], [ -71.077469889999975, -32.980378949999931 ], [ -71.077469889999975, -32.980799745999938 ], [ -71.077139264999971, -32.981370825999932 ], [ -71.076688411999953, -32.981611280999964 ], [ -71.076207501999988, -32.981881792999957 ], [ -71.075606363999952, -32.98206213299995 ], [ -71.074824887999966, -32.982212418999936 ], [ -71.074343976999955, -32.982422814999943 ], [ -71.073923180999941, -32.982512986999957 ], [ -71.073532441999987, -32.982693326999929 ], [ -71.072991417999958, -32.98281355499995 ], [ -71.072600678999947, -32.982963839999968 ], [ -71.072119769999972, -32.983234350999965 ], [ -71.071729031999951, -32.983534919999954 ], [ -71.071308234999947, -32.983745316999951 ], [ -71.071037722999961, -32.983925657999968 ], [ -71.070526756999982, -32.984045885999926 ], [ -71.070196131999978, -32.984226226999965 ], [ -71.069835449999971, -32.984376511999983 ], [ -71.069384596999953, -32.984436624999951 ], [ -71.068993856999953, -32.984616965999983 ], [ -71.068693288999967, -32.984797306999951 ], [ -71.068332606999945, -32.985007704999923 ], [ -71.067491014999973, -32.98503776299998 ], [ -71.06685982099998, -32.985007704999916 ], [ -71.066258683999934, -32.984977647999976 ], [ -71.065777773999969, -32.984977647999976 ], [ -71.065649073999978, -32.984983242999931 ], [ -71.069163566999976, -32.988102298999934 ], [ -71.070267102999935, -32.989105776999956 ], [ -71.074071026999945, -32.991874675999952 ], [ -71.077728567999941, -32.994446449999934 ], [ -71.082045000999983, -32.996847566999968 ], [ -71.085924156999965, -33.000771578999938 ], [ -71.089042774999939, -33.004548643999954 ], [ -71.089956621999988, -33.007165938999947 ], [ -71.090996493999981, -33.009103018999944 ], [ -71.092949693999969, -33.011623088999954 ], [ -71.095747311999958, -33.013809839999965 ], [ -71.096913321999978, -33.015066654999956 ], [ -71.097026855999957, -33.015862499999962 ], [ -71.09666335299994, -33.016506812999978 ], [ -71.095574700999975, -33.018519489999946 ], [ -71.09560301099998, -33.019715645999952 ], [ -71.09593039899994, -33.021544978999941 ], [ -71.09620089699996, -33.022345677999958 ], [ -71.097417741999962, -33.021987757999966 ], [ -71.099096853999981, -33.021172560999958 ], [ -71.101446540999973, -33.019988341999976 ], [ -71.104122106999966, -33.018226253999956 ], [ -71.105705996999973, -33.016983329999945 ], [ -71.107289841999943, -33.01574038699993 ], [ -71.108454346999963, -33.014719136999929 ], [ -71.111467422999979, -33.012879650999935 ], [ -71.113998419999973, -33.01219292199994 ], [ -71.115519389999974, -33.011880977999951 ], [ -71.119683519999967, -33.012024922999956 ], [ -71.121824301999936, -33.012775482999984 ], [ -71.122517037999955, -33.01333602699998 ], [ -71.123803935999945, -33.013886453999923 ], [ -71.125336906999962, -33.014074970999957 ], [ -71.12831111099996, -33.014167348999933 ], [ -71.130091850999975, -33.01406541799998 ], [ -71.136414621999975, -33.012168788999922 ], [ -71.143655147999937, -33.009612216999976 ], [ -71.150424105999946, -33.006884508999974 ], [ -71.150953872999935, -33.00348715199992 ], [ -71.151053985999965, -33.003107026999935 ], [ -71.15110163199995, -33.003203242999973 ], [ -71.15325, -32.99593 ], [ -71.15331, -32.99573 ], [ -71.15336, -32.99545 ], [ -71.15337, -32.99537 ], [ -71.15338, -32.99523 ], [ -71.15337, -32.99449 ], [ -71.15339, -32.99387 ], [ -71.15304, -32.99383 ], [ -71.15274, -32.99375 ], [ -71.1525, -32.99363 ], [ -71.15208, -32.99345 ], [ -71.15206, -32.99296 ], [ -71.15144, -32.99043 ], [ -71.15125, -32.99044 ], [ -71.15121, -32.99037 ], [ -71.1512, -32.9903 ], [ -71.15121, -32.99017 ], [ -71.15123, -32.99004 ], [ -71.15127, -32.98984 ], [ -71.15125, -32.98972 ], [ -71.15115, -32.98968 ], [ -71.15081, -32.98965 ], [ -71.15063, -32.98967 ], [ -71.15056, -32.98964 ], [ -71.15049, -32.98957 ], [ -71.15037, -32.98949 ], [ -71.1502, -32.98951 ], [ -71.15011, -32.98953 ], [ -71.15002, -32.98955 ], [ -71.14989, -32.98955 ], [ -71.149868236999964, -32.989548107999951 ], [ -71.149044178999986, -32.985420151999953 ], [ -71.148892741999987, -32.985019642999916 ], [ -71.147674749999965, -32.981835583999946 ], [ -71.147152782999967, -32.980470981999929 ], [ -71.144713558999968, -32.97563485899996 ], [ -71.144443108999951, -32.975098650999939 ], [ -71.14215033399995, -32.970423663999952 ], [ -71.141946501999939, -32.970008046999951 ], [ -71.141208221999989, -32.968502688999926 ], [ -71.140649393999979, -32.968386265999968 ], [ -71.140228596999975, -32.96826603799996 ], [ -71.139657516999989, -32.968115753999939 ], [ -71.139387005999936, -32.967845242999935 ], [ -71.138966210999968, -32.967274161999967 ], [ -71.138485300999946, -32.966853365999945 ], [ -71.13791422099996, -32.966642967999967 ], [ -71.137403253999935, -32.96631234299997 ], [ -71.136832173999949, -32.966282285999959 ], [ -71.136291149999977, -32.966282285999966 ], [ -71.135720069999934, -32.966402512999935 ], [ -71.135239159999969, -32.966342399999967 ], [ -71.134728193999933, -32.966222171999966 ], [ -71.134277341999962, -32.965530864999955 ], [ -71.133886601999961, -32.965110068999927 ], [ -71.133706260999986, -32.964629158999962 ], [ -71.133435749999933, -32.964298533999973 ], [ -71.133075067999982, -32.96408813599993 ], [ -71.132684328999972, -32.963757509999944 ], [ -71.132053133999989, -32.963306655999922 ], [ -71.131692451999982, -32.962915917999965 ], [ -71.131241599999953, -32.962705520999975 ], [ -71.130580347999967, -32.962705520999975 ], [ -71.12991909699997, -32.962615348999961 ], [ -71.129528357999959, -32.962435009999965 ], [ -71.129107562999948, -32.962134440999925 ], [ -71.128506425999944, -32.961743700999932 ], [ -71.128055571999937, -32.961052391999935 ], [ -71.127604719999965, -32.960631597999964 ], [ -71.12709375299994, -32.960090574999974 ], [ -71.126733070999947, -32.959759948999924 ], [ -71.126552729999958, -32.959429323999977 ], [ -71.126342331999979, -32.958978470999959 ], [ -71.126071820999982, -32.958196992999945 ], [ -71.125921536999954, -32.957565798999944 ], [ -71.125651024999968, -32.957024774999979 ], [ -71.125230228999953, -32.956393581999976 ], [ -71.124839488999953, -32.956213240999936 ], [ -71.124418693999985, -32.956032899999975 ], [ -71.124088067999935, -32.956002841999968 ], [ -71.123697327999935, -32.956002842999958 ], [ -71.123246475999977, -32.95594272899995 ], [ -71.122735509999984, -32.955822500999943 ], [ -71.122495054999945, -32.955702272999929 ], [ -71.122134371999948, -32.95555198999994 ], [ -71.121782920999976, -32.955270378999941 ], [ -71.121643912999957, -32.95518860899994 ], [ -71.121503178999944, -32.955101136999929 ], [ -71.120973407999941, -32.954877888999931 ], [ -71.120752631999949, -32.954681642999951 ], [ -71.120523678999973, -32.954338213999954 ], [ -71.120240790999958, -32.954049146999985 ], [ -71.120159230999946, -32.953807125999958 ], [ -71.12002537799998, -32.953664906999968 ], [ -71.11992498799998, -32.953597979999984 ], [ -71.119799499999942, -32.953765295999951 ], [ -71.119699110999989, -32.954049734999955 ], [ -71.119640548999939, -32.954283978999975 ], [ -71.119573622999951, -32.954568416999955 ], [ -71.119429255999933, -32.954770510999936 ], [ -71.119248914999957, -32.955041021999932 ], [ -71.118918288999964, -32.95525142099995 ], [ -71.118497493999939, -32.955582046999957 ], [ -71.118225972999937, -32.955777345999927 ] ] ] ] } },
{ "type": "Feature", "properties": { "t_reg_ca": "05", "t_prov_ca": "058", "t_com": "05803", "t_reg_nom": "VALPARAISO", "t_prov_nom": "MARGA MARGA", "t_com_nom": "OLMUE", "t_id_uv_ca": "58031110", "uv_carto": "10", "t_uv_nom": "10" }, "geometry": { "type": "MultiPolygon", "coordinates": [ [ [ [ -71.151606105999974, -33.004221960999928 ], [ -71.151724009999953, -33.004460051999956 ], [ -71.152145501999939, -33.005285410999917 ], [ -71.152677284999982, -33.00632671599994 ], [ -71.155136754999944, -33.009815079999953 ], [ -71.158364626999969, -33.014731846999958 ], [ -71.159094360999973, -33.016013851999965 ], [ -71.160106687999985, -33.017552334999941 ], [ -71.161850889999982, -33.020203084999942 ], [ -71.16207, -33.02056 ], [ -71.162679296999954, -33.021579370999966 ], [ -71.163632014999962, -33.023145436999968 ], [ -71.16365, -33.02314 ], [ -71.16553, -33.02246 ], [ -71.16688, -33.02197 ], [ -71.1674, -33.02177 ], [ -71.16906, -33.02108 ], [ -71.17067, -33.02036 ], [ -71.17078, -33.02032 ], [ -71.17106, -33.0202 ], [ -71.17191, -33.01987 ], [ -71.17237, -33.01971 ], [ -71.17372, -33.01925 ], [ -71.17423, -33.01907 ], [ -71.17514, -33.01877 ], [ -71.17664, -33.01829 ], [ -71.17745, -33.01794 ], [ -71.17812, -33.0177 ], [ -71.17977, -33.01724 ], [ -71.18016, -33.01714 ], [ -71.18081, -33.01696 ], [ -71.18253, -33.01646 ], [ -71.18714, -33.01518 ], [ -71.18816, -33.0149 ], [ -71.18988, -33.01442 ], [ -71.19065, -33.0142 ], [ -71.19205, -33.0138 ], [ -71.19263, -33.01362 ], [ -71.19407, -33.01324 ], [ -71.194384234999973, -33.013168582999974 ], [ -71.191803479999976, -33.008579722999968 ], [ -71.191861737999943, -33.008529118999945 ], [ -71.191183946999956, -33.007974353999934 ], [ -71.190355168999986, -33.007488413999965 ], [ -71.188827510999943, -33.00726497699997 ], [ -71.185545701999956, -33.006665608999981 ], [ -71.183867318999944, -33.006350907999938 ], [ -71.182371408999984, -33.005907867999944 ], [ -71.180686120999951, -33.005311715999937 ], [ -71.180642854999974, -33.00506222599995 ], [ -71.180674574999955, -33.004842704999923 ], [ -71.180631309999967, -33.004593213999946 ], [ -71.180035270999952, -33.004509785999964 ], [ -71.179142365999951, -33.004431540999974 ], [ -71.178768207999951, -33.004312951999971 ], [ -71.17857728499996, -33.004097318999982 ], [ -71.178534794999962, -33.003879093999942 ], [ -71.177709195999967, -33.003518134999979 ], [ -71.17595218699995, -33.002842694999956 ], [ -71.175586757999952, -33.002461207999936 ], [ -71.1753, -33.00274 ], [ -71.17495, -33.00315 ], [ -71.17447, -33.00295 ], [ -71.17336, -33.0024 ], [ -71.17224, -33.00186 ], [ -71.17132, -33.00142 ], [ -71.17067, -33.00115 ], [ -71.17017, -33.00102 ], [ -71.16886, -33.00082 ], [ -71.16781, -33.00066 ], [ -71.167459199999939, -33.000572299999916 ], [ -71.16741, -33.00056 ], [ -71.167354435999982, -33.000548092999971 ], [ -71.16713, -33.0005 ], [ -71.166959906999978, -33.000346915999955 ], [ -71.16693, -33.00032 ], [ -71.16683, -33.00022 ], [ -71.16674, -33.00009 ], [ -71.16661, -32.9999 ], [ -71.16652, -32.99978 ], [ -71.16644, -32.99968 ], [ -71.16634, -32.99958 ], [ -71.16618, -32.99945 ], [ -71.16599, -32.99931 ], [ -71.16564, -32.99911 ], [ -71.16553, -32.99901 ], [ -71.16545, -32.99879 ], [ -71.16544, -32.99856 ], [ -71.16547, -32.99813 ], [ -71.16549, -32.99792 ], [ -71.16551, -32.99756 ], [ -71.16548, -32.99738 ], [ -71.16538, -32.99717 ], [ -71.16532, -32.99705 ], [ -71.16526, -32.99695 ], [ -71.16514, -32.99679 ], [ -71.16456, -32.99608 ], [ -71.16444, -32.99596 ], [ -71.16436, -32.99588 ], [ -71.16425, -32.99578 ], [ -71.16403, -32.99572 ], [ -71.16392, -32.99568 ], [ -71.16341, -32.99554 ], [ -71.16316, -32.99548 ], [ -71.16301, -32.9954 ], [ -71.16288, -32.99531 ], [ -71.16273, -32.99516 ], [ -71.162309210999979, -32.99452297199997 ], [ -71.162138447999951, -32.994264455999939 ], [ -71.16201, -32.99407 ], [ -71.1615, -32.99426 ], [ -71.16157, -32.9944 ], [ -71.16163, -32.99455 ], [ -71.1618, -32.99472 ], [ -71.16193, -32.99495 ], [ -71.16199, -32.99509 ], [ -71.16198, -32.99515 ], [ -71.16193, -32.99524 ], [ -71.16172, -32.99545 ], [ -71.16146, -32.99594 ], [ -71.16123, -32.99629 ], [ -71.16121, -32.99638 ], [ -71.16104, -32.99649 ], [ -71.16106, -32.99692 ], [ -71.16138, -32.99694 ], [ -71.16166, -32.99697 ], [ -71.16219, -32.99695 ], [ -71.16236, -32.99698 ], [ -71.16253, -32.99708 ], [ -71.16272, -32.99725 ], [ -71.1628, -32.99737 ], [ -71.16284, -32.99747 ], [ -71.16281, -32.99754 ], [ -71.16272, -32.99758 ], [ -71.16259, -32.99759 ], [ -71.16247, -32.99758 ], [ -71.16211, -32.99749 ], [ -71.16183, -32.99749 ], [ -71.1617, -32.99749 ], [ -71.16164, -32.99752 ], [ -71.16162, -32.99758 ], [ -71.16174, -32.99772 ], [ -71.16174, -32.99778 ], [ -71.16169, -32.99783 ], [ -71.16162, -32.99784 ], [ -71.16144, -32.99772 ], [ -71.16136, -32.9977 ], [ -71.1613, -32.99773 ], [ -71.1613, -32.99779 ], [ -71.16133, -32.99784 ], [ -71.16137, -32.99791 ], [ -71.16135, -32.99796 ], [ -71.16128, -32.99796 ], [ -71.16109, -32.99786 ], [ -71.16101, -32.99785 ], [ -71.16097, -32.9979 ], [ -71.16113, -32.99807 ], [ -71.16114, -32.9981 ], [ -71.16112, -32.99813 ], [ -71.16107, -32.99813 ], [ -71.16083, -32.99803 ], [ -71.16072, -32.99802 ], [ -71.16068, -32.99806 ], [ -71.16071, -32.99812 ], [ -71.16081, -32.99824 ], [ -71.16085, -32.99828 ], [ -71.16084, -32.99834 ], [ -71.16078, -32.99837 ], [ -71.16059, -32.9983 ], [ -71.16052, -32.99829 ], [ -71.16049, -32.99835 ], [ -71.1605, -32.9984 ], [ -71.1606, -32.99845 ], [ -71.16063, -32.99851 ], [ -71.16062, -32.99855 ], [ -71.16056, -32.99859 ], [ -71.16034, -32.99849 ], [ -71.16028, -32.99849 ], [ -71.16027, -32.99853 ], [ -71.16033, -32.99867 ], [ -71.16034, -32.99886 ], [ -71.16018, -32.99908 ], [ -71.16014, -32.99912 ], [ -71.1601, -32.9991 ], [ -71.16008, -32.99906 ], [ -71.16005, -32.99886 ], [ -71.15977, -32.99874 ], [ -71.15972, -32.99873 ], [ -71.15968, -32.99875 ], [ -71.15966, -32.99881 ], [ -71.15967, -32.99886 ], [ -71.15964, -32.99893 ], [ -71.15954, -32.99902 ], [ -71.1594, -32.99907 ], [ -71.1593, -32.99908 ], [ -71.15919, -32.99906 ], [ -71.15905, -32.99899 ], [ -71.1588, -32.99894 ], [ -71.15852, -32.99892 ], [ -71.15825, -32.99885 ], [ -71.1581, -32.99877 ], [ -71.15794, -32.99861 ], [ -71.15772, -32.99838 ], [ -71.15766, -32.99828 ], [ -71.15764, -32.99815 ], [ -71.15761, -32.99803 ], [ -71.15755, -32.99799 ], [ -71.15748, -32.99801 ], [ -71.15752, -32.99818 ], [ -71.15752, -32.99833 ], [ -71.15754, -32.99848 ], [ -71.15757, -32.99867 ], [ -71.15756, -32.99879 ], [ -71.15754, -32.99886 ], [ -71.15747, -32.99894 ], [ -71.15723, -32.99907 ], [ -71.15702, -32.99912 ], [ -71.1568, -32.99912 ], [ -71.15659, -32.99916 ], [ -71.15639, -32.99925 ], [ -71.15622, -32.99933 ], [ -71.15609, -32.99936 ], [ -71.15589, -32.99934 ], [ -71.15573, -32.99938 ], [ -71.15535, -32.99963 ], [ -71.1551, -32.99978 ], [ -71.15499, -32.99988 ], [ -71.15492, -33.00016 ], [ -71.1548, -33.00031 ], [ -71.15501, -33.00039 ], [ -71.15505, -33.00044 ], [ -71.15503, -33.00049 ], [ -71.15475, -33.00052 ], [ -71.15472, -33.00055 ], [ -71.15475, -33.00061 ], [ -71.15496, -33.0007 ], [ -71.15496, -33.00076 ], [ -71.15489, -33.00078 ], [ -71.15466, -33.00075 ], [ -71.15463, -33.0008 ], [ -71.15466, -33.00086 ], [ -71.15484, -33.00097 ], [ -71.15487, -33.00103 ], [ -71.1548, -33.00107 ], [ -71.15462, -33.00107 ], [ -71.15456, -33.00115 ], [ -71.15459, -33.00121 ], [ -71.15468, -33.00127 ], [ -71.15469, -33.00131 ], [ -71.15463, -33.00135 ], [ -71.15446, -33.00133 ], [ -71.15441, -33.00136 ], [ -71.15442, -33.00143 ], [ -71.15452, -33.0015 ], [ -71.15452, -33.00156 ], [ -71.15438, -33.00162 ], [ -71.15429, -33.00179 ], [ -71.15435, -33.00193 ], [ -71.15435, -33.00205 ], [ -71.15436, -33.00212 ], [ -71.15429, -33.00222 ], [ -71.15424, -33.00232 ], [ -71.15404, -33.00238 ], [ -71.15394, -33.00242 ], [ -71.15357, -33.00266 ], [ -71.15347, -33.00272 ], [ -71.15328, -33.00279 ], [ -71.15315, -33.0028 ], [ -71.15305, -33.00282 ], [ -71.15299, -33.00288 ], [ -71.15301, -33.00292 ], [ -71.15313, -33.00294 ], [ -71.15315, -33.00299 ], [ -71.15305, -33.00303 ], [ -71.15282, -33.00306 ], [ -71.15274, -33.00309 ], [ -71.15272, -33.00317 ], [ -71.15278, -33.00321 ], [ -71.15282, -33.00326 ], [ -71.1528, -33.00333 ], [ -71.15269, -33.00332 ], [ -71.15259, -33.00329 ], [ -71.15252, -33.00332 ], [ -71.15252, -33.00338 ], [ -71.15262, -33.00341 ], [ -71.15265, -33.00347 ], [ -71.15258, -33.0035 ], [ -71.15249, -33.00347 ], [ -71.15239, -33.00345 ], [ -71.15233, -33.00349 ], [ -71.15235, -33.00354 ], [ -71.15246, -33.0036 ], [ -71.15249, -33.00366 ], [ -71.15247, -33.00374 ], [ -71.15237, -33.00371 ], [ -71.15226, -33.00365 ], [ -71.15218, -33.00365 ], [ -71.15212, -33.00369 ], [ -71.15215, -33.00374 ], [ -71.15222, -33.00379 ], [ -71.15231, -33.00386 ], [ -71.15229, -33.00393 ], [ -71.15218, -33.00391 ], [ -71.15208, -33.00387 ], [ -71.15199, -33.00388 ], [ -71.15183, -33.00404 ], [ -71.15172, -33.00418 ], [ -71.151606105999974, -33.004221960999928 ] ] ] ] } }
]
}
